School Name	Address	lat	long	rank
School for the Talented and Gifted	1201 EAST EIGHTH ST DALLAS TX 75203 	32.7522292	-96.8066934	1
BASIS Tucson	3825 EAST 2ND ST TUCSON AZ 85716 	32.234824	-110.910936	2
Gwinnett School of Mathematics Science and Technology	970 MCELVANEY LN LAWRENCEVILLE GA 30044 	33.9522849	-84.0598152	3
Thomas Jefferson High School for Science and Technology	6560 BRADDOCK RD ALEXANDRIA VA 22312 	38.8180856	-77.1683232	4
BASIS Scottsdale	11440 NORTH 136TH ST SCOTTSDALE AZ 85259 	33.590355	-111.788143	5
Pine View School	1 PYTHON PATH OSPREY FL 34229 	27.186918	-82.479179	6
Loveless Academic Magnet Program High School	921 WEST JEFF DAVIS MONTGOMERY AL 36108 	32.3660519	-86.3232405	7
Biotechnology High School	4000 KOZLOSKI RD FREEHOLD NJ 07728 	40.26155	-74.2482457	8
International School	445 128TH AVE SE BELLEVUE WA 98005 	47.604526	-122.172162	9
Academic Magnet High School	1525 AVE B SOUTH NORTH CHARLESTON SC 29405 	32.8578872	-79.9642697	10
Pacific Collegiate School	255 SWIFT ST SANTA CRUZ CA 95060 	36.9534249	-122.0487708	11
High Technology High School	BCC  NEWMAN SPRINGS RD LINCROFT NJ 07738 	40.3311288	-74.1254114	12
Maine School of Science & Mathematics	95 HIGH ST LIMESTONE ME 04750 	46.9065818	-67.8302953	13
Irma Lerma Rangel Young Women's Leadership School	1718 R B CULLUM BLVD DALLAS TX 75210 	32.773212	-96.759354	14
International Studies Charter High School	2480 SW EIGHTH ST MIAMI FL 33135 	25.764992	-80.236427	15
Oxford Academy	5172 ORANGE AVE CYPRESS CA 90630 	33.8238134	-118.0422979	16
Carnegie Vanguard High School	10401 SCOTT ST HOUSTON TX 77051 	29.6466808	-95.3679013	17
International Academy	1020 EAST SQUARE LAKE RD BLOOMFIELD HILLS MI 48304 	42.602476	-83.226169	18
Stanton College Preparatory School	1149 WEST 13TH ST JACKSONVILLE FL 32209 	30.352409	-81.673781	19
Design & Architecture Senior High	4001 NE 2ND AVE MIAMI FL 33137 	25.8136992	-80.1912776	20
The Brooklyn Latin School	325 BUSHWICK AVE BROOKLYN NY 11206 	40.704976	-73.938767	21
International Community School	11133 NE 65TH ST KIRKLAND WA 98033 	47.6646823	-122.1921973	22
Signature School	610 MAIN ST EVANSVILLE IN 47708 	37.9728359	-87.5686192	23
School of Science and Engineering Magnet	1201 EAST EIGHTH ST DALLAS TX 75203 	32.7522292	-96.8066934	24
Young Women's Preparatory Academy	1150 SW 1 ST MIAMI FL 33130 	25.772082	-80.21372	25
Michael E. DeBakey High School for Health Professions	3100 SHENANDOAH ST HOUSTON TX 77021 	29.7101027	-95.3757763	26
Whitney High School	16800 SHOEMAKER AVE CERRITOS CA 90703 	33.8780139	-118.054533	27
Gilbert Classical Academy High School	55 NORTH GREENFIELD RD GILBERT AZ 85234 	33.351324	-111.737266	28
University High School	421 NORTH ARCADIA BLVD TUCSON AZ 85711 	32.227006	-110.8886066	29
The Preuss School 	9500 GILMAN DR MC 0536 LA JOLLA CA 92093 	32.8843552	-117.2338066	30
Sturgis Charter Public School	427 MAIN ST HYANNIS MA 02601 	41.651743	-70.285169	31
The Bronx High School of Science	75 WEST 205TH ST BRONX NY 10468 	40.8776621	-73.8910553	32
Northside College Preparatory High School	5501 NORTH KEDZIE AVE CHICAGO IL 60625 	41.981241	-87.707671	33
Bergen County Academies	200 HACKENSACK AVE HACKENSACK NJ 07601 	40.9021118	-74.0343816	34
High School for Dual Language and Asian Studies	350 GRAND ST NEW YORK NY 10002 	40.717321	-73.989323	35
The Baccalaureate School for Global Education	3412 36TH AVE LONG ISLAND CITY NY 11106 	40.754985	-73.926962	36
Hume-​Fogg Academic High School	700 BROADWAY NASHVILLE TN 37203 	36.159586	-86.78175	37
American Indian Public High School	3626 35TH AVE OAKLAND CA 94619 	37.793841	-122.199868	38
Lennox Mathematics Science & Technology Academy	11036 HAWTHORNE BLVD LENNOX CA 90304 	33.9353943	-118.3520579	39
Staten Island Technical High School	485 CLAWSON ST STATEN ISLAND NY 10306 	40.567929	-74.115695	40
Westlake Academy	2600 OTTINGER RD WESTLAKE TX 76262 	32.98471	-97.2106182	41
University High School	2611 EAST MATOIAN FRESNO CA 93740 	36.809963	-119.742962	42
Lowell High School	1101 EUCALYPTUS DR SAN FRANCISCO CA 94132 	37.7309946	-122.4835822	43
The High School of American Studies at Lehman College	2925 GOULDEN AVE BRONX NY 10468 	40.8746091	-73.8950801	44
Walter Payton College Preparatory High School	1034 NORTH WELLS ST CHICAGO IL 60610 	41.901666	-87.635232	45
YES Prep North Central	13703 ALDINE WESTFIELD RD HOUSTON TX 77039 	30.068689	-95.404466	46
Townsend Harris High School	14911 MELBOURNE AVE FLUSHING NY 11367 	40.735017	-73.821339	47
West Shore Junior/​Senior High School	250 WILDCAT ALLEY MELBOURNE FL 32935 	28.1071916	-80.6261259	48
Stuyvesant High School	345 CHAMBERS ST NEW YORK NY 10282 	40.7179707	-74.0140348	49
Dr. Ronald E. McNair Academic High School	123 COLES ST JERSEY CITY NJ 07302 	40.7268188	-74.0469758	50
North Hills Preparatory	606 EAST ROYAL LN IRVING TX 75039 	32.89481	-96.933173	51
Winston Churchill High School	11300 GAINSBOROUGH RD POTOMAC MD 20854 	39.044057	-77.1723317	52
Sonoran Science Academy Tucson	2325 WEST SUNSET RD TUCSON AZ 85741 	32.308047	-111.017418	53
The Science Academy of South Texas	900 MED HIGH DR MERCEDES TX 78570 	26.1557503	-97.9400371	54
Benjamin Franklin High School	2001 LEON C. SIMON DR NEW ORLEANS LA 70122 	30.025146	-90.06551	55
Eastwood Academy High School	1315 DUMBLE HOUSTON TX 77023 	29.735497	-95.328119	56
Boston Latin School	78 AVE LOUIS PASTEUR BOSTON MA 02115 	42.3381855	-71.1020029	57
Peak to Peak Charter School	800 MERLIN DR LAFAYETTE CO 80026 	39.991309	-105.081117	58
Walt Whitman High School	7100 WHITTIER BLVD BETHESDA MD 20817 	38.9815919	-77.1274356	59
IDEA Frontier College Preparatory	2800 SOUTH DAKOTA AVE BROWNSVILLE TX 78521 	25.886055	-97.42489	60
Rye High School	PARSONS ST RYE NY 10580 	40.9740505	-73.6863752	61
Pittsford Sutherland High School	55 SUTHERLAND ST PITTSFORD NY 14534 	43.0889717	-77.5219378	62
Queens High School for the Sciences at York College	9450 159TH ST JAMAICA NY 11451 	40.7009286	-73.7983153	63
Sumner Academy of Arts & Science	1610 NORTH 8TH ST KANSAS CITY KS 66101 	39.12141	-94.629517	64
Kipp Houston High School	10711 KIPP WAY HOUSTON TX 77099 	29.669357	-95.56626	65
Yes Prep -​ Southwest Campus	4411 ANDERSON RD HOUSTON TX 77053 	29.605588	-95.443232	66
Alexander W. Dreyfoos School of the Arts	501 SOUTH SAPODILLA AVE WEST PALM BEACH FL 33401 	26.708614	-80.059802	67
Liberal Arts & Science Academy (LASA)	7309 LAZY CREEK DR AUSTIN TX 78724 	30.3124	-97.655811	68
Brooklyn Technical High School	29 FT GREENE PLACE BROOKLYN NY 11217 	40.688872	-73.976438	69
Corbett School	35800 EAST HIST COLUMBIA RIVER CORBETT OR 97019 	45.530138	-122.2956524	70
Pittsford-​Mendon High School	472 MENDON RD PITTSFORD NY 14534 	43.0611217	-77.5197121	71
Northcoast Preparatory and Performing Arts Academy	251 BAYSIDE RD ARCATA CA 95521 	40.86427	-124.075696	72
Bergen County Technical High School	504ROUTE 46 WEST TETERBORO NJ 07608 	40.8615644	-74.0584168	73
Jericho High School	99 CEDAR SWAMP RD JERICHO NY 11753 	40.799791	-73.5495506	74
DeKalb School of the Arts	1192 CLARENDON AVE AVONDALE ESTATES GA 30002 	33.759251	-84.266892	75
Julia R. Masterman Laboratory and Demonstration School	1699 SPRING GARDEN ST PHILADELPHIA PA 19130 	39.963419	-75.1657196	76
Northland Preparatory Academy	3300 WEST SPARROW AVE FLAGSTAFF AZ 86004 	35.199664	-111.605998	77
Yonkers Middle High School	150 ROCKLAND AVE YONKERS NY 10705 	40.9260086	-73.885915	78
Mission San Jose High School	41717 PALM AVE FREMONT CA 94539 	37.5442976	-121.933798	79
Blind Brook High School	840 KING ST RYE BROOK NY 10573 	41.0293965	-73.6708081	80
Davidson Fine Arts	615 12TH ST AUGUSTA GA 30901 	33.4733553	-81.974912	81
Summit Preparatory High School	890 BROADWAY REDWOOD CITY CA 94063 	37.486775	-122.2103	82
IDEA Quest College Preparatory	14001 NORTH 29TH ST MCALLEN TX 78504 	26.3187742	-98.2335062	83
Langley High School	6520 GEORGETOWN PK MCLEAN VA 22101 	38.950822	-77.165587	84
Jones College Prep	606 SOUTH STATE ST CHICAGO IL 60605 	41.8742818	-87.6280242	85
William A. Shine Great Neck South High School	341 LAKEVILLE RD GREAT NECK NY 11020 	40.7635314	-73.7046555	86
Walnut Hills High School	3250 VICTORY PARKWAY CINCINNATI OH 45207 	39.1427024	-84.480923	87
Suncoast Community High School	600 WEST 28TH ST RIVIERA BEACH FL 33404 	26.785676	-80.065066	88
Hawthorne Math and Science Academy	4467 WEST BROADWAY HAWTHORNE CA 90250 	33.920399	-118.354301	89
Paxon School for Advanced Studies	3239 NORMAN EAST THAGARD BLVD JACKSONVILLE FL 32254 	30.3438748	-81.7235367	90
Newport High School	4333 FACTORIA BLVD SE BELLEVUE WA 98006 	47.5679585	-122.1722352	91
University High School	9419 WEST VAN BUREN ST TOLLESON AZ 85353 	33.448386	-112.264489	92
Edgewood Junior-​Senior High School	180 EAST MERRITT AVE MERRITT ISLAND FL 32953 	28.3618584	-80.6954399	93
California Academy Of Mathematics And Science	1000 EAST VICTORIA ST CARSON CA 90747 	33.8672351	-118.2546498	94
Alliance Dr. Olga Mohan High School	644 WEST 17TH ST LOS ANGELES CA 90015 	34.0369274	-118.2718877	95
MAST Academy	3979 RICKENBACKER CAUSEWAY KEY BISCAYNE FL 33149 	25.7390149	-80.166327	96
Laredo Early College High School	5201 UNIVERSITY BLVD LAREDO TX 78041 	27.5734834	-99.4350028	97
Wyoming High School	106 PENDERY AVE WYOMING OH 45215 	39.235957	-84.4693659	98
Poolesville High School	17501 WILLARD RD POOLESVILLE MD 20837 	39.142804	-77.418714	99
Harbor Teacher Preparation Academy	1111 FIGUEROA  PLACE WILMINGTON CA 90744 	33.7838058	-118.2813266	100
James Madison High School	2500 JAMES MADISON DR VIENNA VA 22181 	38.8964568	-77.2785044	101
Highland Park High School	4220 EMERSON AVE DALLAS TX 75205 	32.8463712	-96.8078279	102
Ridgeview Classical Schools	1800 SOUTH LEMAY AVE FORT COLLINS CO 80525 	40.5627629	-105.057016	103
Edgemont Junior-​Senior High School	200 WHITE OAK LN SCARSDALE NY 10583 	40.9985034	-73.8120694	104
Thomas S. Wootton High School	2100 WOOTTON PARKWAY ROCKVILLE MD 20850 	39.0765599	-77.182968	105
Richard Montgomery High School	250 RICHARD MONTGOMERY DR ROCKVILLE MD 20852 	39.078452	-77.14644	106
Mclean High School	1633 DAVIDSON RD MCLEAN VA 22101 	38.9265445	-77.1842551	107
The Wheatley School	11 BACON RD OLD WESTBURY NY 11568 	40.7632887	-73.6177616	108
Monta Vista High School	21840 MCCLELLAN RD CUPERTINO CA 95014 	37.3143004	-122.0572686	109
Booker T. Washington High School for the Performing and Visual Arts	3434 SOUTH R L THORNTON DALLAS TX 75224 	32.7259551	-96.8263787	110
South Texas High School for Health Professions	700 MED HIGH DR MERCEDES TX 78570 	26.1557503	-97.9400371	111
Los Angeles Center For Enriched Studies	5931 WEST 18TH ST LOS ANGELES CA 90035 	34.043574	-118.371763	112
Martin Luther King Jr. Magnet at Pearl High School	613 17TH AVE NORTH NASHVILLE TN 37203 	36.161865	-86.801148	113
Douglas Anderson School Of The Arts	2445 SAN DIEGO RD JACKSONVILLE FL 32207 	30.300986	-81.638116	114
Haas Hall Academy	3155 NORTH COLLEGE AVE FAYETTEVILLE AR 72703 	36.108413	-94.145822	115
W.T. Woodson High School	9525 MAIN ST FAIRFAX VA 22031 	38.8412586	-77.2731522	116
South Side High School	140 SHEPHERD ST ROCKVILLE CENTRE NY 11570 	40.667228	-73.6217874	117
Oakton High School	2900 SUTTON RD VIENNA VA 22181 	38.8774237	-77.2822272	118
Harmony Science	WELLS BRANCH PARKWAY WEST PFLUGERVILLE TX 78660 	30.4285625	-97.6454174	119
Cold Spring Harbor High School	82 TURKEY LN COLD SPRING HARBOR NY 11724 	40.8672694	-73.4516527	120
Horace Greeley High School	70 ROARING BROOK RD CHAPPAQUA NY 10514 	41.174439	-73.755066	121
City Honors School at Fosdick-​Masten Park	186 EAST NORTH ST BUFFALO NY 14204 	42.9022605	-78.8608718	122
Garden City High School	170 ROCKAWAY AVE GARDEN CITY NY 11530 	40.7309304	-73.6511644	123
YES Prep Southeast	353 CRENSHAW HOUSTON TX 77034 	29.6383359	-95.2093449	124
Bellevue High School	10416 WOLVERINE WAY BELLEVUE WA 98004 	47.6041425	-122.1987031	125
Whitney M. Young Magnet High School	211 SOUTH LAFLIN ST CHICAGO IL 60607 	41.87867	-87.6641269	126
Merrol Hyde Magnet School	128 TOWNSHIP DR HENDERSONVILLE TN 37075 	36.3239469	-86.625868	127
Bethesda-​Chevy Chase High School	4301 EASTWEST HWY BETHESDA MD 20814 	38.986537	-77.0885056	128
Eleanor Roosevelt High School	411 EAST 76TH ST NEW YORK NY 10021 	40.770282	-73.953267	129
Advanced Math & Science Academy Charter School	201 FOREST ST MARLBOROUGH MA 01752 	42.3325028	-71.5772446	130
Campolindo High School	300 MORAGA RD MORAGA CA 94556 	37.8678889	-122.1252001	131
Dover-​Sherborn High School	9 JUNCTION ST DOVER MA 02030 	42.2170567	-71.3225609	132
Manhasset Secondary School	200 MEMORIAL PLACE MANHASSET NY 11030 	40.7944808	-73.6999583	133
Indian Hill High School	6865 DRAKE RD CINCINNATI OH 45243 	39.1861678	-84.3448929	134
Metro Academic and Classical High School	4015 MCPHERSON AVE ST LOUIS MO 63108 	38.641042	-90.243514	135
Lynbrook High School	1280 JOHNSON AVE SAN JOSE CA 95129 	37.3018475	-122.006027	136
Coral Reef Senior High School	10101 SW 152ND ST MIAMI FL 33157 	25.6312989	-80.356467	137
Haynes Academy School For Advanced Stud	1416 METAIRIE RD METAIRIE LA 70005 	29.986693	-90.140355	138
Salem Academy Charter School	45 CONGRESS ST SALEM MA 01970 	42.5178288	-70.8893507	139
Piedmont High School	800 MAGNOLIA AVE PIEDMONT CA 94611 	37.8234908	-122.2329558	140
The Vanguard School	1832 SOUTH WAHSATCH COLORADO SPRINGS CO 80906 	38.8074705	-104.8190765	141
Savannah Arts Academy	500 WASHINGTON AVE SAVANNAH GA 31405 	32.046004	-81.092883	142
Marc & Eva Stern Math and Science School	5151 STATE UNIVERSITY DR LOS ANGELES CA 90032 	34.0642088	-118.169919	143
Westwood High School	12400 MELLOW MEADOW DR AUSTIN TX 78750 	30.4564688	-97.7976	144
Herricks High School	100 SHELTER ROCK RD NEW HYDE PARK NY 11040 	40.7600443	-73.6656276	145
Middlesex County Academy	100 TECHNOLOGY DR EDISON NJ 08837 	40.5061929	-74.3706222	146
Saratoga High School	20300 HERRIMAN AVE SARATOGA CA 95070 	37.266336	-122.0296534	147
South Texas Business Education & Technology Academy	510 SOUTH SUGAR RD EDINBURG TX 78539 	26.3026216	-98.178477	148
The Bromfield School	14 MASSACHUSETTS AVE HARVARD MA 01451 	42.4971306	-71.5825769	149
IDEA Academy and College Preparatory School	401 SOUTH 1ST ST DONNA TX 78537 	26.1677107	-98.0639127	150
Health Careers High School	4646 HAMILTON WOLFE SAN ANTONIO TX 78229 	29.520113	-98.577509	151
Olentangy Liberty High School	3584 HOME RD POWELL OH 43065 	40.200815	-83.0991389	152
Westlake High School	4100 WESTBANK DR AUSTIN TX 78746 	30.276639	-97.813041	153
La Canada High School	4463 OAK GROVE DR LA CANADA CA 91011 	34.189707	-118.178902	154
New World School Of The Arts	25 NE 2ND ST MIAMI FL 33132 	25.776339	-80.193213	155
Palos Verdes Peninsula High School	27118 SILVER SPUR RD ROLLING HILLS ESTATES CA 90274 	33.7786231	-118.3740654	156
Lehigh Valley Academy Reg Charter School	1560 VALLEY CENTER PARKWAY BETHLEHEM PA 18017 	40.654475	-75.41001	157
Telluride High School	725 WEST COLORADO AVE TELLURIDE CO 81435 	37.941249	-107.819537	158
Academy for Allied Health Sciences	1776 RARITAN RD SCOTCH PLAINS NJ 07076 	40.6180489	-74.3570405	159
Bexley High School	326 SOUTH CASSINGHAM RD BEXLEY OH 43209 	39.9628935	-82.9307925	160
Friday Harbor High School	45 BLAIR FRIDAY HARBOR WA 98250 	48.5344802	-123.0203667	161
West Windsor-​Plainsboro High School South	346 CLARKSVILLE RD PRINCETON JCT NJ 08550 	40.306662	-74.619527	162
Wellesley High School	50 RICE ST WELLESLEY MA 02481 	42.302802	-71.279079	163
Leon M. Goldstein High School for the Sciences	1830 SHORE BLVD BROOKLYN NY 11235 	40.5808957	-73.9351412	164
River Hill High School	12101 ROUTE 108 CLARKSVILLE MD 21029 	39.2174975	-76.9315059	165
New Explorations Into ScienceTechnology and Math High School	111 COLUMBIA ST NEW YORK NY 10002 	40.7194927	-73.9791505	166
Torrey Pines High	3710 DEL MAR HEIGHTS RD SAN DIEGO CA 92130 	32.9578306	-117.2267587	167
Hastings High School	1 MT HOPE BLVD HASTINGS ON HUDSON NY 10706 	40.9928394	-73.8756891	168
duPont Manual High School	120 WEST LEE ST LOUISVILLE KY 40208 	38.2232319	-85.7583921	169
Briarcliff High School	444 PLEASANTVILLE RD BRIARCLIFF MANOR NY 10510 	41.137132	-73.8121278	170
South Texas Academy of Medical Technology	151 SOUTH HELEN MOORE RD SAN BENITO TX 78586 	26.1554262	-97.6613823	171
Community Charter Early College High School	11500 ELDRIDGE AVE LAKEVIEW TERRACE CA 91342 	34.279944	-118.38217	172
Miramonte High School	750 MORAGA WAY ORINDA CA 94563 	37.8407058	-122.1448959	173
Northwest Pennsylvania Collegiate Academy	2825 STATE ST ERIE PA 16508 	42.110899	-80.072016	174
D'Evelyn Junior/​Senior High School	10359 WEST NASSAU AVE DENVER CO 80235 	39.6423058	-105.1146159	175
Durham School Of The Arts	400 NORTH DUKE ST DURHAM NC 27701 	36.0023944	-78.9063212	176
Mystic Valley Regional Charter School	770 SALEM ST MALDEN MA 02148 	42.4338873	-71.0436171	177
Academy of Allied Health and Science	2325 HECK AVE NEPTUNE NJ 07753 	40.214474	-74.037914	178
San Marino High School	2701 HUNTINGTON DR SAN MARINO CA 91108 	34.126075	-118.098774	179
Cypress Bay High School	18600 VISTA PARK BLVD WESTON FL 33332 	26.065511	-80.397521	180
Deerfield High School	1959 WAUKEGAN RD DEERFIELD IL 60015 	42.187212	-87.854206	181
University High School	4771 CAMPUS DR IRVINE CA 92612 	33.6513036	-117.8226017	182
Elizabeth High School	600 PEARL ST ELIZABETH NJ 07202 	40.66032	-74.211686	183
Magnolia Science Academy -​ 1 Reseda	18238 SHERMAN WAY RESEDA CA 91335 	34.200718	-118.530521	184
Adlai E. Stevenson High School	1 STEVENSON DR LINCOLNSHIRE IL 60069 	42.1984838	-87.9455833	185
Canyon Crest Academy	5951 VILLAGE CENTER LOOP RD SAN DIEGO CA 92130 	32.9590757	-117.1894334	186
Clayton High School	1 MARK TWAIN CIRCLE CLAYTON MO 63105 	38.6496289	-90.344622	187
Ridgewood High School	627 EAST RIDGEWOOD AVE RIDGEWOOD NJ 07451 	40.977754	-74.105593	188
Carrboro High School	201 ROCK HAVEN DR CARRBORO NC 27510 	35.8918717	-79.0837	189
Fort Worth Academy of Fine Arts	3901 SOUTH HULEN ST FORT WORTH TX 76109 	32.690947	-97.393649	190
Academy For Information Technology	1776 RARITAN RD SCOTCH PLAINS NJ 07076 	40.6180489	-74.3570405	191
Chatham High School	255 LAFAYETTE AVE CHATHAM NJ 07928 	40.731305	-74.4000329	192
Belmont High School	221 CONCORD AVE BELMONT MA 02478 	42.394343	-71.164215	193
Syosset Senior High School	70 SOUTH WOODS RD SYOSSET NY 11791 	40.8291206	-73.4835744	194
Brighton High School	1150 WINTON RD SOUTH ROCHESTER NY 14618 	43.1220448	-77.5680752	195
Duxbury High School	130 ST GEORGE ST DUXBURY MA 02332 	42.0489317	-70.6795948	196
Lake Braddock Secondary School	9200 BURKE LAKE RD BURKE VA 22015 	38.8035315	-77.2658405	197
Yarmouth High School	286 WEST ELM ST YARMOUTH ME 04096 	43.794564	-70.193444	198
Redwood High	395 DOHERTY DR LARKSPUR CA 94939 	37.936813	-122.5239205	199
Ridge High School	268 SO FINLEY AVE BASKING RIDGE NJ 07920 	40.6941942	-74.5470233	200
Briar Woods High	22525 BELMONT RIDGE RD ASHBURN VA 20148 	38.993476	-77.531048	201
Columbus High School	1700 CHEROKEE AVE COLUMBUS GA 31906 	32.4794796	-84.9633433	202
Francisco Bravo Medical Magnet High School	1200 NORTH CORNWELL ST LOS ANGELES CA 90033 	34.0573294	-118.2039056	203
Lexington High School	251 WALTHAM ST LEXINGTON MA 02421 	42.444643	-71.23415	204
Chagrin Falls High School	400 EAST WASHINGTON ST CHAGRIN FALLS OH 44022 	41.429004	-81.379359	205
Loudoun Valley High	340 NORTH MAPLE AVE PURCELLVILLE VA 20132 	39.140962	-77.700339	206
West Springfield High School	6100 ROLLING RD SPRINGFIELD VA 22152 	38.785941	-77.241411	207
Westview High School 	13500 CAMINO DEL SUR SAN DIEGO CA 92129 	32.9670242	-117.1483574	208
Troy High School	2200 EAST DOROTHY LN FULLERTON CA 92831 	33.8809579	-117.8931886	209
Downtown College Preparatory	1460 THE ALAMEDA SAN JOSE CA 95126 	37.3340752	-121.9139598	210
Wyomissing Area Junior/​Senior High School	630 EVANS AVE WYOMISSING PA 19610 	40.324798	-75.969992	211
Fairfax High School	3501 REBEL RUN FAIRFAX VA 22030 	38.860202	-77.287263	212
Severna Park High School	60 ROBINSON RD SEVERNA PARK MD 21146 	39.077336	-76.5598459	213
La Jolla High School	750 NAUTILUS ST LA JOLLA CA 92037 	32.8333966	-117.2744824	214
International School of the Americas	1400 JACKSON KELLER RD SAN ANTONIO TX 78213 	29.506417	-98.515554	215
Foothill Technology High School	100 DAY RD VENTURA CA 93003 	34.2781286	-119.2268144	216
Darien High School	80 HIGH SCHOOL LN DARIEN CT 06820 	41.0846085	-73.4914511	217
Conard High School	110 BEECHWOOD RD WEST HARTFORD CT 06107 	41.7343793	-72.7518734	218
Diamond Bar High School	21400 PATHFINDER RD DIAMOND BAR CA 91765 	33.983957	-117.8388979	219
Manhattan Bridges High School	525 WEST 50TH ST NEW YORK NY 10019 	40.7653384	-73.9931088	220
Olentangy High School	675 LEWIS CENTER RD LEWIS CENTER OH 43035 	40.2000125	-83.0188412	221
Rye Neck Senior High School	300 HORNIDGE RD MAMARONECK NY 10543 	40.9569876	-73.715642	222
The High School for the Performing and Visual Arts	4001 STANFORD HOUSTON TX 77006 	29.7370384	-95.3888844	223
Newton South High School	140 BRANDEIS RD NEWTON CENTRE MA 02459 	42.3145826	-71.187721	224
Millburn High School	462 MILLBURN AVE MILLBURN NJ 07041 	40.719876	-74.31419	225
Mahtomedi Senior High School	8000 75TH ST NORTH MAHTOMEDI MN 55115 	45.058699	-92.943534	226
Brentwood High School	5304 MURRAY LA BRENTWOOD TN 37027 	36.0152959	-86.8157017	227
Osceola County School for the Arts	3151 NORTH ORANGE BLOSSOM TRAI KISSIMMEE FL 34744 	28.3417852	-81.4022758	228
West Windsor-​Plainsboro High School North	90 GROVERS MILL RD PLAINSBORO NJ 08536 	40.3233152	-74.6003096	229
Pompano Beach High School	600 NE 13TH AVE POMPANO BEACH FL 33060 	26.23665	-80.108442	230
Harmony School of Advancement -​ High	3171 NORTH SAM HOUSTON PARKWAY HOUSTON TX 77038 	29.936516	-95.468174	231
Denver Center for International Studies	574 WEST 6TH AVE DENVER CO 80204 	39.724911	-104.994002	232
Memorial High School	935 ECHO LN HOUSTON TX 77024 	29.7799109	-95.526123	233
Highland Park High School	433 VINE AVE HIGHLAND PARK IL 60035 	42.192308	-87.801241	234
Hudson High School	2500 HUDSON AURORA RD HUDSON OH 44236 	41.255775	-81.413589	235
North Salem Middle School/​High School	230 JUNE RD NORTH SALEM NY 10560 	41.354813	-73.596798	236
Cerritos High School 	12500 EAST 183RD ST . CERRITOS CA 90703 	33.863792	-118.064532	237
Paul D. Schreiber Senior High School	101 CAMPUS DR PORT WASHINGTON NY 11050 	40.8293328	-73.6817937	238
Rosie M. Collins Sorrells School of Education and Social Services 	1201 EAST EIGHTH ST DALLAS TX 75203 	32.7522292	-96.8066934	239
Weston High School	115 SCHOOL RD WESTON CT 06883 	41.210688	-73.379472	240
Oakwood High School	1200 FAR HILLS AVE DAYTON OH 45419 	39.7209346	-84.1726732	241
George Washington Carver Center for Arts and Technology	938 YORK RD TOWSON MD 21204 	39.4091322	-76.6099986	242
Gertz-​Ressler High School	2023 SOUTH UNION AVE LOS ANGELES CA 90007 	34.036596	-118.283108	243
John Jay High School	60 NORTH SALEM RD CROSS RIVER NY 10518 	41.2754412	-73.6102492	244
Edina High School 	6754 VALLEY VIEW RD EDINA MN 55435 	44.8830123	-93.3766854	245
Colleyville Heritage High School	5401 HERITAGE AVE COLLEYVILLE TX 76034 	32.888088	-97.103161	246
Montgomery Blair High School	51 UNIVERSITY BLVD EAST SILVER SPRING MD 20901 	39.0181834	-77.0117569	247
Harmony Science	5651 WEST CREEK DR FORT WORTH TX 76133 	32.662413	-97.360668	248
Rumson-​Fair Haven Regional High School	74 RIDGE RD RUMSON NJ 07760 	40.3691886	-74.0014284	249
Ridgefield High School	700 NORTH SALEM RD RIDGEFIELD CT 06877 	41.3250963	-73.5277594	250
Byram Hills High School	12 TRIPP LN ARMONK NY 10504 	41.1329073	-73.6872521	251
Summit High School	125 KENT PLACE BLVD SUMMIT NJ 07901 	40.720822	-74.370617	252
North Star Academy Cs Of Newark	10 WASHINGTON PLACE NEWARK NJ 07102 	40.7424455	-74.1700057	253
Harmony Science Academy	5435 SOUTH BRAESWOOD HOUSTON TX 77096 	29.675793	-95.479182	254
City Middle/​High School	1400 FULLER AVE NE GRAND RAPIDS MI 49505 	42.9900048	-85.6381702	255
Broadneck High School	1265 GREEN HOLLY DR ANNAPOLIS MD 21409 	39.038957	-76.451933	256
Aviation High School	6770 EAST MARGINAL WAY SOUTH SEATTLE WA 98108 	47.5430205	-122.3265413	257
Farmington High School	10 MONTEITH DR FARMINGTON CT 06032 	41.749893	-72.8675692	258
Medfield High School	88R SOUTH ST MEDFIELD MA 02052 	42.184987	-71.297788	259
Croton-​Harmon High School	36 OLD POST RD SOUTH CROTON ON HUDSON NY 10520 	41.2074837	-73.8814345	260
High School for Math Science and Engineering at CCNY	240 CONVENT AVE NEW YORK NY 10031 	40.8174284	-73.9523094	261
Fiorello H. LaGuardia High School of Music & Art and Performing Arts	100 AMSTERDAM AVE NEW YORK NY 10023 	40.774139	-73.985356	262
Academy Of Arts & Minds	3138 COMMODORE PLAZA MIAMI FL 33133 	25.727259	-80.244369	263
West Campus High School	5022 58TH ST SACRAMENTO CA 95820 	38.5295614	-121.4391371	264
Deep Run High School	4801 TWIN HICKORY RD GLEN ALLEN VA 23059 	37.6740257	-77.5985147	265
School Without Walls High School	2130 G ST NW WASHINGTON DC 20037 	38.898038	-77.0480413	266
Plainview-​Old Bethpage John F. Kennedy High School	50 KENNEDY DR PLAINVIEW NY 11803 	40.7826962	-73.4596065	267
Towson High School Law and Public Policy	69 CEDAR AVE TOWSON MD 21286 	39.3910836	-76.6018634	268
Palos Verdes High School	600 CLOYDEN RD PALOS VERDES ESTATES CA 90274 	33.7816305	-118.4195555	269
Sharon High School	181 POND ST SHARON MA 02067 	42.113306	-71.178191	270
John D. O'Bryant School of Mathematics and Science	55 MALCOLM X BLVD ROXBURY MA 02120 	42.330843	-71.0883859	271
Eastern Technical High School	1100 MACE AVE BALTIMORE MD 21221 	39.324734	-76.473985	272
Tamalpais High School	700 MILLER AVE MILL VALLEY CA 94941 	37.89025	-122.527041	273
Bainbridge High School	9330 NE HIGH SCHOOL RD BAINBRIDGE ISLAND WA 98110 	47.6363326	-122.5240889	274
Acalanes High School	1200 PLEASANT HILL RD LAFAYETTE CA 94549 	37.904578	-122.097327	275
Frankenmuth High School	525 EAST GENESEE ST FRANKENMUTH MI 48734 	43.33529	-83.733421	276
Harmony Science	9405 BETEL DR EL PASO TX 79907 	31.6982974	-106.2999085	277
NYC Lab High School for Collaborative Studies	333 WEST 17TH ST NEW YORK NY 10011 	40.7422594	-74.0024998	278
Corona del Mar High School	2101 EASTBLUFF DR NEWPORT BEACH CA 92660 	33.6338069	-117.8777708	279
Ánimo Oscar De La Hoya Charter High School	1114 SOUTH LORENA ST LOS ANGELES CA 90023 	34.023212	-118.203426	280
Victory Early C	2100 SOUTH VICTORY ST HOUSTON TX 77088 	29.8709198	-95.442292	281
Interlake High School	16245 NE 24TH ST BELLEVUE WA 98008 	47.6289341	-122.1240412	282
Richmond Community High	201 EAST BROOKLAND PARK BLVD RICHMOND VA 23222 	37.57116	-77.4298442	283
Ponte Vedra High School	460 DAVIS PARK RD PONTE VEDRA FL 32081 	30.1168845	-81.3950667	284
Coronado High School	650 D AVE CORONADO CA 92118 	32.6920107	-117.1779463	285
Skaneateles High School	49 EAST ELIZABETH ST SKANEATELES NY 13152 	42.9504075	-76.4206834	286
Harborfields High School	98 TAYLOR AVE GREENLAWN NY 11740 	40.8689139	-73.356555	287
James W. Robinson Jr. Secondary School	5035 SIDEBURN RD FAIRFAX VA 22032 	38.8155172	-77.3085472	288
Hinsdale Central High School	5500 SOUTH GRANT ST HINSDALE IL 60521 	41.7885192	-87.9321348	289
Roseland University Prep	100 SEBASTOPOL RD SANTA ROSA CA 95407 	38.4305257	-122.721625	290
MATCH Charter Public High School	1001 COMMONWEALTH AVE BOSTON MA 02215 	42.352241	-71.120947	291
Wilton High School	395 DANBURY RD WILTON CT 06897 	41.214969	-73.434865	292
Montgomery High School	1016 ROUTE 601 SKILLMAN NJ 08558 	40.4180899	-74.7053632	293
Fairview High School	1515 GREENBRIAR BLVD BOULDER CO 80305 	39.9714365	-105.2457578	294
Prospect High School	801 WEST KENSINGTON RD MT PROSPECT IL 60056 	42.0799626	-87.9507921	295
Staples High School	70 NORTH AVE WESTPORT CT 06880 	41.1532377	-73.3304708	296
Mountain View High	3535 TRUMAN AVE MOUNTAIN VIEW CA 94040 	37.35819	-122.06868	297
John Hersey High School	1900 EAST THOMAS ST ARLINGTON HEIGHTS IL 60004 	42.1025792	-87.9609823	298
Orange County High School of the Arts	1010 NORTH MAIN ST SANTA ANA CA 92701 	33.7535932	-117.8678527	299
Garfield High School	400 23 AVE SEATTLE WA 98122 	47.605334	-122.301807	300
Gregorio Luperon High School for Science and Mathematics	501 WEST 165TH ST NEW YORK NY 10032 	40.8382654	-73.9385581	301
Mountain Lakes High School	POWERVILLE RD MOUNTAIN LAKES NJ 07046 	40.899348	-74.428017	302
San Dieguito High School Academy	800 SANTA FE DR ENCINITAS CA 92024 	33.0364297	-117.2748132	303
Advanced Technologies Academy 	2501 VEGAS DR LAS VEGAS NV 89106 	36.188404	-115.1760761	304
Leland High School	6677 CAMDEN AVE SAN JOSE CA 95120 	37.2180632	-121.8441289	305
Westfield High School	550 DORIAN RD WESTFIELD NJ 07090 	40.644764	-74.3492799	306
Aurora High School	109 WEST PIONEER TRL AURORA OH 44202 	41.3128068	-81.3480751	307
Somerset High School	23255 SW 115TH AVE HOMESTEAD FL 33032 	25.5513993	-80.3781305	308
Lincoln Park High School	2001 NORTH ORCHARD ST CHICAGO IL 60614 	41.9183932	-87.6458866	309
Orange High School	2840 EAST ORANGE RD LEWIS OH 43035 	40.171859	-82.979041	310
Amador Valley High School	1155 SANTA RITA RD PLEASANTON CA 94566 	37.6683409	-121.8737635	311
Niceville Senior High School	800 EAST JOHN SIMS PARKWAY NICEVILLE FL 32578 	30.518739	-86.477391	312
Conestoga High School	200 IRISH RD BERWYN PA 19312 	40.049042	-75.455475	313
Westlake High School	100 NORTH LAKEVIEW CANYON RD WESTLAKE VILLAGE CA 91362 	34.1590301	-118.8176986	314
Lovejoy High School	2350 ESTATES PARKWAY LUCAS TX 75002 	33.1001354	-96.613564	315
Tenafly High School	19 COLUMBUS DR TENAFLY NJ 07670 	40.932642	-73.9663517	316
Chamblee Charter High School	3688 CHAMBLEE DUNWOODY RD CHAMBLEE GA 30341 	33.897819	-84.307338	317
Challenge Early College High School	5601 WEST LOOP SOUTH HOUSTON TX 77081 	29.721356	-95.457961	318
Arnold O. Beckman High School	3588 BRYAN AVE IRVINE CA 92602 	33.7184201	-117.7811294	319
St. Anthony Village High School	3303 33RD AVE NE ST. ANTHONY MN 55418 	45.0281637	-93.2146597	320
Northwood High School	4515 PORTOLA PARKWAY IRVINE CA 92620 	33.7333781	-117.7507951	321
El Segundo High School	640 MAIN ST EL SEGUNDO CA 90245 	33.9241816	-118.4159438	322
Centennial High School	4300 CENTENNIAL LN ELLICOTT CITY MD 21042 	39.2529669	-76.8671817	323
Acton-​Boxborough Regional High School	36 CHARTER RD ACTON MA 01720 	42.479555	-71.458077	324
Booker T. Washington High School 	1514 EAST ZION TULSA OK 74106 	36.1884407	-95.9704694	325
Chantilly High School	4201 STRINGFELLOW RD CHANTILLY VA 20151 	38.880314	-77.406255	326
Denver School of the Arts	7111 MONTVIEW BLVD DENVER CO 80220 	39.748077	-104.90521	327
Dougherty Valley High School	10550 ALBION RD SAN RAMON CA 94582 	37.7684491	-121.9034156	328
Coppell High School	185 WEST PARKWAY BLVD COPPELL TX 75019 	32.975315	-96.999392	329
John F. Kennedy High School	3000 BELLMORE AVE BELLMORE NY 11710 	40.6484483	-73.5217515	330
Carmel High School	3600 OCEAN AVE CARMEL CA 93923 	36.554223	-121.909252	331
Lake Oswego High School	2501 SW COUNTRY CLUB RD LAKE OSWEGO OR 97034 	45.425416	-122.701665	332
New Hartford Senior High School	33 OXFORD RD NEW HARTFORD NY 13413 	43.06967	-75.282939	333
Sir Francis Drake High School	1327 SIR FRANCIS DRAKE BLVD SAN ANSELMO CA 94960 	37.9833047	-122.5725558	334
School of Health Professions	1201 EAST EIGHTH ST DALLAS TX 75203 	32.7522292	-96.8066934	335
Cupertino High School	10100 FINCH AVE CUPERTINO CA 95014 	37.3198104	-122.0090569	336
Los Altos High School	201 ALMOND AVE LOS ALTOS CA 94022 	37.3866556	-122.1089449	337
Ardsley High School	300 FARM RD ARDSLEY NY 10502 	41.0201713	-73.8338685	338
Palisades Charter High School	15777 BOWDOIN ST PACIFIC PALISADES CA 90272 	34.0477169	-118.5306787	339
Scarsdale High School	1057 POST RD SCARSDALE NY 10583 	40.9941236	-73.7921156	340
Grosse Pointe South High School	11 GROSSE POINTE BLVD GROSSE POINTE FARMS MI 48236 	42.3913097	-82.9014587	341
South River High	201 CENTRAL AVE EAST EDGEWATER MD 21037 	38.923676	-76.5587053	342
Lassiter High School	2601 SHALLOWFORD RD MARIETTA GA 30066 	34.0423471	-84.4735655	343
Honeoye Falls-​Lima High School	83 EAST ST HONEOYE FALLS NY 14472 	42.9529693	-77.5842267	344
New Trier Township High School Winnetka	385 WINNETKA AVE WINNETKA IL 60093 	42.0947236	-87.7205292	345
Palm Harbor University High School	1900 OMAHA ST PALM HARBOR FL 34683 	28.08396	-82.760777	346
West Lafayette Jr/​Sr High Sch	1105 NORTH GRANT ST WEST LAFAYETTE IN 47906 	40.4365761	-86.9106493	347
Classen School of Advanced Studies	1901 NORTH ELLISON OKLAHOMA CITY OK 73106 	35.488099	-97.5329961	348
Scripps Ranch High School	10410 TREENA ST SAN DIEGO CA 92131 	32.9102124	-117.1137368	349
Crescenta Valley High School	2900 COMMUNITY AVE LA CRESCENTA CA 91214 	34.2204404	-118.2423332	350
North Hunterdon High School	1445 STATE ROUTE 31 ANNANDALE NJ 08801 	40.628133	-74.883616	351
Barbara Ingram School for the Arts	711 SOUTH POTOMAC ST HAGERSTOWN MD 21740 	39.6301915	-77.7246956	352
Lusher Charter School	5624 FRERET ST NEW ORLEANS LA 70115 	29.934309	-90.114306	353
Catalina Foothills High School	4300 EAST SUNRISE DR TUCSON AZ 85718 	32.3065939	-110.899576	354
Granite Bay High	1 GRIZZLY WAY GRANITE BAY CA 95746 	38.731927	-121.211864	355
Needham High School	609 WEBSTER ST NEEDHAM MA 02494 	42.286768	-71.231603	356
Vancouver School of Arts and Academics	3101 MAIN ST VANCOUVER WA 98663 	45.6439069	-122.668717	357
Laguna Beach High School	625 PARK AVE LAGUNA BEACH CA 92651 	33.5423649	-117.777726	358
Clements High School	4200 ELKINS DR SUGAR LAND TX 77479 	29.575558	-95.6331919	359
Falmouth High School	74 WOODVILLE RD FALMOUTH ME 04105 	43.7427301	-70.2695871	360
Silva Health Magnet High School	121 VAL VERDE ST EL PASO TX 79905 	31.7690195	-106.4330869	361
Dublin Coffman High School	6780 COFFMAN RD DUBLIN OH 43017 	40.108974	-83.129137	362
Plano West Senior High School	5601 WEST PARKER RD PLANO TX 75093 	33.043707	-96.8136069	363
Solon High School	33600 INWOOD DR SOLON OH 44139 	41.376578	-81.441329	364
Davis Senior High	315 WEST 14TH ST DAVIS CA 95616 	38.558282	-121.750191	365
Mater Academy Charter High	7901 NW 103RD ST HIALEAH GARDENS FL 33016 	25.8673516	-80.3256909	366
Judge Barefoot Sanders Law Magnet	1201 EAST EIGHTH ST DALLAS TX 75203 	32.7522292	-96.8066934	367
Dulaney High School	255 PADONIA RD TIMONIUM MD 21093 	39.455436	-76.6376411	368
F. W. Buchholz High School	5510 NW 27TH AVE GAINESVILLE FL 32606 	29.6777692	-82.4013672	369
Foothill High School	4375 FOOTHILL RD PLEASANTON CA 94588 	37.6718684	-121.9161544	370
Sherman Oaks Center for Enriched Studies	18605 ERWIN ST RESEDA CA 91335 	34.1838931	-118.538407	371
Las Lomas High School	1460 SOUTH MAIN ST WALNUT CREEK CA 94596 	37.8902246	-122.0554103	372
North Valley Regional High School at Demarest	150 KNICKERBOCKER RD DEMAREST NJ 07627 	40.9643878	-73.9743698	373
Gwendolyn Brooks College Preparatory Academy	250 EAST 111TH ST CHICAGO IL 60628 	41.6926806	-87.617066	374
Union County Magnet High School	1776 RARITAN RD SCOTCH PLAINS NJ 07076 	40.6180489	-74.3570405	375
Lane Technical High School	2501 WEST ADDISON ST CHICAGO IL 60618 	41.945244	-87.690716	376
Middletown High School	200 SCHOOLHOUSE DR MIDDLETOWN MD 21769 	39.4443769	-77.53627	377
Mountain Brook High School	3650 BETHUNE DR MOUNTAIN BROOK AL 35223 	33.491071	-86.714668	378
Aragon High School	900 ALAMEDA DE LAS PULGAS SAN MATEO CA 94402 	37.5500889	-122.3294098	379
George C. Marshall High School	7731 LEESBURG PK FALLS CHURCH VA 22043 	38.904953	-77.213093	380
Cedar Park High School	2150 CYPRESS CREEK RD CEDAR PARK TX 78613 	30.472006	-97.8423	381
Madison High School	RIDGEDALE AVE MADISON NJ 07940 	40.7698833	-74.4077452	382
Denver School of Science and Technology	2000 VALENCIA ST DENVER CO 80235 	39.747817	-104.890165	383
Boise High School	1010 WEST WASHINGTON ST BOISE ID 83702 	43.6211781	-116.2025293	384
Ernest W. Seaholm High School	2436 WEST LINCOLN ST BIRMINGHAM MI 48009 	42.539582	-83.243587	385
Malibu High School	30215 MORNING VIEW DR MALIBU CA 90265 	34.0239112	-118.8270154	386
Cherry Creek High School	9300 EAST UNION AVE GREENWOOD VILLAGE CO 80111 	39.629689	-104.882441	387
Cocoa Beach Junior/​Senior High School	1500 MINUTEMEN CAUSEWAY COCOA BEACH FL 32931 	28.3183508	-80.6291492	388
Oak Park High School	899 KANAN RD OAK PARK CA 91377 	34.1804182	-118.7642957	389
Jamestown High School	3751 JOHN TYLER HWY WILLIAMSBURG VA 23135 	37.251227	-76.789247	390
Irvington High School	41800 BLACOW RD FREMONT CA 94538 	37.522631	-121.968931	391
South Pasadena Senior High School	1401 FREMONT AVE SOUTH PASADENA CA 91030 	34.109425	-118.1551382	392
Andover High School	80 SHAWSHEEN RD ANDOVER MA 01810 	42.6578338	-71.1563815	393
William H. Hall High School	975 NORTH MAIN ST WEST HARTFORD CT 06117 	41.793811	-72.753356	394
The Classical Academy High School	975 STOUT RD COLORADO SPRINGS CO 80921 	39.0167162	-104.8154575	395
TrekNorth High School	2518 HANNAH AVE NW BEMIDJI MN 56601 	47.4918773	-94.9065328	396
Moreno Valley High Charter	56 SMINO GRANDE ANGEL FIRE NM 87710 	36.4109274	-105.2839305	397
Williams Prepar	1750 VICEROY RD DALLAS TX 75235 	32.835173	-96.867683	398
Marine Academy of Science and Technology	BUILDING 305 SANDY HOOK NJ 07732 	40.4617083	-74.0021467	399
Mount Hebron High School	9440ROUTE 99 ELLICOTT CITY MD 21042 	39.297476	-76.845739	400
Livingston Senior High School	33 ROBERT HARP DR LIVINGSTON NJ 07039 	40.7829934	-74.3167015	401
Blue Valley North High School	12200 LAMAR AVE OVERLAND PARK KS 66209 	38.906179	-94.660521	402
Sycamore High School	7400 CORNELL RD CINCINNATI OH 45242 	39.2669832	-84.3513158	403
Rocklin High School	5301 VICTORY LN ROCKLIN CA 95765 	38.8133046	-121.2520291	404
Burris Laboratory School	2000 UNIVERSITY AVE MUNCIE IN 47306 	40.208958	-85.407777	405
South Oldham High School	5901 VETERAN'S MEMORIAL PKY CRESTWOOD KY 40014 	38.3297098	-85.4701939	406
Poway High School	15500 ESPOLA RD POWAY CA 92064 	32.9967258	-117.0252366	407
West Linn High School	5464 WEST A ST WEST LINN OR 97068 	45.3640704	-122.6157779	408
Cheyenne Mountain High School	1200 CRESTA RD COLORADO SPRINGS CO 80906 	38.8046772	-104.8581403	409
Haddonfield Memorial High School	401 KINGS HWY EAST HADDONFIELD NJ 08033 	39.9019489	-75.0264294	410
Classical High School	770 WESTMINSTER ST PROVIDENCE RI 02903 	41.8177241	-71.4205387	411
Marriotts Ridge High School	12100 WOODFORD DR MARRIOTTSVILLE MD 21104 	39.322951	-76.934334	412
Avon High School	245 CLINTON ST AVON NY 14414 	42.904016	-77.7399159	413
Cresskill High School	1 LINCOLN DR CRESSKILL NJ 07626 	40.9449036	-73.9641982	414
Conifer Senior High School	10441 COUNTY HWY 73 CONIFER CO 80433 	31.7261041	-106.3758869	415
San Ramon Valley High School	501 DANVILLE BLVD DANVILLE CA 94526 	37.8260853	-122.006033	416
Mira Costa High School	701 SOUTH PECK AVE MANHATTAN BEACH CA 90266 	33.8737972	-118.3873783	417
Clarence High School	9625 MAIN ST CLARENCE NY 14031 	42.970808	-78.631335	418
Arcadia High School 	180 CAMPUS DR ARCADIA CA 91007 	34.1298725	-118.0363409	419
Dublin Jerome High School	8300 HYLAND CROY RD DUBLIN OH 43016 	40.1341993	-83.1781629	420
Boston Latin Academy	205 TOWNSEND ST DORCHESTER MA 02121 	42.316207	-71.0845329	421
Albany High School	603 KEY ROUTE BLVD ALBANY CA 94706 	37.8957983	-122.2925337	422
Downtown Magnets High School	1081 WEST TEMPLE ST LOS ANGELES CA 90012 	34.0629302	-118.2511158	423
East Lansing High School	509 BURCHAM DR EAST LANSING MI 48823 	42.744722	-84.47656	424
Winchester High School	80 SKILLINGS RD WINCHESTER MA 01890 	42.4551576	-71.1344587	425
Hereford High School	17301 YORK RD PARKTON MD 21120 	39.598323	-76.6610242	426
Riverside Brookfield High School	160 RIDGEWOOD RD RIVERSIDE IL 60546 	41.828066	-87.829256	427
Central High School	1700 WEST OLNEY AVE PHILADELPHIA PA 19141 	40.037386	-75.150775	428
South Valley Academy	3426 BLAKE SW ALBUQUERQUE NM 87105 	35.0348479	-106.709649	429
H.C. Williams Senior High School	99 STATE ST CANTON NY 13617 	44.606164	-75.168733	430
Cohasset High School	143 POND ST COHASSET MA 02025 	42.232615	-70.80931	431
Grapevine High School	3223 MUSTANG DR GRAPEVINE TX 76051 	32.9143051	-97.1205706	432
Academy of American Studies	2801 41ST AVE LONG ISLAND CITY NY 11101 	40.7514226	-73.9370756	433
Joel Barlow High School	100 BLACK ROCK TURNPIKE REDDING CT 06896 	41.2979114	-73.3440665	434
Loudoun County High	415 DRY MILL RD SW LEESBURG VA 20175 	39.110745	-77.5781683	435
Glenbrook North High School	2300 SHERMER RD NORTHBROOK IL 60062 	42.111022	-87.8302217	436
Wayzata High School	4955 PEONY LN NORTH PLYMOUTH MN 55446 	45.04483	-93.510885	437
Madeira High School	7465 LOANNES DR CINCINNATI OH 45243 	39.20106	-84.365696	438
Evergreen High School	29300 BUFFALO RD EVERGREEN CO 80439 	39.6246524	-105.3621147	439
Upper St. Clair High School	1825 MCLAUGHLIN RUN RD PITTSBURGH PA 15241 	40.3329114	-80.0707308	440
Radnor High School	130 KING OF PRUSSIA RD RADNOR PA 19087 	40.0371108	-75.3563472	441
Tabb High School	4431 BIG BETHEL RD YORKTOWN VA 23693 	37.124214	-76.43508	442
Beverly Hills High	241 MORENO DR BEVERLY HILLS CA 90212 	34.062006	-118.41058	443
Baruch College Campus High School	55 EAST 25TH ST NEW YORK NY 10010 	40.7416521	-73.9858661	444
Oviedo High School	601 KING ST OVIEDO FL 32765 	28.6707085	-81.217804	445
Los Gatos High School	20 HIGH SCHOOL CT. LOS GATOS CA 95030 	37.2238747	-121.9762882	446
The Woodlands High School	6101 RESEARCH FOREST DR THE WOODLANDS TX 77381 	30.193788	-95.503978	447
Connecticut International Baccalaureate Academy	857 FORBES ST EAST HARTFORD CT 06118 	41.7523039	-72.6052828	448
Lake Forest High School	1285 NORTH MCKINLEY RD LAKE FOREST IL 60045 	42.265882	-87.841549	449
Romulus Central School	5705ROUTE 96 ROMULUS NY 14541 	42.7466658	-76.8337207	450
Ottawa Hills High School	2532 EVERGREEN RD TOLEDO OH 43606 	41.6695875	-83.6326142	451
South County Secondary	8501 SILVERBROOK RD LORTON VA 22079 	38.7178802	-77.2393144	452
Kirkwood High School	801 WEST ESSEX AVE KIRKWOOD MO 63122 	38.5917394	-90.4220917	453
Nova High School	3600 COLLEGE AVE DAVIE FL 33314 	26.0755415	-80.2378314	454
Gardiner High School	510 STONE ST GARDINER MT 59030 	45.031535	-110.710782	455
Valley Stream South High School	150 JEDWOOD PLACE VALLEY STREAM NY 11581 	40.6549152	-73.713121	456
Charleston County School of the Arts	1600 SARANAC ST NORTH CHARLESTON SC 29405 	32.8898496	-79.9990768	457
George Washington High School	600 32ND AVE SAN FRANCISCO CA 94121 	37.7777914	-122.4917623	458
Leadership Public Schools – Hayward	28000 CALAROGA AVE HAYWARD CA 94545 	37.6232272	-122.0871076	459
Norcross High School	5300 SPALDING DR NORCROSS GA 30092 	33.965725	-84.213049	460
Benjamin Banneker Academic High School	800 EUCLID ST NW WASHINGTON DC 20001 	38.9239844	-77.0240414	461
Abraham Lincoln High School	555 DANA AVE SAN JOSE CA 95126 	37.32789	-121.9242084	462
New Albany High School	7600 FODOR RD NEW ALBANY OH 43054 	40.085437	-82.815267	463
Commack High School	1 SCHOLAR LN COMMACK NY 11725 	40.8586852	-73.2907116	464
Heritage High	520 EVERGREEN MILL RD SE LEESBURG VA 20175 	39.0908729	-77.5723271	465
Rancho Bernardo High School	13010 PASEO LUCIDO SAN DIEGO CA 92128 	32.9958032	-117.0666756	466
J.P. Stevens High School	855 GROVE AVE EDISON NJ 08817 	40.580705	-74.359159	467
Edmond North High School	215 WEST DANFORTH RD EDMOND OK 73003 	35.671059	-97.485174	468
Evanston Township High School	1600 DODGE AVE EVANSTON IL 60201 	42.046393	-87.702312	469
Mater Academy Lakes High School	17300 NW 87 AVE HIALEAH FL 33015 	25.930993	-80.344782	470
Burlingame High	1 MANGINI WAY BURLINGAME CA 94010 	37.582929	-122.3474694	471
Half Hollow Hills High School West	375 WOLF HILL RD DIX HILLS NY 11746 	40.8095369	-73.375208	472
Duluth High School	3737 BROCK RD DULUTH GA 30096 	34.007055	-84.1428924	473
Ravenwood High School	1724 WILSON PK BRENTWOOD TN 37027 	35.955516	-86.7650414	474
Aspire Lionel Wilson College Preparatory Academy	400 105TH AVE OAKLAND CA 94603 	37.7294775	-122.180129	475
Shorewood High	1701 EAST CAPITOL DR SHOREWOOD WI 53211 	43.0882037	-87.8881569	476
Ft. Walton Beach High School	400 HOLLYWOOD BLVD SW FORT WALTON BEACH FL 32548 	30.411307	-86.641552	477
Lower Moreland High School	555 RED LION RD HUNTINGDON VALLEY PA 19006 	40.123377	-75.0595886	478
Boca Raton Community High School	1501 NW 15TH CT BOCA RATON FL 33486 	26.364742	-80.117059	479
Brookline High School	115 GREENOUGH ST BROOKLINE MA 02445 	42.3327794	-71.1287023	480
Okemos High School	2800 JOLLY RD OKEMOS MI 48864 	42.682897	-84.4541672	481
Half Hollow Hills High School East	50 VANDERBILT PKY DIX HILLS NY 11746 	40.8033618	-73.3585177	482
Fairfield Ludlowe High School	785 UNQUOWA RD FAIRFIELD CT 06824 	41.1488782	-73.26252	483
Minnetonka High School	18301 HWY 7 MINNETONKA MN 55345 	44.9096753	-93.5108829	484
Vernon Hills High School	145 LAKEVIEW PARKWAY VERNON HILLS IL 60061 	42.2271835	-87.9477587	485
Barron Collier High School	5600 COUGAR DR NAPLES FL 34109 	26.2167501	-81.7612984	486
Ballard High School 	6000 BROWNSBORO RD LOUISVILLE KY 40222 	38.2846521	-85.6266103	487
Lewiston Porter Senior High School	4061 CREEK RD YOUNGSTOWN NY 14174 	43.218702	-79.0177242	488
Parkview High School	998 COLE RD SW LILBURN GA 30047 	33.856907	-84.111698	489
Irondequoit High School	260 COOPER RD ROCHESTER NY 14617 	43.217172	-77.595512	490
James Irwin Charter High School	5525 ASTROZON BLVD COLORADO SPRINGS CO 80916 	38.797287	-104.728437	491
High School For Law & Public Service	549 AUDUBON AVE NEW YORK NY 10040 	40.8565083	-73.926579	492
Brown School	546 SOUTH 1ST ST LOUISVILLE KY 40202 	38.2486692	-85.7528925	493
Pearce High School	1600 NORTH COIT RD RICHARDSON TX 75080 	32.9737135	-96.7677897	494
Seven Lakes High School	9251 SOUTH FRY RD KATY TX 77494 	29.7081458	-95.8079159	495
Bay High School	29230 WOLF RD BAY VILLAGE OH 44140 	41.48693	-81.943396	496
Wallis Annenberg High	4000 SOUTH MAIN ST LOS ANGELES CA 90037 	34.010466	-118.273988	497
University Preparatory School	2200 EUREKA WAY REDDING CA 96001 	40.5873126	-122.4045091	498
Prospect Hill Academy Charter School	50 ESSEX ST CAMBRIDGE MA 02139 	42.367399	-71.100694	499
Stratford High School	14555 FERN ST HOUSTON TX 77079 	29.7702001	-95.5977083	500
Bernards High School	25 OLCOTT AVE BERNARDSVILLE NJ 07924 	40.721282	-74.56451	501
Columbus Grove High School	201 WEST CROSS ST COLUMBUS GROVE OH 45830 	40.9212753	-84.0564869	502
Libertyville High School	708 WEST PARK AVE LIBERTYVILLE IL 60048 	42.283415	-87.965876	503
Eastern High	12400 OLD SHELBYVILLE RD MIDDLETOWN KY 40243 	38.243923	-85.526062	504
Alamo Heights High School	6900 BROADWAY ST SAN ANTONIO TX 78209 	29.4907037	-98.4664976	505
McKinney North High School	2550 WILMETH RD MCKINNEY TX 75070 	33.232105	-96.6460168	506
Unionville High School	750 UNIONVILLE RD KENNETT SQUARE PA 19348 	39.8824699	-75.7211956	507
Tesoro High School	1 TESORO CREEK RD LAS FLORES CA 92688 	33.5809512	-117.6123197	508
Academy Of Finance And Enterprise	3020 THOMSON AVE LONG ISLAND CITY NY 11101 	40.7449217	-73.9368229	509
Mt. Lebanon High School	155 COCHRAN RD PITTSBURGH PA 15228 	40.376205	-80.0508293	510
St. Charles North High School	255 RED GATE RD ST CHARLES IL 60175 	41.9507659	-88.3273812	511
Homewood High School	1901 SOUTH LAKESHORE DR HOMEWOOD AL 35209 	33.4597557	-86.7901849	512
Point Loma High School	2335 CHATSWORTH BLVD SAN DIEGO CA 92106 	32.7399553	-117.226999	513
Ronald Reagan High School	19000 RONALD REAGAN SAN ANTONIO TX 78258 	29.620721	-98.486717	514
Lyons Middle/​Senior High School	100 SOUTH 2ND AVE LYONS CO 80540 	40.2176064	-105.2642386	515
Williamsville East High School	151 PARADISE RD EAST AMHERST NY 14051 	43.0033082	-78.7107427	516
Clear Horizons Early College High School	13735 BEAMER RD BOX 613 HOUSTON TX 77089 	29.5824916	-95.2162283	517
Eleanor Roosevelt High School	7601 HANOVER PARKWAY GREENBELT MD 20770 	38.994828	-76.870172	518
Mills High School	400 MURCHISON DR MILLBRAE CA 94030 	37.594609	-122.390618	519
Montpelier High School	5 HIGH SCHOOL DR MONTPELIER VT 05602 	44.260075	-72.587395	520
Camino Nuevo High School Charter	3500 WEST TEMPLE AVE LOS ANGELES CA 90004 	34.076443	-118.2855081	521
Santa Monica High	601 PICO BLVD SANTA MONICA CA 90405 	34.0114277	-118.4852075	522
Los Angeles Leadership Academy	234 EAST AVE 33 LOS ANGELES CA 90031 	34.0833062	-118.2106507	523
East Lyme High School	30 CHESTERFIELD RD BOX 21 EAST LYME CT 06333 	41.3858115	-72.2482225	524
Segerstrom High School	2301 WEST MACARTHUR BLVD SANTA ANA CA 92704 	33.701742	-117.900221	525
Marquette High School	2351 CLARKSON RD CHESTERFIELD MO 63017 	38.624967	-90.5836058	526
Granby Memorial High School	315 SALMON BROOK ST GRANBY CT 06035 	41.9610663	-72.7922084	527
Turpin High School	2650 BARTELS RD CINCINNATI OH 45244 	39.10559	-84.365657	528
Dripping Springs High School	111 TIGER LN DRIPPING SPRINGS TX 78620 	30.201363	-98.116075	529
Howard High School	8700 OLD ANNAPOLIS RD ELLICOTT CITY MD 21043 	39.2249663	-76.8134279	530
San Pasqual High School	3300 BEAR VALLEY PARKWAY ESCONDIDO CA 92025 	33.076503	-117.0554636	531
Avon High School	510 WEST AVON RD AVON CT 06001 	41.783281	-72.862315	532
King International	1801 WEST OLIVE ST MILWAUKEE WI 53209 	43.093505	-87.933084	533
Plano Senior High School	2200 INDEPENDENCE PARKWAY PLANO TX 75075 	33.0281737	-96.7527321	534
School of Science & Technology	1841 SW MERLO DR BEAVERTON OR 97006 	45.506058	-122.84811	535
School of Business and Management at Yvonne A. Ewell Townview Center	1201 EAST EIGHTH ST DALLAS TX 75203 	32.7522292	-96.8066934	536
Cinco Ranch High School	23440 CINCO RANCH BLVD KATY TX 77494 	29.74444	-95.779956	537
East High School	1545 DETROIT ST DENVER CO 80206 	39.7409932	-104.9547903	538
Temple City High School	9501 EAST LEMON AVE TEMPLE CITY CA 91780 	34.1176205	-118.0644006	539
William Fremd High School	1000 SOUTH QUENTIN RD PALATINE IL 60067 	42.095368	-88.0653388	540
Calabasas High School	22855 WEST MULHOLLAND HWY CALABASAS CA 91302 	34.1382388	-118.6277348	541
Eureka Sr. High	4525 HWY 109 EUREKA MO 63025 	38.514973	-90.628889	542
Avon Lake High School	175 AVON BELDEN RD AVON LAKE OH 44012 	41.508805	-82.017173	543
New Canaan High School	11 FARM RD NEW CANAAN CT 06840 	41.128647	-73.489557	544
Marble Hill High School Of International Studies	99 TERRACE VIEW AVE BRONX NY 10463 	40.8770697	-73.9126169	545
San Diego High School of International Studies	1405 PARK BLVD SAN DIEGO CA 92101 	32.7209659	-117.1533583	546
Simsbury High School	34 FARMS VILLAGE RD SIMSBURY CT 06070 	41.8701196	-72.8241421	547
Reservoir High	11550 SCAGGSVILLE RD FULTON MD 20759 	39.1488796	-76.9115489	548
Cape Elizabeth High School	345 OCEAN HOUSE RD CAPE ELIZABETH ME 04107 	43.5917849	-70.2266137	549
John F. Kennedy High School	4545 WENIG RD NE CEDAR RAPIDS IA 52402 	42.024474	-91.681126	550
Troy High School	4777 NORTHFIELD PARKWAY TROY MI 48098 	42.5871831	-83.1778868	551
University City High School	6949 GENESEE AVE SAN DIEGO CA 92122 	32.8603065	-117.2082001	552
Corbett Charter School	35800 EAST HIST COLUMBIA RIVER CORBETT OR 97019 	45.530138	-122.2956524	553
Leadership Public Schs: Richmond	251 SOUTH 12TH ST RICHMOND CA 94804 	37.9285163	-122.3581885	554
Eagan High School	4185 BRADDOCK TRAIL EAGAN MN 55123 	44.806123	-93.132691	555
Los Alamos High School	1300 DIAMOND DR LOS ALAMOS NM 87544 	35.8857989	-106.317861	556
Mounds View High School	1900 LAKE VALENTINE RD ARDEN HILLS MN 55112 	45.062913	-93.179656	557
Fairport Senior High School	1 DAVE PADDOCK WAY FAIRPORT NY 14450 	43.0809814	-77.4147922	558
McKinney Boyd High School	600 LK FOREST DR MCKINNEY TX 75070 	33.193593	-96.6814044	559
Glenelg High School	14025 BURNT WOODS RD GLENELG MD 21737 	39.2759957	-77.0014956	560
Hidden Valley High School	5000 TITAN TRAIL ROANOKE VA 24018 	37.222904	-80.023058	561
Sunny Hills High School	1801 WARBURTON WAY FULLERTON CA 92833 	33.884165	-117.95348	562
Neuqua Valley High School	2360 95TH ST NAPERVILLE IL 60564 	41.707875	-88.193197	563
Arlington High School	869 MASS AVE ARLINGTON MA 02476 	42.417312	-71.1634825	564
Cosby High School	14300 FOX CLUB PARKWAY MIDLOTHIAN VA 23112 	37.406756	-77.701599	565
Boerne-​Samuel V. Champion High School	201 CHARGER BLVD BOERNE TX 78006 	29.7859383	-98.7048221	566
Alameda High School	2201 ENCINAL AVE ALAMEDA CA 94501 	37.7640929	-122.2471536	567
Doctors Charter School of Miami Shores	11301 NW FIFTH AVE MIAMI SHORES FL 33168 	25.879464	-80.204247	568
Lincoln Park Academy	1806 AVE I FORT PIERCE FL 34950 	27.4584326	-80.342782	569
Bozeman High School	205 NORTH 11TH AVE BOZEMAN MT 59715 	45.6814094	-111.0514415	570
William and Carol Ouchi High School	5356 SOUTH FIFTH AVE LOS ANGELES CA 90043 	33.9935651	-118.3224483	571
Barrington High School	616 WEST MAIN ST BARRINGTON IL 60010 	42.1564136	-88.1483095	572
Environmental Charter High School	16315 GREVILLEA AVE LAWNDALE CA 90260 	33.8825666	-118.3548288	573
Renaissance Charter School (The)	3559 81ST ST JACKSON HEIGHTS NY 11372 	40.7490705	-73.8851421	574
Newport Harbor High School	600 IRVINE AVE NEWPORT BEACH CA 92663 	33.6228389	-117.9132771	575
Herron High School	110 EAST 16TH ST INDIANAPOLIS IN 46202 	39.7884529	-86.1551537	576
Bronx Academy Of Letters	339 MORRIS AVE BRONX NY 10451 	40.81366	-73.925999	577
Peachtree Ridge High School	1555 OLD PEACHTREE RD NW SUWANEE GA 30024 	34.012067	-84.0914539	578
Fayetteville-​Manlius Senior High School	8201 EAST SENECA TURNPIKE MANLIUS NY 13104 	43.009405	-75.961187	579
Open High School	600 SOUTH PINE ST RICHMOND VA 23220 	37.537529	-77.450832	580
Oak Park & River Forest High School	201 NORTH SCOVILLE AVE OAK PARK IL 60302 	41.8903833	-87.7883312	581
Galileo High School	1150 FRANCISCO ST SAN FRANCISCO CA 94109 	37.8034362	-122.424013	582
Bowie High School	4103 WEST SLAUGHTER LN AUSTIN TX 78749 	30.1876535	-97.8584973	583
Scholars' Academy	320 BEACH 104TH ST ROCKAWAY PARK NY 11694 	40.5841107	-73.8257036	584
Seminole High School	2701 RIDGEWOOD AVE SANFORD FL 32773 	28.7804624	-81.2832679	585
West Senior High School	5376 NORTH LONG LAKE RD TRAVERSE CITY MI 49684 	44.7448116	-85.6828717	586
Atholton High School	6520 FREETOWN RD COLUMBIA MD 21044 	39.188227	-76.880307	587
Kings High School	5500 COLUMBIA RD KINGS MILLS OH 45034 	39.355287	-84.253837	588
Blue Valley High School	6001 WEST 159TH ST STILWELL KS 66085 	38.838964	-94.656242	589
Frank W. Cox High	2425 SHOREHAVEN DR VIRGINIA BEACH VA 23454 	36.886698	-76.05327	590
Doral Academy Charter High School	11100 NW 27TH ST DORAL FL 33172 	25.797953	-80.37517	591
William T. McFatter Technical Center	6500 NOVA DR DAVIE FL 33317 	26.085473	-80.232984	592
Barrington High School	220 LINCOLN AVE BARRINGTON RI 02806 	41.7460743	-71.3210652	593
Lakewood High School	9700 WEST 8TH AVE LAKEWOOD CO 80215 	39.729248	-105.10672	594
Mark Keppel High School	501 EAST HELLMAN AVE ALHAMBRA CA 91801 	34.0704654	-118.1156007	595
Westwood High School	200 NAHATAN ST WESTWOOD MA 02090 	42.2172134	-71.2164086	596
Johnson Magnet	1324 LNY WALKER BLVD AUGUSTA GA 30901 	33.4662195	-81.9809323	597
Crested Butte Community School	818 RED LADY AVE CRESTED BUTTE CO 81224 	38.8661199	-106.9763143	598
Evergreen Valley High School	3300 QUIMBY RD SAN JOSE CA 95148 	37.3250554	-121.7795784	599
Wells High School	200 SANFORD RD WELLS ME 04090 	43.3196252	-70.5897885	600
Carroll Senior High School	1501 WEST SOUTHLAKE BLVD SOUTHLAKE TX 76092 	32.940385	-97.174952	601
New Providence High School	35 PIONEER DR NEW PROVIDENCE NJ 07974 	40.7012	-74.40921	602
Falls Church High School	7521 JAGUAR TRAIL FALLS CHURCH VA 22042 	38.861485	-77.207432	603
Science High School	40 RECTOR ST NEWARK NJ 07102 	40.7412832	-74.1668341	604
North Allegheny Senior High School	10375 PERRY HWY WEXFORD PA 15090 	40.6051508	-80.0510091	605
Memorial High School	1000 EAST 15TH EDMOND OK 73013 	35.6382752	-97.4673221	606
Lake Travis High School	3324 RANCH RD 620 SOUTH AUSTIN TX 78738 	30.3315462	-97.9707527	607
Anderson Valley Junior-​Senior High	18200 MOUNTAIN VIEW RD BOONVILLE CA 95415 	39.0119255	-123.3750972	608
Huntington Park College-​Ready Academy High School	2071 SATURN AVE HUNTINGTON PARK CA 90255 	33.977421	-118.234121	609
Council Rock North Senior High School	62 SWAMP RD NEWTOWN PA 18940 	40.2308389	-74.9448968	610
Berkmar High School	405 PLEASANT HILL RD NW LILBURN GA 30047 	33.906254	-84.115899	611
Redwood Academy Of Ukiah	1059 NORTH STATE ST UKIAH CA 95482 	39.164946	-123.2104958	612
Beechwood High School	54 BEECHWOOD RD FORT MITCHELL KY 41017 	39.048174	-84.555853	613
Marshfield High	1401 EAST BECKER RD MARSHFIELD WI 54449 	44.6697499	-90.1535693	614
J.B. Conant High School	700 EAST COUGAR TRL HOFFMAN ESTATES IL 60169 	42.037094	-88.062725	615
Queens Gateway To Health Sciences Secondary School	15091 87TH RD JAMAICA NY 11432 	40.708383	-73.804153	616
Yellow Springs/​Mckinney High School	420 EAST ENON RD YELLOW SPRINGS OH 45387 	39.7997159	-83.9088979	617
Fort Myers High School	2635 CORTEZ BLVD FORT MYERS FL 33901 	26.62772	-81.877641	618
Upper Arlington High School	1650 RIDGEVIEW RD UPPER ARLINGTON OH 43221 	40.01664	-83.054663	619
Irvine High School	4321 WALNUT AVE IRVINE CA 92604 	33.7042865	-117.7811193	620
Dublin Scioto High School	4000 HARD RD DUBLIN OH 43016 	40.1223529	-83.099011	621
Carmel High School	520 EAST MAIN ST CARMEL IN 46032 	39.9784719	-86.1196578	622
Balboa High School	1000 CAYUGA AVE SAN FRANCISCO CA 94112 	37.722086	-122.4398055	623
Robinson High School	6311 SOUTH LOIS AVE TAMPA FL 33616 	27.874098	-82.516581	624
Maine South High School	1111 SOUTH DEE RD PARK RIDGE IL 60068 	41.9996513	-87.8548298	625
Minster High School	100 EAST 7TH ST MINSTER OH 45865 	40.402754	-84.377998	626
Capistrano Valley High School	26301 VIA ESCOLAR MISSION VIEJO CA 92692 	33.5431831	-117.6700008	627
Huntingtown High School	4125 NORTH SOLOMONS ISLAND RD HUNTINGTOWN MD 20639 	38.618739	-76.607916	628
Walnut High School	400 NORTH PIERRE RD WALNUT CA 91789 	34.02188	-117.850513	629
Shrewsbury Senior High School	64 HOLDEN ST SHREWSBURY MA 01545 	42.3035255	-71.744419	630
High School For Arts And Business	10525 HORACE HARDING EXPW CORONA NY 11368 	40.737637	-73.853408	631
University Preparatory	16925 FORREST ST VICTORVILLE CA 92395 	34.5327986	-117.2963519	632
Potsdam Senior High School	29 LEROY ST POTSDAM NY 13676 	44.677151	-74.9780339	633
Turner High School	1600 JOSEY LN CARROLLTON TX 75006 	32.948362	-96.890649	634
Miami Beach Senior High School	2231 PRAIRIE AVE MIAMI BEACH FL 33139 	25.798684	-80.134018	635
Mt. Carmel High	9550 CARMEL MOUNTAIN RD SAN DIEGO CA 92129 	32.9672159	-117.1209337	636
Decorah High School	100 CLAIBORNE DR DECORAH IA 52101 	43.3052279	-91.7896783	637
West High	1305 EAST DECORAH RD WEST BEND WI 53095 	43.4122114	-88.1615111	638
Munster High School	8808 COLUMBIA AVE MUNSTER IN 46321 	41.554132	-87.505417	639
Hoffman Estates High School	1100 WEST HIGGINS RD HOFFMAN ESTATES IL 60169 	42.0538839	-88.106716	640
Spring Lake High School	16140 148TH AVE SPRING LAKE MI 49456 	43.0621999	-86.1558712	641
Butler High	1810 MATTHEWSMINT HILL ROA MATTHEWS NC 28105 	35.120552	-80.691217	642
Clear Lake High School	2929 BAY AREA BLVD HOUSTON TX 77058 	29.5822101	-95.1060931	643
Steamboat Springs High School	45 EAST MAPLE ST STEAMBOAT SPRINGS CO 80487 	40.485885	-106.8224989	644
Quaker Valley High School	625 BEAVER ST LEETSDALE PA 15056 	40.5613675	-80.2034859	645
Atlantic Technical Center	4700 COCONUT CREEK PARKWAY MARGATE FL 33063 	26.242778	-80.192269	646
Rochester Adams High School	3200 WEST TIENKEN RD ROCHESTER HILLS MI 48306 	42.696968	-83.197799	647
Williamsville North High School	1595 HOPKINS RD WILLIAMSVILLE NY 14221 	43.02335	-78.735286	648
Annandale High	4700 MEDFORD DR ANNANDALE VA 22003 	38.822446	-77.209301	649
Millis High School	245 PLAIN ST MILLIS MA 02054 	42.1625191	-71.3545224	650
Timberline High School	701 EAST BOISE AVE BOISE ID 83706 	43.5780255	-116.1745632	651
InTech Collegiate High School	1787 NORTH RESEARCH PARKWAY NORTH LOGAN UT 84341 	41.764472	-111.821679	652
High School for Law Enforcement and Criminal Justice	4701 DICKSON ST HOUSTON TX 77007 	29.764642	-95.407662	653
Santa Ynez Valley Union High School	2975 EAST HWY 246 SANTA YNEZ CA 93460 	34.608644	-120.10153	654
Stephen F. Austin High School	3434 PHEASANT CREEK DR SUGAR LAND TX 77498 	29.6411511	-95.6781651	655
Ames High School	1921 AMES HIGH DR AMES IA 50010 	42.039807	-93.633034	656
Carle Place Middle/​High School	168 CHERRY LN CARLE PLACE NY 11514 	40.754173	-73.607094	657
Babylon Junior-​Senior High School	50 RAILROAD AVE BABYLON NY 11702 	40.6998963	-73.324371	658
School Of Scien	1450 NE LOOP 410 SAN ANTONIO TX 78209 	29.515348	-98.443689	659
Shorecrest High School	15343 25TH AVE N.E. SHORELINE WA 98155 	47.7406298	-122.3020996	660
Patrick Henry High School	6702 WANDERMERE DR SAN DIEGO CA 92120 	32.7978324	-117.0517868	661
Pioneer High School	1290 BLOSSOM HILL RD SAN JOSE CA 95118 	37.2471368	-121.8825887	662
Argyle High School	191 U SOUTH HWY 377 ARGYLE TX 76226 	33.1076155	-97.1857027	663
Century Senior High	2525 VIOLA RD NE ROCHESTER MN 55906 	44.049535	-92.425318	664
Oak Ridge High	1120 HARVARD WAY EL DORADO HILLS CA 95762 	38.6798659	-121.070664	665
Chaparral High School	6935 EAST GOLD DUST SCOTTSDALE AZ 85253 	33.5783722	-111.9312404	666
High School For Environmental Studies	448 WEST 56TH ST NEW YORK NY 10019 	40.7681189	-73.9884731	667
Tomales High School	3850 IRVIN ST TOMALES CA 94971 	38.246989	-122.895265	668
Page High	201 ALMA PINNIX DR GREENSBORO NC 27405 	36.109152	-79.784017	669
Pittsburgh Allderdice High School	2409 SHADY AVE PITTSBURGH PA 15217 	40.4295499	-79.9191642	670
Orange High School	32000 CHAGRIN BLVD PEPPER PIKE OH 44124 	41.457479	-81.453787	671
Hershey High School	550 HOMESTEAD RD HERSHEY PA 17033 	40.276956	-76.641183	672
Dana Hills High School	33333 GOLDEN LANTERN DANA POINT CA 92629 	33.4780602	-117.6999326	673
Lower Merion High School	245 EAST MONTGOMERY AVE ARDMORE PA 19003 	40.009295	-75.281032	674
Mccallum High School	5600 SUNSHINE DR AUSTIN TX 78756 	30.328703	-97.728592	675
Hamilton Southeastern High School	13910 EAST 126TH ST FISHERS IN 46037 	39.972324	-85.915619	676
Grant High School	2245 NE 36TH AVE PORTLAND OR 97212 	45.5386979	-122.6260312	677
Dutch Fork High School	1400 OLD TAMAH RD IRMO SC 29063 	34.153809	-81.2008	678
Southwest Miami High School	8855 SW 50TH TERRACE MIAMI FL 33165 	25.722257	-80.3380788	679
Monte Vista High School	3131 STONE VALLEY RD DANVILLE CA 94526 	37.8438451	-121.9817492	680
Pioneer High School	601 WEST STADIUM BLVD ANN ARBOR MI 48103 	42.2639996	-83.754633	681
Hamburg High School	4111 LEGION DR HAMBURG NY 14075 	42.7270139	-78.830393	682
Auburn High School	405 SOUTH DEAN RD AUBURN AL 36830 	32.5986351	-85.4647691	683
Manhattan Center For Science & Mathematics	260 PLEASANT AVE NEW YORK NY 10029 	40.794172	-73.932852	684
Hampton High School	2929 MCCULLY RD ALLISON PARK PA 15101 	40.5831392	-79.9407812	685
Irondale Senior High School	2425 LONG LAKE RD NEW BRIGHTON MN 55112 	45.0895355	-93.2075572	686
Arapahoe High School	2201 EAST DRY CREEK RD CENTENNIAL CO 80122 	39.580723	-104.9627617	687
Louisville Male High School	4409 PRESTON HWY LOUISVILLE KY 40213 	38.1843557	-85.7226331	688
Tinora High School	5921 DOMERSVILLE RD DEFIANCE OH 43512 	41.356896	-84.322583	689
Jenison High School	2140 BAUER RD JENISON MI 49428 	42.9207516	-85.8359474	690
College Park High School	3701 COLLEGE PARK DR THE WOODLANDS TX 77384 	30.2043761	-95.4698825	691
Pittsburgh Capa 6-​12	111 9TH ST PITTSBURGH PA 15222 	40.4448511	-79.9988154	692
Marcus High School	5707 MORRISS RD FLOWER MOUND TX 75028 	33.0630352	-97.0618165	693
Norman High School	911 WEST MAIN ST NORMAN OK 73069 	35.2184266	-97.4561961	694
Archbold High School	600 LAFAYETTE ST ARCHBOLD OH 43502 	41.516075	-84.313563	695
Mcneil High School	5720 MCNEIL DR AUSTIN TX 78729 	30.4490708	-97.7335229	696
Kerr High School	8150 SUGARLAND HOWELL HOUSTON TX 77083 	29.69155	-95.635479	697
Fishers High School	13000 PROMISE RD FISHERS IN 46038 	39.9773188	-85.9706787	698
North Reading High School	189 PARK ST NORTH READING MA 01864 	42.574258	-71.08356	699
City/​Pembroke Pines Charter High School	17189 SHERIDAN ST PEMBROKE PINES FL 33331 	26.031409	-80.373213	700
Glen A. Wilson High School	16455 WEDGEWORTH DR HACIENDA HEIGHTS CA 91745 	33.9986366	-117.9464247	701
Eastern High School	2200 PETTIS AVE NE ADA MI 49301 	43.00347	-85.524538	702
Lowville Academy High School	7668 NORTH STATE ST LOWVILLE NY 13367 	43.7896571	-75.4944759	703
Granada Hills Charter High	10535 ZELZAH AVE GRANADA HILLS CA 91344 	34.2611679	-118.5244551	704
Pacific Grove High School	615 SUNSET DR PACIFIC GROVE CA 93950 			705
Anderson High School	8403 MESA DR AUSTIN TX 78759 	30.374928	-97.752415	706
Florida State University School	3000 SCHOOL HOUSE RD TALLAHASSEE FL 32311 	30.384023	-84.222536	707
Strath Haven High School	205 SOUTH PROVIDENCE RD WALLINGFORD PA 19086 	39.896372	-75.3716935	708
Scotts Valley High School	555 GLENWOOD DR SCOTTS VALLEY CA 95066 	37.070545	-122.005062	709
Great Valley High School	225 NORTH PHOENIXVILLE PK MALVERN PA 19355 	40.0572493	-75.566926	710
Park Hill High School	7701 NW BARRY RD KANSAS CITY MO 64153 	39.2458753	-94.6694446	711
Ashland High School	65 EAST UNION ST ASHLAND MA 01721 	42.2636483	-71.4446588	712
Eastlake High School	1120 EASTLAKE PARKWAY CHULA VISTA CA 91915 	32.6437623	-116.966537	713
Lynnfield High School	275 ESSEX ST LYNNFIELD MA 01940 	42.5401583	-71.033161	714
Flower Mound High School	3411 PETERS COLONY FLOWER MOUND TX 75022 	33.0331299	-97.0826916	715
Metropolitan Learning Center	1551 BLUE HILLS AVE BLOOMFIELD CT 06002 	41.8719024	-72.7253828	716
Hilliard Darby High School	4200 LEPPERT RD HILLIARD OH 43026 	40.0381641	-83.1706431	717
Whitney High School	701 WILDCAT BLVD ROCKLIN CA 95765 	38.8351804	-121.2878185	718
Arabia Mountain High School -​ Academy of Engineering	6775 SOUTH GODDARD RD LITHONIA GA 30038 	33.65088	-84.127307	719
Southwest High School	3414 WEST 47TH ST MINNEAPOLIS MN 55410 	44.917945	-93.322888	720
Brecksville-​Broadview Heights High School	6380 MILL RD BROADVIEW HEIGHTS OH 44147 	41.3275942	-81.6420919	721
Lincoln High School	1600 SW SALMON ST PORTLAND OR 97205 	45.51882	-122.6889869	722
Alhambra High School	101 SOUTH SECOND ST ALHAMBRA CA 91801 	34.0929744	-118.1284232	723
Prosper High School	301 EAGLE DR PROSPER TX 75078 	33.2594853	-96.7986296	724
South Eugene High School	400 EAST 19TH AVE EUGENE OR 97401 	44.03772	-123.08537	725
West Mi Academy Of Environmental Science	4463 LEONARD ST NW GRAND RAPIDS MI 49534 	42.9868735	-85.7779937	726
G-​Star School Of The Arts	2065 PRAIRIE RDBLDG J WEST PALM BEACH FL 33406 	26.646578	-80.085951	727
Brea-​Olinda High School	789 NORTH WILDCAT WAY BREA CA 92821 	33.9328298	-117.8754915	728
Terra Linda High	320 NOVA ALBION WAY SAN RAFAEL CA 94903 	37.9984782	-122.553134	729
Chesapeake High	4798 MOUNTAIN RD PASADENA MD 21122 	39.1076019	-76.4612616	730
Monarch High School	329 CAMPUS DR LOUISVILLE CO 80027 	39.9506304	-105.1403355	731
Frederick Douglass Academy	2581 7TH AVE NEW YORK NY 10039 	40.824317	-73.9369747	732
Thousand Oaks High School	2323 NORTH MOORPARK RD THOUSAND OAKS CA 91360 	34.2097951	-118.8683816	733
Liberty Bell Jr Sr High	24 TWIN LAKES RD WINTHROP WA 98862 	48.44109	-120.1870013	734
Kamiak High School	10801 HARBOUR POINTE BLVD MUKILTEO WA 98275 	47.900566	-122.3010024	735
Midlothian High School	401 CHARTER COLONY PARKWAY MIDLOTHIAN VA 23114 	37.496121	-77.659338	736
Mountain View High School	1500 SE BLAIRMONT DR VANCOUVER WA 98683 	45.6121964	-122.5182866	737
Academy For Math Engineering & Science	5715 SOUTH 1300 EAST SALT LAKE CITY UT 84121 	40.646841	-111.853092	738
Richardson High School	1250 WEST BELT LINE RD RICHARDSON TX 75080 	32.953983	-96.762322	739
Taylor High School	20700 KINGSLAND BLVD KATY TX 77450 	29.7770056	-95.73452	740
Highland High	244 MYERS/MOON RD MONTEREY VA 24465 	38.4123429	-79.5806036	741
Central La Area New High School #9	450 NORTH GRAND AVE LOS ANGELES CA 90012 	34.0593621	-118.243264	742
William S. Hart Senior High School	24825 NORTH NEWHALL AVE NEWHALL CA 91321 	34.386212	-118.537953	743
Camas High School	26900 SE 15TH ST CAMAS WA 98607 	45.6122901	-122.3982092	744
Early College Academy	6400 UPTOWN BLVD NE ALBUQUERQUE NM 87110 	35.1028645	-106.5724897	745
Westlake High School	27830 HILLIARD BLVD WESTLAKE OH 44145 	41.461273	-81.928656	746
Moorpark High	4500 TIERRA REJADA RD MOORPARK CA 93021 	34.2701861	-118.8987153	747
Carlmont High	1400 ALAMEDA DE LAS PULGAS BELMONT CA 94002 	37.506137	-122.28917	748
Lin-​Wood Public School (High)	72 LINWOOD DR LINCOLN NH 03251 	44.0380087	-71.6725066	749
Walt Whitman High School	301 WEST HILLS RD HUNTINGTON STATION NY 11746 	40.8256634	-73.4221029	750
Benjamin N. Cardozo High School	5700 223RD ST BAYSIDE NY 11361 	40.7518284	-73.7559837	751
Peters Township High School	264 EAST MCMURRAY RD MCMURRAY PA 15317 	40.2810933	-80.0810265	752
Lakota East High School	6840 LAKOTA LN LIBERTY TOWNSHIP OH 45044 	39.38171	-84.372772	753
William Mason High School	6100 SOUTH MASON MONTGOMERY RD MASON OH 45040 	39.3508189	-84.3071111	754
Westview High School	4200 NW 185TH AVE PORTLAND OR 97229 	45.549953	-122.864845	755
Redondo Union High	631 VINCENT PARK REDONDO BEACH CA 90277 	33.8444656	-118.3842833	756
Columbia Senior High School	17 PARKER AVE MAPLEWOOD NJ 07040 	40.7352	-74.266382	757
Eden Prairie Senior High School	17185 VALLEY VIEW RD EDEN PRAIRIE MN 55346 	44.8736021	-93.4927297	758
Bentonville High School	1901 SE J ST BENTONVILLE AR 72712 	36.35112	-94.193324	759
Northgate High School	425 CASTLE ROCK RD WALNUT CREEK CA 94598 	37.9073472	-122.009654	760
Natomas Pacific Pathways Prep	3700 DEL PASO RD SACRAMENTO CA 95834 	38.6551568	-121.5460798	761
Chapin High School	300 COLUMBIA AVE CHAPIN SC 29036 	34.1676741	-81.3417826	762
Huron High School	2727 FULLER RD ANN ARBOR MI 48105 	42.2808629	-83.702426	763
Academy at Palumbo	1122 CATHARINE ST PHILADELPHIA PA 19147 	39.9401884	-75.161329	764
Institute Of Business Management And L	6505 INGLEWOOD AVE STOCKTON CA 95207 	38.0101242	-121.316858	765
Lindbergh High School	4900 SOUTH LINDBERGH ST LOUIS MO 63126 	38.5281345	-90.3750819	766
Wissahickon Senior High School	521 HOUSTON RD AMBLER PA 19002 	40.171545	-75.229118	767
Alfred-​Almond Junior-​Senior High School	6795ROUTE 21 ALMOND NY 14804 	42.295405	-77.749386	768
North Hollywood Senior High	5231 COLFAX AVE NORTH HOLLYWOOD CA 91601 	34.1658104	-118.3881088	769
Valencia High School	500 NORTH BRADFORD AVE PLACENTIA CA 92670 	33.8762868	-117.868699	770
Daniel Pearl Magnet High School	6649 BALBOA BLVD VAN NUYS CA 91406 	34.1905498	-118.5013049	771
Woodinville High School	19819 136 NE WOODINVILLE WA 98072 	47.7706537	-122.1614308	772
Daniel Hand High School	286 GREEN HILL RD MADISON CT 06443 	41.293414	-72.619822	773
Nauset Regional High School	100 CABLE RD NORTH EASTHAM MA 02651 	41.8587141	-69.9670265	774
Buford High School	2750 SAWNEE AVE BUFORD GA 30518 	34.1325646	-83.986843	775
Flagstaff Arts and Leadership Academy	3401 NORTH FORT VALLEY RD FLAGSTAFF AZ 86001 	35.2379576	-111.6683415	776
Hector Godinez Fundamental High School	3002 CENTENNIAL RD SANTA ANA CA 92704 	33.7231654	-117.9100123	777
River Valley Charter School	9707 1/2 MARILLA DR LAKESIDE CA 92040 	32.8532021	-116.9398299	778
El Camino High School	400 RANCHO DEL ORO DR OCEANSIDE CA 92057 	33.2175617	-117.3189045	779
Amity Regional High School	25 NEWTON RD WOODBRIDGE CT 06525 	41.357913	-73.005691	780
Poquoson High School	51 ODD RD POQUOSON VA 23662 	37.1294853	-76.38169	781
Los Alamitos High School	3591 CERRITOS AVE LOS ALAMITOS CA 90720 	33.8120115	-118.070004	782
Raoul Wallenberg Traditional High School	40 VEGA ST SAN FRANCISCO CA 94115 	37.780154	-122.4462048	783
West Ranch High School	26255 WEST VALENCIA BLVD VALENCIA CA 91381 	34.403645	-118.596786	784
McCall-​Donnelly High School	401 NORTH MISSION ST MCCALL ID 83638 	44.9045628	-116.1058856	785
Westfield High School	18250 NORTH UNION ST WESTFIELD IN 46074 	40.052624	-86.130928	786
Carlsbad High	3557 MONROE ST CARLSBAD CA 92008 	33.1623375	-117.3276268	787
Concord Carlisle High School	500 WALDEN ST CONCORD MA 01742 	42.447243	-71.347501	788
Weehawken High School	53 LIBERTY PLACE WEEHAWKEN NJ 07086 	40.7742786	-74.0182791	789
Fort Lauderdale High School	1600 NE 4TH AVE FORT LAUDERDALE FL 33305 	26.149452	-80.139242	790
Rush-​Henrietta Senior High School	1799 LEHIGH STATION RD HENRIETTA NY 14467 	43.056979	-77.606803	791
Fairfield Warde High School	755 MELVILLE AVE FAIRFIELD CT 06825 	41.1842256	-73.2351208	792
Friendswood High School	702 GREENBRIAR DR FRIENDSWOOD TX 77546 	29.5115588	-95.2114463	793
Cadillac Senior High School	400 LINDEN ST CADILLAC MI 49601 	44.2498509	-85.416524	794
Wheatland Chili High School	940 NORTH RD SCOTTSVILLE NY 14546 	43.025602	-77.762202	795
Westford Academy	30 PATTEN RD WESTFORD MA 01886 	42.5781484	-71.4637722	796
Arroyo Grande High School	495 VALLEY RD ARROYO GRANDE CA 93420 	35.1133312	-120.5807311	797
Marshall Fundamental High School	990 NORTH ALLEN AVE PASADENA CA 91104 	34.1632853	-118.1125009	798
Camden Hills Regional High School	25 KEELSON DR ROCKPORT ME 04856 	44.188816	-69.100873	799
Northern High	2950 CHANEYVILLE RD OWINGS MD 20736 	38.68132	-76.650583	800
Animo South Los Angeles Charter High School	11100 WESTERN AVE LOS ANGELES CA 90047 	33.9334023	-118.3085475	801
Bob Jones High School	650 HUGHES RD MADISON AL 35758 	34.719842	-86.741899	802
Olympian High School	1925 MAGDALENA AVE CHULA VISTA CA 91913 	32.6081084	-116.9754091	803
A C Reynolds High	1 ROCKET DR ASHEVILLE NC 28803 	35.545811	-82.477241	804
West High School	20401 VICTOR ST TORRANCE CA 90503 	33.846766	-118.36888	805
Midwood High School	2839 BEDFORD AVE BROOKLYN NY 11210 	40.632889	-73.952536	806
Yorktown High School	1100 SOUTH TIGER DR YORKTOWN IN 47396 	40.183124	-85.493758	807
La Quinta High School	10372 MCFADDEN ST WESTMINSTER CA 92683 	33.736053	-117.947122	808
York Comm High School	355 WEST SAINT CHARLES RD ELMHURST IL 60126 	41.88956	-87.950843	809
Greenwich High School	10 HILLSIDE RD GREENWICH CT 06830 	41.0382867	-73.6108875	810
Governor Livingston High School	175 WATCHUNG BLVD BERKELEY HEIGHTS NJ 07922 	40.6869137	-74.387632	811
West Jessamine High School	2101 WILMORE RD NICHOLASVILLE KY 40356 	37.885744	-84.6163589	812
Kenston High School	9500 BAINBRIDGE RD CHAGRIN FALLS OH 44023 	41.390464	-81.303063	813
Sonora High School	401 SOUTH PALM ST LA HABRA CA 90631 	33.9276791	-117.9250894	814
Brookfield High School	45 LONG MEADOW HILL RD BROOKFIELD CT 06804 	41.4785236	-73.3910223	815
Casa Grande High	333 CASA GRANDE RD PETALUMA CA 94954 	38.2424424	-122.5979996	816
Wheeling High School	900 SOUTH ELMHURST RD WHEELING IL 60090 	42.1249107	-87.9370372	817
Millennium High School	75 BROAD ST NEW YORK NY 10004 	40.7045644	-74.0115607	818
High Tech High School	2000 85TH ST N BERGEN NJ 07047 	40.8095935	-74.0141224	819
Bellbrook High School	3737 UPPER BELLBROOK RD BELLBROOK OH 45305 	39.6511335	-84.0695926	820
Francis Lewis High School	5820 UTOPIA PKY FRESH MEADOWS NY 11365 	40.741154	-73.7928648	821
Grafton High	403 GRAFTON DR YORKTOWN VA 23692 	37.1626462	-76.4710714	822
Helix High School	7323 UNIVERSITY AVE LA MESA CA 91941 	32.7548436	-117.0371951	823
Phoenix Military Academy High School	145 SOUTH CAMPBELL AVE CHICAGO IL 60612 	41.8789175	-87.688388	824
L.A. Co High School for the Arts	5151 STATE UNIVERSITY DR LOS ANGELES CA 90032 	34.0642088	-118.169919	825
Patrick F. Taylor Science & Technology	2012 JEFFERSON HWY JEFFERSON LA 70121 	29.9632529	-90.1492347	826
Leander High School	3301 SOUTH BAGDAD RD LEANDER TX 78641 	30.53822	-97.850139	827
Bronx Center for Science and Mathematics	1363 FULTON AVE BRONX NY 10456 	40.833875	-73.902818	828
Wylie E. Groves High School	20500 WEST 13 MILE RD BEVERLY HILLS MI 48025 	42.518346	-83.245609	829
Vestal Senior High School	205 WOODLAWN DR VESTAL NY 13850 	42.0856789	-76.0459626	830
Laguna Hills High School	25401 PASEO DE VALENCIA LAGUNA HILLS CA 92653 	33.5936629	-117.7023788	831
Arroyo High School	4921 NORTH CEDAR AVE EL MONTE CA 91732 	34.093624	-118.022255	832
Wilson High School	1151 SW VERMONT ST PORTLAND OR 97219 	45.4771859	-122.6902087	833
Le Grand High	12961 EAST LE GRAND RD LE GRAND CA 95333 	37.2284216	-120.2538163	834
Cape Coral High School	2300 SANTA BARBARA BLVD CAPE CORAL FL 33991 	26.608912	-81.977328	835
Anderson W. Clark Magnet High School	4747 NEW YORK AVE LA CRESCENTA CA 91214 	34.2368237	-118.2530292	836
Issaquah High School	700 2ND AVE SE ISSAQUAH WA 98027 	47.5225644	-122.028	837
Village Academy High School at Indian Hill	1444 EAST HOLT AVE POMONA CA 91767 	34.061281	-117.722941	838
Guilford High School	605 NEW ENGLAND RD GUILFORD CT 06437 	41.3137838	-72.7126642	839
Western School Of Technology & Env. Science	100 KENWOOD AVE BALTIMORE MD 21228 	39.269384	-76.712726	840
Fountain Valley High School	17816 BUSHARD FOUNTAIN VALLEY CA 92708 	33.70417	-117.961729	841
Carmen High And Technology	1712 SOUTH 32ND ST MILWAUKEE WI 53215 	43.011572	-87.953417	842
Northern High School	3801 LEONARD ST NE GRAND RAPIDS MI 49525 	42.9846675	-85.5755391	843
Stuart High	3301 PEACE VALLEY LN FALLS CHURCH VA 22044 	38.856655	-77.149266	844
Patuxent High School	12485 SOUTHERN CONNECTOR BOULE LUSBY MD 20657 	38.3549706	-76.440098	845
Ramsay High School	1800 13TH AVE SOUTH BIRMINGHAM AL 35205 	33.497616	-86.798457	846
Mankato West Senior High School	1351 SOUTH RIVERFRONT DR MANKATO MN 56001 	44.1600003	-94.0172113	847
High School of Telecommunications Arts and Technology	350 67TH ST BROOKLYN NY 11220 	40.6371816	-74.023612	848
Hebron High School	4207 PLANO PARKWAY CARROLLTON TX 75010 	33.0370768	-96.858734	849
Germantown High	W180N11501 RIVER LN GERMANTOWN WI 53022 	43.226518	-88.135234	850
Cave Spring High	3712 CHAPARRAL DR ROANOKE VA 24018 	37.212214	-80.001361	851
Colton-​Pierrepont Junior-​Senior High School	4921 STATE HWY 56 COLTON NY 13625 	44.5592348	-74.9482356	852
Fox Chapel Area Senior High School	611 FIELD CLUB RD PITTSBURGH PA 15238 	40.5179868	-79.8676287	853
Wheaton Warrenville South High School	1993 TIGER TRL WHEATON IL 60189 	41.833686	-88.1485749	854
San Clemente High School	700 AVENIDO PICO SAN CLEMENTE CA 92673 	33.439947	-117.617269	855
Liberty High School	15250 ROLATER RD FRISCO TX 75035 	33.1388401	-96.742116	856
Rockwall High School	901 YELLOWJACKET LN ROCKWALL TX 75087 	32.904741	-96.458594	857
Riverside High	794 HAMMETT BRIDGE RD GREER SC 29650 	34.9030027	-82.2559842	858
Canyon Del Oro High School	25 WEST CALLE CONCORDIA ORO VALLEY AZ 85704 	32.375468	-110.972222	859
Mira Mesa High School	10510 REAGAN RD SAN DIEGO CA 92126 	32.9104483	-117.1392877	860
Newton North High School	457 WALNUT ST NEWTONVILLE MA 02460 	42.3449976	-71.2077738	861
Clarkstown North Senior High School	151 CONGERS RD NEW CITY NY 10956 	41.149856	-73.970935	862
West Morris Mendham High School	65 EAST MAIN ST MENDHAM NJ 07945 	40.778568	-74.592984	863
W. T. White High School	4505 RIDGESIDE DR DALLAS TX 75244 	32.916858	-96.831674	864
Lamar High School	3325 WESTHEIMER RD HOUSTON TX 77098 	29.740236	-95.426283	865
Plano East Senior High School	3000 LOS RIOS BLVD PLANO TX 75074 	33.039662	-96.6455725	866
New Tech High School At	113 SAMUEL BLVD COPPELL TX 75019 	32.9720463	-96.9729631	867
Bryan Collegiate	1901 VILLA MARIA BRYAN TX 77802 	30.651943	-96.346783	868
Culver City High School	4401 ELENDA ST CULVER CITY CA 90230 	34.008566	-118.399985	869
Mountain View High School	2700 EAST BROWN RD MESA AZ 85213 	33.440044	-111.773141	870
San Marcos High School	1615 SAN MARCOS BLVD SAN MARCOS CA 92078 	33.1314012	-117.2061622	871
Mainland Regional	1301 OAK AVE LINWOOD NJ 08221 	39.347017	-74.577924	872
Mater Academy East Charter High School	998 SW FIRST ST MIAMI FL 33130 	25.772117	-80.211174	873
Naperville North High School	899 NORTH MILL ST NAPERVILLE IL 60563 	41.783905	-88.156925	874
The Grove School	200 NEVADA ST REDLANDS CA 92373 	34.053468	-117.216496	875
Leland Public School	200 NORTH GRAND AVE LELAND MI 49654 	45.0230934	-85.7564585	876
Hamilton High School	3700 SOUTH ARIZONA AVE CHANDLER AZ 85248 	33.2530852	-111.8423662	877
Keller High School	601 NORTH PATE ORR RD KELLER TX 76248 	32.939762	-97.2348839	878
South Anchorage High School	13400 ELMORE RD ANCHORAGE AK 99516 	61.1002235	-149.8087205	879
Sabino High School	5000 NORTH BOWES RD TUCSON AZ 85749 	32.298422	-110.787286	880
Coral Gables Senior High School	450 BIRD RD CORAL GABLES FL 33146 	25.7346438	-80.263706	881
Garden Grove High School	11271 STANFORD AVE GARDEN GROVE CA 92840 	33.778813	-117.935614	882
Valley Regional High School	256 KELSEY HILL RD DEEP RIVER CT 06417 	41.3685199	-72.4476351	883
Olympia High School	1302 NORTH ST SE OLYMPIA WA 98501 	47.0185799	-122.8844611	884
Ralston Valley Senior High School	13355 WEST 80TH AVE ARVADA CO 80005 	39.8416906	-105.1451567	885
Southwest Senior High School	1685 HOLLISTER ST SAN DIEGO CA 92154 	32.5675647	-117.0839839	886
Central Bucks High School West	375 WEST COURT ST DOYLESTOWN PA 18901 	40.3044489	-75.1377381	887
Dalton High School	1500 MANLY ST DALTON GA 30720 	34.7790729	-84.9850953	888
Roseville Area Senior High	1240 COUNTY RD B2 WEST ROSEVILLE MN 55113 	45.0134674	-93.1568648	889
Virgil Grissom High School	7901 BAILEY COVE RD HUNTSVILLE AL 35802 	34.661415	-86.536743	890
Central High School	1150 MILLIKEN DR TRAVERSE CITY MI 49686 	44.7686685	-85.5899669	891
Baton Rouge Magnet High School	1105 LEE DR BATON ROUGE LA 70808 	30.4049225	-91.1508049	892
Boonsboro High	10 CAMPUS AVE BOONSBORO MD 21713 	39.51619	-77.651534	893
Westhill High School	4501 ONONDAGA BLVD SYRACUSE NY 13219 	43.030533	-76.201979	894
Templeton High School	1200 MAIN ST TEMPLETON CA 93465 	35.5422201	-120.7114244	895
Heritage High School	1401 WEST GEDDES AVE LITTLETON CO 80120 	39.5858799	-105.0044596	896
Grand Haven High School	17001 FERRIS ST GRAND HAVEN MI 49417 	43.011772	-86.211072	897
Great Oak High School	32555 DEER HOLLOW WAY TEMECULA CA 92592 	33.4552626	-117.0906687	898
Northwood High	310 NORTHWOOD HIGH SCHOOL R PITTSBORO NC 27312 	35.757579	-79.175978	899
Middle Creek High	123 MIDDLE CREEK PARK AVENU APEX NC 27539 	35.666772	-78.760702	900
Larry A. Ryle High School	10379 US 42 UNION KY 41091 	38.931699	-84.6804779	901
Glenbard South High School	23W200 BUTTERFIELD RD GLEN ELLYN IL 60137 	41.8315479	-88.0709094	902
Felix Varela Senior High School	15255 SW 96 ST MIAMI FL 33196 	25.678844	-80.442917	903
Oak Ridge High School	1450 OAK RIDGE TURNPIKE OAK RIDGE TN 37830 	36.015535	-84.261492	904
Central Bucks High School-​East	2804 HOLICONG RD DOYLESTOWN PA 18902 	40.3407655	-75.0562409	905
Wheeler High School	375 HOLT RD NE MARIETTA GA 30068 	33.960091	-84.478662	906
California High School	9870 BROADMOOR DR SAN RAMON CA 94583 	37.7478882	-121.9455706	907
Zeeland West High School	3390 100TH AVE ZEELAND MI 49464 	42.8308017	-86.0268223	908
Lindsay High School	625 KNIGHT DR LINDSAY TX 76250 	33.6371528	-97.2281287	909
Centennial High School	6901 COIT RD FRISCO TX 75035 	33.1363204	-96.7685652	910
Mayo High for Math Science and Technology	405 CHESTNUT ST DARLINGTON SC 29532 	34.2926918	-79.8694738	911
Foothill High School	19251 DODGE AVE SANTA ANA CA 92705 	33.7666368	-117.7975564	912
A & M Cons High School	1801 HARVEY MITCHELL PARKWAY S COLLEGE STATION TX 77840 	30.592629	-96.3177709	913
Shawnee High School	3333 ZURMEHLY RD LIMA OH 45806 	40.691756	-84.169158	914
Analy High	6950 ANALY AVE SEBASTOPOL CA 95472 	38.407514	-122.824756	915
Mills E. Godwin High School	2101 PUMP RD RICHMOND VA 23238 	37.617827	-77.603054	916
Heritage College-​Ready High School	9719 SOUTH MAIN ST LOS ANGELES CA 90003 	33.947773	-118.274229	917
Glendora High	1600 EAST FOOTHILL BLVD GLENDORA CA 91741 	34.1343	-117.835489	918
Naperville Central High School	440 AURORA AVE NAPERVILLE IL 60540 	41.7670559	-88.159443	919
Upper Dublin High School	800 LOCH ALSH AVE FORT WASHINGTON PA 19034 	40.1535885	-75.19912	920
Benicia High	1101 MILITARY WEST BENICIA CA 94510 	38.0652461	-122.1747211	921
Canandaigua Academy & Middle School	435 EAST ST CANANDAIGUA NY 14424 	42.90926	-77.27545	922
Santa Fe High School	1901 WEST 15TH ST EDMOND OK 73013 	35.638485	-97.509878	923
Riverview High School	1 RAM WAY SARASOTA FL 34231 	27.2828345	-82.517544	924
Castle Park Senior High School	1395 HILLTOP DR CHULA VISTA CA 91911 	32.606278	-117.050289	925
Saugus High	21900 CENTURION WAY SAUGUS CA 91350 	34.4421769	-118.5175084	926
Vista Del Lago High School	1970 BROADSTONE PARKWAY FOLSOM CA 95630 	38.65501	-121.10537	927
Booker High School	3201 NORTH ORANGE AVE SARASOTA FL 34234 	27.365312	-82.540457	928
Pinnacle High School	3535 EAST MAYO BLVD PHOENIX AZ 85050 	33.679511	-112.007789	929
Aptos High	7301 FREEDOM BLVD APTOS CA 95003 	36.9754277	-121.8694504	930
John Handley High	425 HANDLEY BLVD WINCHESTER VA 22601 	39.1772319	-78.174353	931
Edison High School	540 EAST CALIFORNIA AVE FRESNO CA 93706 	36.7213366	-119.8059906	932
Rochester High School	180 SOUTH LIVERNOIS RD ROCHESTER HILLS MI 48307 	42.678846	-83.155506	933
Lancaster High	806 EAST ELM ST LANCASTER WI 53813 	42.8499835	-90.7040386	934
Aliso Niguel High School	28000 WOLVERINE WAY ALISO VIEJO CA 92656 	33.5610978	-117.7192172	935
George Washington High School	1522 TENNIS CLUB RD CHARLESTON WV 25314 	38.33363	-81.6565169	936
Firth High School	329 LINCOLN ST FIRTH ID 83236 	43.3073366	-112.185827	937
Rogers Heritage High School	1114 SOUTH FIFTH ST ROGERS AR 72756 	36.3197933	-94.1231775	938
Pullman High School	510 NW LARRY ST PULLMAN WA 99163 	46.7476881	-117.1860253	939
Glastonbury High School	330 HUBBARD ST GLASTONBURY CT 06033 	41.7014351	-72.5933647	940
King/​Drew Medical Magnet High School	1601 EAST 120TH ST LOS ANGELES CA 90059 	33.9242836	-118.2450005	941
Henderson Senior High School	400 MONTGOMERY AVE WEST CHESTER PA 19380 	39.9722857	-75.595572	942
Mast Community Charter School	1800 EAST BYBERRY RD PHILADELPHIA PA 19116 	40.1138808	-75.0050153	943
Tampa Bay Tech High School	6410 ORIENT RD TAMPA FL 33610 	28.007256	-82.375628	944
Collierville High School	1101 NORTH BYHALIA RD COLLIERVILLE TN 38017 	35.0694961	-89.6856624	945
Chester Junior/​Senior High School	612 FIRST ST CHESTER CA 96020 	40.3032695	-121.2265729	946
North Central High School	1600 NORTH HOWARD ST SPOKANE WA 99205 	47.6742244	-117.419423	947
Roosevelt High School	6600 WEST 41ST ST SIOUX FALLS SD 57106 	43.5148332	-96.8074378	948
Jackson High School	7600 FULTON DR NW MASSILLON OH 44646 	40.859428	-81.490831	949
Forest Hills High School	6701 110TH ST FOREST HILLS NY 11375 	40.728295	-73.844617	950
Fort Benton High School	1820 WASHINGTON FORT BENTON MT 59442 	47.822749	-110.667443	951
Silver Creek High School	3434 SILVER CREEK RD SAN JOSE CA 95121 	37.303442	-121.806879	952
Nordhoff High	1401 MARICOPA HWY OJAI CA 93023 	34.4416143	-119.266652	953
Cedar Falls High School	1015 DIVISION ST CEDAR FALLS IA 50613 	42.529176	-92.461335	954
North High School	4436 MAIN ST DOWNERS GROVE IL 60515 	41.8049449	-88.011866	955
Collegiate Institute for Math and Science	925 ASTOR AVE BRONX NY 10469 	40.85964	-73.8607428	956
Rock Bridge Sr. High	4303 SOUTH PROVIDENCE RD COLUMBIA MO 65203 	38.902493	-92.3351359	957
A. Hamilton Preparatory Academy	310 CHERRY ST ELIZABETH NJ 07208 	40.6669736	-74.2209966	958
Amherst Central High School	4301 MAIN ST AMHERST NY 14226 	42.9638543	-78.7908754	959
Port Chester Senior High School	1 TAMARACK RD PORT CHESTER NY 10573 	41.011682	-73.676402	960
Logan High	162 WEST 100 SOUTH LOGAN UT 84321 	41.7295077	-111.8392735	961
Highland Park High School	102 NORTH FIFTH AVE HIGHLAND PARK NJ 08904 	40.5017868	-74.424547	962
Houston High School	306 WEST ELM ST HOUSTON MN 55943 	43.760175	-91.5658236	963
Lopez Middle High School	86 SCHOOL RD LOPEZ ISLAND WA 98261 	48.4915499	-122.897068	964
La Cueva High	7801 WILSHIRE NE ALBUQUERQUE NM 87122 	35.1829279	-106.556478	965
North High School	3620 WEST 182ND ST TORRANCE CA 90504 	33.8654554	-118.3360148	966
Stranahan High School	1800 SW 5TH PLACE FORT LAUDERDALE FL 33312 	26.112627	-80.16524	967
Folsom High School	1655 IRON POINT RD FOLSOM CA 95630 	38.647838	-121.158729	968
Plymouth-​Whitemarsh	201 EAST GERMANTOWN PK PLYMOUTH MEETING PA 19462 	40.099659	-75.272677	969
East Greenwich High School	300 AVENGER DR EAST GREENWICH RI 02818 	41.638834	-71.483607	970
Lindblom Math & Science Academy	6130 SOUTH WOLCOTT AVE CHICAGO IL 60636 	41.7821602	-87.6715683	971
Frisco High School	6401 PARKWOOD BLVD FRISCO TX 75034 	33.1317294	-96.821866	972
Calistoga Junior-​Senior High School	1608 LAKE ST CALISTOGA CA 94515 	38.583362	-122.579892	973
School Of The Arts	45 PRINCE ST ROCHESTER NY 14607 	43.158543	-77.590789	974
Cherry Hill High School East	KRESSON RD CHERRY HILL NJ 08003 	39.8809388	-74.9680715	975
Dunlap High School	5220 WEST LEGION HALL RD DUNLAP IL 61525 	40.854853	-89.675633	976
St. Charles East High School	1020 DUNHAM RD ST CHARLES IL 60174 	41.9285161	-88.2835803	977
Clark High School	5150 DE ZAVALA RD SAN ANTONIO TX 78249 	29.567616	-98.579797	978
Fossil Ridge High School	5400 ZIEGLER RD FORT COLLINS CO 80528 	40.512543	-105.019813	979
Oceana High	401 PALOMA AVE PACIFICA CA 94044 	37.636854	-122.486853	980
A. Crawford Mosley High School	501 MOSLEY DR LYNN HAVEN FL 32444 	30.208543	-85.643331	981
Los Altos High School	15325 EAST LOS ROBLES AVE HACIENDA HEIGHTS CA 91745 	34.006937	-117.9767265	982
Kempner High School	14777 VOSS RD SUGAR LAND TX 77498 	29.642476	-95.645138	983
Bonita Vista Senior High School	751 OTAY LAKES RD CHULA VISTA CA 91913 	32.6457956	-116.9994673	984
Eagle Harbor High School	9530 NE HIGH SCHOOL RD BAINBRIDGE ISLAND WA 98110 	47.6362571	-122.5219506	985
The Center School	305 HARRISON ST SEATTLE WA 98109 	47.6204816	-122.3504451	986
Beacon High School	227243 WEST 61ST ST NEW YORK NY 10022 	40.7628086	-73.965688	987
Brewbaker Technology Magnet High School	4405 BREWBAKER DR MONTGOMERY AL 36116 	32.3191207	-86.2191373	988
Newbury Park High School	456 NORTH REINO RD NEWBURY PARK CA 91320 	34.1842522	-118.9539215	989
Wheaton North High School	1 FALCON WAY WHEATON IL 60187 	41.88302	-88.1170827	990
Jack E. Singley Academy	4601 NORTH MACARTHUR BLVD IRVING TX 75038 	32.870153	-96.959056	991
San Ysidro High School	5353 AIRWAY RD SAN DIEGO CA 92154 	32.5643977	-117.0155864	992
Castro Valley High	19400 SANTA MARIA AVE CASTRO VALLEY CA 94546 	37.70461	-122.076222	993
North High	5000 NORTH BALLARD RD APPLETON WI 54913 	44.314169	-88.371707	994
John F. Kennedy High School	8281 WALKER ST LA PALMA CA 90623 	33.841289	-118.039415	995
Young Women'S Leadership School	105 EAST 106TH ST NEW YORK NY 10029 	40.792935	-73.947168	996
Northport High School	408 10TH ST NORTHPORT WA 99157 	48.9120609	-117.7886291	997
George Washington Carver School of Arts and Science	10101 SYSTEMS PARKWAY SACRAMENTO CA 95827 	38.564904	-121.31636	998
Woodbury Senior High	2665 WOODLANE DR WOODBURY MN 55125 	44.909034	-92.9604776	999
Academy for Language and Technology	1700 MACOMBS RD BRONX NY 10453 	40.8497235	-73.9157569	1000
Lake Of The Woods Secondary	236 15TH AVE SW BAUDETTE MN 56623 	48.7070571	-94.6378348	1001
Jefferson Forest High	1 CAVALIER CIRCLE FOREST VA 24551 	37.377752	-79.304487	1002
Ironwood Ridge High School	2475 WEST NARANJA DR TUCSON AZ 85742 	32.409758	-111.0209242	1003
Pacifica High School	6851 LAMPSON AVE GARDEN GROVE CA 92845 	33.782885	-118.013484	1004
North Mecklenburg High	11201 OLD STATESVILE RD HUNTERSVILLE NC 28078 	35.372836	-80.833625	1005
Leigh High	5210 LEIGH AVE SAN JOSE CA 95124 	37.2415708	-121.9216265	1006
El Camino Real Senior High	5440 VALLEY CIRCLE BLVD WOODLAND HILLS CA 91367 	34.1701688	-118.6432141	1007
Wakeland High S	10700 LEGACY DR FRISCO TX 75034 			1008
Early College High School	2510 PECAN BLDG R HARLINGEN TX 78550 	26.2172768	-97.6685425	1009
Canyon High School	220 SOUTH IMPERIAL HWY ANAHEIM CA 92807 	33.8472441	-117.7879399	1010
Dr. Michael M. Krop Senior High	1410 NE 215 ST MIAMI FL 33179 	25.9735752	-80.1747565	1011
Franklin High School	810 HILLSBORO RD FRANKLIN TN 37064 	35.939613	-86.8776929	1012
Orcas Island High School	715 SCHOOL RD EASTSOUND WA 98245 	48.6986025	-122.9032725	1013
Comanche High School	1600 NORTH AUSTIN COMANCHE TX 76442 	31.9130965	-98.5950313	1014
Lake Zurich High School	300 CHURCH ST LAKE ZURICH IL 60047 	42.204291	-88.082414	1015
Independence High School	6001 ARCHWOOD RD INDEPENDENCE OH 44131 	41.3741954	-81.6490702	1016
Booker T Washington Magnet High School	632 SOUTH UNION ST MONTGOMERY AL 36104 	32.3700155	-86.2998801	1017
Carlinville High School	829 WEST MAIN ST CARLINVILLE IL 62626 	39.2796884	-89.8919991	1018
Brookville High School	1 BLUE PRIDE DR BROOKVILLE OH 45309 	39.8282423	-84.420385	1019
Lake Washington High	12033 NE 80TH KIRKLAND WA 98033 	47.6746926	-122.1817392	1020
Crooms Academy of Information Technology	2200 WEST 13TH ST SANFORD FL 32771 	28.802079	-81.290665	1021
Lewis & Clark High School	521 WEST 4TH AVE SPOKANE WA 99204 	47.6519502	-117.4204967	1022
Lowell Senior High School	11700 VERGENNES ST LOWELL MI 49331 	42.954634	-85.378008	1023
Mission Hills High School	1 MISSION HILLS CT. SAN MARCOS CA 92069 	33.1456902	-117.1427625	1024
Grandview Heights High School	1587 WEST 3RD AVE COLUMBUS OH 43212 	39.986986	-83.048278	1025
Elk Grove High School	500 WEST ELK GROVE BLVD ELK GROVE VILLAGE IL 60007 	42.011773	-87.997227	1026
Thomas Worthington High School	300 WEST GRANVILLE RD WORTHINGTON OH 43085 	40.0902628	-83.0248924	1027
Thomas Jefferson High School For Advanc	17 GRETNA BLVD GRETNA LA 70053 	29.910927	-90.0453156	1028
West Valley High School	3800 GIEST RD FAIRBANKS AK 99709 	64.8511743	-147.8257083	1029
Adrian Wilcox High School	3250 MONROE ST SANTA CLARA CA 95051 	37.3661381	-121.9863612	1030
Eastlake High School	400 228TH NE SAMMAMISH WA 98074 	47.613601	-122.0317461	1031
Wheaton High School	12601 DALEWOOD DR SILVER SPRING MD 20906 	39.062216	-77.0667979	1032
Sequoyah High School	4485 HICKORY RD CANTON GA 30115 	34.171725	-84.4297129	1033
Rio Americano High	4540 AMERICAN RIVER DR SACRAMENTO CA 95864 	38.577228	-121.353729	1034
South Aiken High	232 EAST PINE LOG RD AIKEN SC 29803 	33.5250589	-81.7155717	1035
Bellingham High School	2020 CORNWALL AVE BELLINGHAM WA 98225 	48.7566622	-122.4737123	1036
Land O' Lakes High School	20325 GATOR LN LAND O LAKES FL 34639 	28.2610633	-82.4789862	1037
Clovis West High School	1070 EAST TEAGUE AVE FRESNO CA 93720 	36.8629759	-119.7656335	1038
Profile Senior High School	691 PROFILE RD BETHLEHEM NH 03574 	44.2653032	-71.7454268	1039
Mar Vista Senior High School	505 ELM AVE IMPERIAL BEACH CA 91932 	32.580232	-117.122294	1040
Greenville Senior High Academy	1 VARDRY ST GREENVILLE SC 29601 	34.839608	-82.408207	1041
Vestavia Hills High School	2235 LIME ROCK RD VESTAVIA HILLS AL 35216 	33.418799	-86.780807	1042
Manhattan Village Academy	43 WEST 22ND ST NEW YORK NY 10010 	40.7419485	-73.9923091	1043
Legacy High School	2701 WEST 136TH ST BROOMFIELD CO 80020 	39.9438516	-105.0198851	1044
Arts & Communication High School	11375 SW CENTER ST BEAVERTON OR 97005 	45.4949521	-122.7943591	1045
State College Area High School	653 WESTERLY PARKWAY STATE COLLEGE PA 16801 	40.7826073	-77.8595623	1046
Open World Learning Community	90 SOUTH WESTERN AVE ST. PAUL MN 55105 	44.939148	-93.115376	1047
Boston Community Leadership Academy	20 WARREN ST BRIGHTON MA 02135 	42.350336	-71.145552	1048
Bella Vista High School	8301 MADISON AVE FAIR OAKS CA 95628 	38.6660619	-121.250622	1049
Bristol Central High School	480 WOLCOTT ST BRISTOL CT 06010 	41.660241	-72.959068	1050
Kipp:Delta Collegiate High Sch	320 MISSOURI ST HELENA AR 72342 	34.5225616	-90.5883692	1051
Cypress Woods High School	16825 SPRING CYPRESS RD CYPRESS TX 77429 	29.9740509	-95.6844243	1052
Serra High School	5156 SANTO RD SAN DIEGO CA 92124 	32.8264697	-117.1040114	1053
Milford Central School	42 WEST MAIN ST MILFORD NY 13807 	42.5909471	-74.9485592	1054
South Webster Jr/​Sr High School	10529 MAIN ST SOUTH WEBSTER OH 45682 	38.814381	-82.7289203	1055
Aledo High School	1000 BAILEY RANCH RD ALEDO TX 76008 	32.7150644	-97.615591	1056
Renaissance High School	6565 WEST OUTER DR DETROIT MI 48235 	42.4195448	-83.1957753	1057
Venice Senior High School	1 INDIAN AVE VENICE FL 34285 	27.094527	-82.440294	1058
Dulles High School	550 DULLES AVE SUGAR LAND TX 77478 	29.6206539	-95.5827888	1059
Hollywood Senior High School	1521 NORTH HIGHLAND AVE LOS ANGELES CA 90028 	34.099182	-118.340061	1060
Hayfork High	231 OAK ST HAYFORK CA 96041 	40.5501672	-123.1720387	1061
South High	801 HANNA RD BALLWIN MO 63021 	38.5771165	-90.512193	1062
Robert Morgan Educational Center	18180 SW 122ND AVE MIAMI FL 33177 	25.5997664	-80.3892132	1063
Douglas S. Freeman High School	8701 THREE CHOPT RD RICHMOND VA 23229 	37.6024788	-77.5579045	1064
Tri Central Middle-​High School	2115 WEST 500 NORTH SHARPSVILLE IN 46068 	40.3756544	-86.0536605	1065
San Diego School of Creative and Performing Arts	2425 DUSK DR SAN DIEGO CA 92139 	32.6797917	-117.0486895	1066
Piedmont Hills High School	1377 PIEDMONT RD SAN JOSE CA 95132 	37.403946	-121.8490325	1067
Rio Vista High	410 SOUTH FOURTH ST RIO VISTA CA 94571 	38.1545842	-121.6976537	1068
West Seneca East Senior High School	4760 SENECA ST WEST SENECA NY 14224 	42.834387	-78.7295089	1069
Oakland Military Institute College Preparatory Academy	3877 LUSK ST OAKLAND CA 94608 	37.8294804	-122.2723709	1070
Central Bucks High School-​South	1100 FOLLY RD WARRINGTON PA 18976 	40.2620874	-75.1604734	1071
Anacortes High School	1600 20TH ST ANACORTES WA 98221 	48.507519	-122.622843	1072
Talent Unlimited High School	317 EAST 67TH ST NEW YORK NY 10021 	40.7659834	-73.9600263	1073
Woodbridge High School	2 MEADOWBROOK IRVINE CA 92604 	33.678949	-117.806977	1074
Canton High School	76 SIMONDS AVE CANTON CT 06019 	41.8236487	-72.9165191	1075
Arcata High School	1720 M ST ARCATA CA 95521 	40.8665166	-124.0828396	1076
Linn-​Mar High School	3111 NORTH 10TH ST MARION IA 52302 	42.0530952	-91.5993838	1077
Summit High School	2855 NW CLEARWATER DR BEND OR 97701 	44.0576535	-121.3620584	1078
Houghton Central High School	1603 GUNDLACH RD HOUGHTON MI 49931 	47.108912	-88.56779	1079
Buchanan High School	1560 NORTH MINNEWAWA AVE CLOVIS CA 93611 	36.854763	-119.714756	1080
Jefferson High School	4001 WEST 102ND ST BLOOMINGTON MN 55437 	44.818175	-93.33132	1081
Cypress High School	9801 VALLEY VIEW ST CYPRESS CA 90630 	33.821626	-118.030495	1082
Fullerton Union High School	201 EAST CHAPMAN AVE FULLERTON CA 92832 	33.8743937	-117.9202936	1083
Greenbrier High School	72 GREEN VALLEY DR GREENBRIER AR 72058 	35.2205108	-92.4041013	1084
Revere High School	3420 EVERETT RD RICHFIELD OH 44286 	41.200487	-81.618053	1085
Twinsburg High School	10084 RAVENNA RD TWINSBURG OH 44087 	41.317981	-81.452518	1086
Villa Park High	18042 TAFT AVE VILLA PARK CA 92861 	33.8172861	-117.8171491	1087
Hononegah High School	307 SALEM ST ROCKTON IL 61072 	42.454148	-89.063551	1088
Northridge Academy High School	9601 ZELZAH AVE NORTHRIDGE CA 91325 	34.245317	-118.524329	1089
Milpitas High	1285 ESCUELA PARKWAY MILPITAS CA 95035 	37.4511809	-121.900199	1090
Morgantown High School	109 WILSON AVE MORGANTOWN WV 26505 	39.6238273	-79.9567499	1091
Cary High	638 WALNUT ST CARY NC 27511 	35.771508	-78.766249	1092
San Gabriel High School	801 RAMONA ST SAN GABRIEL CA 91776 	34.092003	-118.109792	1093
Benjamin Banneker Academy	7177 CLINTON AVE BROOKLYN NY 11238 	40.684622	-73.967465	1094
Otay Ranch Senior High School	1250 OLYMPIC PARKWAY CHULA VISTA CA 91913 	32.6207925	-116.9931941	1095
H.H. Dow High School	3901 NORTH SAGINAW RD MIDLAND MI 48640 	43.6412613	-84.2743129	1096
Salisbury High	500 LINCOLNTON RD SALISBURY NC 28144 	35.6648179	-80.484865	1097
West Ottawa High School Campus	3685 BUTTERNUT DR HOLLAND MI 49424 	42.8360091	-86.1521903	1098
Horizon Community Learning Center	16233 SOUTH 48TH ST PHOENIX AZ 85048 	33.298497	-111.978128	1099
Lexington High	2463 AUGUSTA HWY LEXINGTON SC 29072 	33.9793979	-81.307923	1100
Schaumburg High School	1100 WEST SCHAUMBURG RD SCHAUMBURG IL 60194 	42.028303	-88.107116	1101
Williamsburg High School	500 SOUTH 5TH ST WILLIAMSBURG OH 45176 	39.0516284	-84.065669	1102
Sehome High School	2700 BILL MCDONALD PARKWAY BELLINGHAM WA 98225 	48.727079	-122.480738	1103
White Station High School	514 SOUTH PERKINS RD MEMPHIS TN 38117 	35.1169666	-89.9065664	1104
Esperanza High School	1830 NORTH KELLOGG DR ANAHEIM CA 92807 	33.868092	-117.803806	1105
Claremont High	1601 NORTH INDIAN HILL BLVD CLAREMONT CA 91711 	34.1118748	-117.7209402	1106
Coast Union High School	2950 SANTA ROSA CREEK RD CAMBRIA CA 93428 	35.5705135	-121.0607463	1107
Diamond Ranch High School	100 DIAMOND RANCH DR POMONA CA 91766 	34.022305	-117.778422	1108
Eagle Rock High School	1750 YOSEMITE DR LOS ANGELES CA 90041 	34.131671	-118.205308	1109
Noblesville High School	18111 CUMBERLAND RD NOBLESVILLE IN 46060 	40.0572534	-85.9978706	1110
Lebanon High School	1916 DRAKE RD LEBANON OH 45036 	39.464296	-84.179415	1111
Brandeis High School	13011 KYLE SEALE PARKWAY SAN ANTONIO TX 78249 	29.5643402	-98.6460872	1112
Dassel-​Cokato Senior High	4852 REARDON AVE SW COKATO MN 55321 	45.082302	-94.233787	1113
Hill Regional Career High School	140 LEGION AVE NEW HAVEN CT 06519 	41.30561	-72.940089	1114
Lower East Side Preparatory High School	145 STANTON ST4TH FL NEW YORK NY 10002 	40.7135097	-73.9859414	1115
Santiago High School	12342 TRASK AVE GARDEN GROVE CA 92843 	33.7670899	-117.9136378	1116
Liberty High School	12220 RD 36 MADERA CA 93636 	36.9263837	-119.8942839	1117
Gabrielino High School	1327 SOUTH SAN GABRIEL BLVD SAN GABRIEL CA 91776 	34.0824385	-118.0910403	1118
Desert Mountain High School	12575 EAST VIA LINDA SCOTTSDALE AZ 85259 	33.588807	-111.809224	1119
Santa Susana High	3570 EAST COCHRAN ST SIMI VALLEY CA 93063 	34.2789867	-118.7250829	1120
Bolsa Grande High School	9401 WESTMINSTER AVE GARDEN GROVE CA 92844 	33.7595143	-117.968813	1121
Lee'S Summit West High	2600 SW WARD RD LEE'S SUMMIT MO 64082 	38.8735967	-94.3991035	1122
Henry M. Jackson High School	1508 136TH ST SE MILL CREEK WA 98012 	47.8733332	-122.2099701	1123
North Buncombe High	890 CLARKS CHAPEL RD WEAVERVILLE NC 28787 	35.7371371	-82.5608238	1124
Centerville High School	500 EAST FRANKLIN ST CENTERVILLE OH 45459 	39.628039	-84.148372	1125
Quincy Junior/​Senior High	6 QUINCY JUNCTION RD QUINCY CA 95971 	39.9385195	-120.9377631	1126
Waubonsie Valley High School	2590 OGDEN AVE AURORA IL 60504 	41.741499	-88.252063	1127
Atlee High	9414 ATLEE STATION RD MECHANICSVILLE VA 23116 	37.664459	-77.410022	1128
Rosemead High School	9063 EAST MISSION DR ROSEMEAD CA 91770 	34.0841647	-118.0712034	1129
Union Mine High School	6530 KOKI LN EL DORADO CA 95623 	38.6820499	-120.8391308	1130
Houston Academy	1810 STUART HOUSTON TX 77004 	29.736856	-95.3700439	1131
Meadowcreek High School	4455 STEVE REYNOLDS BLVD NORCROSS GA 30093 	33.922375	-84.1490929	1132
Hammondsport Junior-​Senior High School	8272 MAIN ST EXT HAMMONDSPORT NY 14840 	42.4026715	-77.2211623	1133
North Hagerstown High	1200 PENNSYLVANIA AVE HAGERSTOWN MD 21742 	39.662473	-77.7186175	1134
Hamilton High School	4911 136TH AVE HAMILTON MI 49419 	42.6852033	-86.0270686	1135
Lawndale High School	14901 SOUTH INGLEWOOD AVE LAWNDALE CA 90260 	33.8956467	-118.3621475	1136
Healdsburg High	1024 PRINCE ST HEALDSBURG CA 95448 	38.6214373	-122.8680386	1137
Avon Grove High School	257 EAST STATE RD WEST GROVE PA 19390 	39.8158079	-75.813869	1138
Delaware Valley High School	252 ROUTE 6 AND 209 MILFORD PA 18337 	41.342683	-74.762975	1139
Hardin Valley Academy	11345 HARDIN VALLEY RD KNOXVILLE TN 37932 	35.93635	-84.1812741	1140
Lincoln College Preparatory Academy	2111 WOODLAND KANSAS CITY MO 64108 	39.087184	-94.560012	1141
El Dorado High School	1651 NORTH VALENCIA AVE PLACENTIA CA 92670 	33.892914	-117.857083	1142
Manteo High School	616 WINGINA AVE MANTEO NC 27954 	35.9113394	-75.6738561	1143
High School of Creative and Performing Arts	901 SOUTH BROAD ST PHILADELPHIA PA 19147 	39.939394	-75.165266	1144
Timpanogos High School	1450 NORTH 200 EAST OREM UT 84057 	40.3229198	-111.6919475	1145
Freedom High	2500 TAFTVINELAND RD ORLANDO FL 32837 	28.4177366	-81.4128966	1146
Chico High School	901 ESPLANADE CHICO CA 95926 	39.7361665	-121.8445903	1147
Glenda Dawson High School	2050 CULLEN BLVD PEARLAND TX 77581 	29.5739884	-95.3512247	1148
San Diego Science And Technology	1405 PARK BLVD SAN DIEGO CA 92101 	32.7209659	-117.1533583	1149
Orchard Park High School	4040 BAKER RD ORCHARD PARK NY 14127 	42.7736439	-78.7288911	1150
Maria Carrillo High	6975 MONTECITO BLVD SANTA ROSA CA 95409 	38.4801472	-122.6594547	1151
Houston High School	9755 WOLF RIVER BL GERMANTOWN TN 38139 	35.092985	-89.737589	1152
Martin Luther King Jr. High School	9301 WOOD RD RIVERSIDE CA 92508 	33.8846013	-117.3323715	1153
Richard Gahr High School	11111 ARTESIA BLVD CERRITOS CA 90703 	33.873556	-118.0942995	1154
Central High School	423 EAST CENTRAL SPRINGFIELD MO 65802 	37.217994	-93.288546	1155
Onondaga Senior High School	4479 SOUTH ONONDAGA RD NEDROW NY 13120 	42.9307972	-76.2035844	1156
Worthington Kilbourne High School	1499 HARD RD COLUMBUS OH 43235 	40.114248	-83.0552359	1157
Carver High School for Applied Tech/​Engineering/​Arts	2100 SOUTH VICTORY DR HOUSTON TX 77088 	29.8715465	-95.444453	1158
Jackson Hole High School	1910 HIGH SCHOOL ROAD JACKSON WY 83001 	43.457	-110.8	1159
Mid-​Prairie High School	1634 HWY 22 EAST WELLMAN IA 52356 	41.4673091	-91.8214218	1160
Palm Desert High School	43570 PHYLLIS JACKSON LN PALM DESERT CA 92260 	33.7329005	-116.3607683	1161
Loveland High School	1 TIGER TRL LOVELAND OH 45140 	39.2818987	-84.2751145	1162
Centennial Senior	4757 NORTH RD CIRCLE PINES MN 55014 	45.1530212	-93.1496756	1163
Lancaster High School	1 FORTON DR LANCASTER NY 14086 	42.928973	-78.672141	1164
Woodcreek High School	2551 WOODCREEK OAKS BLVD ROSEVILLE CA 95747 	38.7625558	-121.3325984	1165
Rudyard High School	11185 WEST 2ND ST RUDYARD MI 49780 	46.2295699	-84.5955409	1166
South Fayette Township High School	3640 OLD OAKDALE RD MC DONALD PA 15057 	40.377686	-80.169794	1167
Ponderosa High School	3661 PONDEROSA RD SHINGLE SPRINGS CA 95682 	38.6733366	-120.940947	1168
Ticonderoga Senior High School	5 CALKINS PLACE TICONDEROGA NY 12883 	43.842912	-73.427392	1169
Fairfield Jr-​Sr High School	67530 US 33 GOSHEN IN 46526 	41.517641	-85.768686	1170
Holland High School	600 VAN RAALTE AVE HOLLAND MI 49423 	42.7737234	-86.121912	1171
Westchester Academy for International Studies	901 YORKCHESTER HOUSTON TX 77079 	29.780831	-95.583537	1172
A G West Black Hills High School	7741 LITTLEROCK RD SW OLYMPIA WA 98512 	46.9786061	-122.9484216	1173
Vanguard High School	7 NW 28TH ST OCALA FL 34475 	29.217367	-82.1371489	1174
Milford Sr High School	1 EAGLES WAY MILFORD OH 45150 	39.180111	-84.241533	1175
Agoura High School	28545 WEST DRR AVE AGOURA CA 91301 	34.1513952	-118.7507915	1176
Milford High	31 WEST FOUNTAIN ST MILFORD MA 01757 	42.150423	-71.534128	1177
Petaluma High	201 FAIR ST PETALUMA CA 94952 	38.2280053	-122.6475174	1178
Eagle's Landing High School	301 TUNIS RD MCDONOUGH GA 30253 	33.4900084	-84.2084006	1179
Bonita High School	3102 D ST LA VERNE CA 91750 	34.1077894	-117.7660346	1180
Wimberley High School	100 CARNEY LN WIMBERLEY TX 78676 	29.995156	-98.1184314	1181
Allen High School	300 RIVERCREST BLVD ALLEN TX 75002 	33.109375	-96.660929	1182
Amherst Regional High	21 MATTOON ST AMHERST MA 01002 	42.379922	-72.513966	1183
Nation Ford High	1400 A.O. JONES BLVD FORT MILL SC 29715 	35.0485895	-80.9133376	1184
Santiago High School	1395 FOOTHILL PARKWAY CORONA CA 92881 	33.8354305	-117.5456861	1185
Waynesville High School	735 DAYTON RD WAYNESVILLE OH 45068 	39.534663	-84.093153	1186
Oxbow Uhs #30	36 OXBOW DR BRADFORD VT 05033 	44.007927	-72.113335	1187
Del Oro High School	3301 TAYLOR RD LOOMIS CA 95650 	38.8307325	-121.1860422	1188
Atherton High School	3000 DUNDEE RD LOUISVILLE KY 40205 	38.2143178	-85.6884904	1189
Somerset Arts Conservatory	20807 JOHNSON ST PEMBROKE PINES FL 33029 	26.0151163	-80.4251549	1190
Columbus Alternative High School	2632 MCGUFFEY RD COLUMBUS OH 43211 	40.019417	-82.979911	1191
Malden High School	77 SALEM ST MALDEN MA 02148 	42.4280393	-71.0639693	1192
Adolfo Camarillo High School	4660 MISSION OAKS BLVD CAMARILLO CA 93012 	34.2181293	-119.0084031	1193
Torrance High School	2200 CARSON ST TORRANCE CA 90501 	33.8294174	-118.3215678	1194
Coronado High School	100 CHAMPIONS PLACE EL PASO TX 79912 	31.8359368	-106.5465607	1195
Granada High School	400 WALL ST LIVERMORE CA 94550 	37.6749877	-121.7877311	1196
Perrysburg High School	13385 ROACHTON RD PERRYSBURG OH 43551 	41.5221639	-83.6524371	1197
University School	1 ALEXENDRA DR JOHNSON CITY TN 37614 	36.3314815	-82.4207131	1198
Ashwaubenon High	2391 SOUTH RIDGE RD GREEN BAY WI 54304 	44.488056	-88.073472	1199
Turners Fall High School	222 TURNPIKE RD MONTAGUE MA 01351 	42.5883491	-72.5406572	1200
Math & Science Academy	8430 WOODBURY CROSSING WOODBURY MN 55125 	44.9131453	-92.9343356	1201
Monrovia High School	845 WEST COLORADO BLVD MONROVIA CA 91016 	34.148086	-118.017141	1202
Chaska High School	545 PIONEER TRAIL CHASKA MN 55318 	44.824039	-93.590384	1203
Horizon High School	5601 EAST GREENWAY RD SCOTTSDALE AZ 85254 	33.62475	-111.956899	1204
Williamsport High	5 SOUTH CLIFTON DR WILLIAMSPORT MD 21795 	39.596956	-77.81003	1205
Stow-​Munroe Falls High School	3227 GRAHAM RD STOW OH 44224 	41.168506	-81.394341	1206
Norman North High School	1809 STUBBEMAN NORMAN OK 73069 	35.2406366	-97.4492217	1207
A Philip Randolph Campus High School	433 WEST 135TH ST NEW YORK NY 10031 	40.8184001	-73.9508195	1208
Oceanside High School	1 PIRATES COVE OCEANSIDE CA 92054 	33.197067	-117.374143	1209
Bedford High School	9 MUDGE WAY BEDFORD MA 01730 	42.4911248	-71.2851732	1210
Pasadena High School	2925 EAST SIERRA MADRE BLVD PASADENA CA 91107 	34.1616232	-118.0916518	1211
South High	4801 PACIFIC COAST HWY TORRANCE CA 90505 	33.8109015	-118.3649268	1212
Oakland Mills High	9410 KILIMANJARO RD COLUMBIA MD 21045 	39.2080276	-76.8384128	1213
Valley Springs High School	7349 SCHOOL ST VALLEY SPRINGS AR 72682 	36.1575135	-92.9934521	1214
White Mountains Regional High	127 REGIONAL RD WHITEFIELD NH 03598 	44.4171858	-71.6030459	1215
Plainfield High School	1 RED PRIDE DR PLAINFIELD IN 46168 	39.6819472	-86.3785382	1216
Calipatria High School	601 WEST MAIN ST CALIPATRIA CA 92233 	33.1257188	-115.5260478	1217
Chaparral High	27215 NICOLAS RD TEMECULA CA 92591 	33.537154	-117.147894	1218
Long Reach High	6101 OLD DOBBIN LN COLUMBIA MD 21045 	39.2059059	-76.8116726	1219
South Bronx Preparatory -​ A College Board School	360 EAST 145TH ST BRONX NY 10454 	40.8136789	-73.9205341	1220
Kearny High School of Science Connections and Technology	7651 WELLINGTON WAY SAN DIEGO CA 92111 	32.8010577	-117.1596826	1221
T. L. Hanna High	2600 HWY 81 NORTH ANDERSON SC 29621 	34.5671832	-82.6235978	1222
Lake Region High School	317 LAKE REGION RD ORLEANS VT 05860 	44.782603	-72.220649	1223
Mt. Everest Academy	4350 MT. EVEREST BLVD SAN DIEGO CA 92117 	32.8205951	-117.1866601	1224
Seneca High	202 MAIN ST SENECA WI 54654 	43.2570761	-90.9702602	1225
Baltimore Polytechnic Institute	1400 WEST COLD SPRING LN BALTIMORE MD 21209 	39.3452004	-76.6433687	1226
Medgar Evers College Preperatory School	1186 CARROLL ST BROOKLYN NY 11225 	40.6671654	-73.950792	1227
Del Valle High School	5201 ROSS RD DEL VALLE TX 78617 	30.178837	-97.614491	1228
Dedham High School	140 WHITING AVE DEDHAM MA 02026 	42.2454178	-71.1616085	1229
East Kentwood High School	6230 KALAMAZOO AVE SE GRAND RAPIDS MI 49508 	42.8539357	-85.6248803	1230
Tahoma Senior High School	18200 SE 240TH ST COVINGTON WA 98042 	47.3885825	-122.1005205	1231
Hilltop Senior High School	555 CLAIRE AVE CHULA VISTA CA 91910 	32.6368408	-117.0599429	1232
William Howard Taft Senior High	5461 WINNETKA AVE WOODLAND HILLS CA 91364 	34.169657	-118.5713076	1233
Murrieta Valley High School	42200 NIGHTHAWK WAY MURRIETA CA 92562 	33.563284	-117.23064	1234
Souderton Area Senior High School	625 LOWER RD SOUDERTON PA 18964 	40.2960656	-75.3527462	1235
Edison High School	21400 MAGNOLIA HUNTINGTON BEACH CA 92646 	33.655102	-117.968928	1236
New Braunfels High School	2551 LOOP 337 NORTH NEW BRAUNFELS TX 78130 	29.717484	-98.151066	1237
Lakota West High School	8940 UNION CENTRE BLVD WEST CHESTER OH 45069 	39.3302524	-84.4317533	1238
Mansfield High School	250 EAST ST MANSFIELD MA 02048 	42.0298037	-71.2038631	1239
Mountain View High	665 WEST CENTER OREM UT 84057 	40.296058	-111.710035	1240
San Dimas High	800 WEST COVINA BLVD SAN DIMAS CA 91773 	34.097502	-117.822544	1241
Buena Park High School	8833 ACADEMY DR BUENA PARK CA 90621 	33.8612971	-117.9800568	1242
Hoover High School	525 7TH ST NE NORTH CANTON OH 44720 	40.8849103	-81.3946474	1243
Polytechnic High School	5450 VICTORIA AVE RIVERSIDE CA 92506 	33.9526185	-117.3702422	1244
Crestview High School	531 EAST TULLY ST CONVOY OH 45832 	40.9168771	-84.7019849	1245
El Modena High School	3920 SPRING ST ORANGE CA 92869 	33.789862	-117.812714	1246
Grover Cleveland High School	8140 VANALDEN AVE RESEDA CA 91335 	34.217816	-118.547447	1247
St. Charles Secondary	600 EAST 6TH ST ST. CHARLES MN 55972 	43.9719464	-92.0559335	1248
Kalida High School	301 NORTH THIRD ST KALIDA OH 45853 	40.9820083	-84.2028249	1249
Marina High School	15871 SPRINGDALE ST HUNTINGTON BEACH CA 92649 	33.7325723	-118.0276415	1250
Scarborough High School	11 MUNICIPAL DR SCARBOROUGH ME 04074 	43.594099	-70.337743	1251
Tivy High School	3250 LOOP 534 KERRVILLE TX 78028 	30.038776	-99.108045	1252
Arlington Memorial School	529 EAST ARLINGTON RD ARLINGTON VT 05250 	43.065609	-73.151306	1253
Amistad Academy	407 JAMES ST NEW HAVEN CT 06513 	41.313674	-72.903434	1254
Saint Helena High	1401 GRAYSON AVE ST. HELENA CA 94574 	38.496758	-122.462749	1255
Southwestern Senior High School	600 HUNT RD WEST JAMESTOWN NY 14701 	42.092228	-79.2904779	1256
Anderson High School	7560 FOREST RD CINCINNATI OH 45255 	39.069632	-84.34698	1257
Harriton Senior High School	600 NORTH ITHAN AVE ROSEMONT PA 19010 	40.0398362	-75.3171153	1258
East Mecklenburg High	6800 MONROE RD CHARLOTTE NC 28212 	35.1758809	-80.757363	1259
Baker School	1369 14TH ST BAKER FL 32531 	30.792876	-86.680559	1260
El Camino High	1320 MISSION RD SOUTH SAN FRANCISCO CA 94080 	37.666935	-122.441183	1261
Roseville High School	1 TIGER WAY ROSEVILLE CA 95678 	38.758043	-121.27578	1262
Costa Mesa High School	2650 FAIRVIEW RD COSTA MESA CA 92626 	33.670977	-117.9054014	1263
Lincoln-​Way East High School	201 COLORADO AVE FRANKFORT IL 60423 	41.513221	-87.857623	1264
Holly High School	6161 EAST HOLLY RD HOLLY MI 48442 	42.796508	-83.585119	1265
North Quincy High School	316 HANCOCK ST QUINCY MA 02171 	42.2757254	-71.0277429	1266
Cuyahoga Hts High School	4820 EAST 71ST ST CUYAHOGA HEIGHTS OH 44125 	41.4271025	-81.6420446	1267
North Muskegon High School	1507 MILLS AVE MUSKEGON MI 49445 	43.256821	-86.2686296	1268
Los Osos High School	6001 MILLIKEN AVE RANCHO CUCAMONGA CA 91737 	34.1465828	-117.5559425	1269
Inglemoor High School	15500 SIMONDS RD NE KENMORE WA 98028 	47.7405389	-122.2244101	1270
Westerville-​North High School	950 COUNTY LINE RD WESTERVILLE OH 43081 	40.134544	-82.898109	1271
Sargent Senior High School	7090 NORTH RD 2 EAST MONTE VISTA CO 81144 	37.6770937	-106.1122091	1272
Grand Blanc Community High School	12500 HOLLY RD GRAND BLANC MI 48439 	42.9209764	-83.6217872	1273
Hanford High School	450 HANFORD ST RICHLAND WA 99352 	46.325705	-119.267634	1274
Spring Valley High	S1450 COUNTY RD CC SPRING VALLEY WI 54767 	44.800922	-92.257492	1275
Colchester High School	131 LAKER LN COLCHESTER VT 05446 	44.5409553	-73.2148245	1276
Granville High School	248 NEW BURG ST GRANVILLE OH 43023 	40.0778074	-82.5264036	1277
James A. Garfield Senior High	5101 EAST SIXTH ST LOS ANGELES CA 90022 	34.0272411	-118.1574096	1278
Sierra High School	33326 NORTH LODGE RD TOLLHOUSE CA 93667 	37.0361416	-119.4523092	1279
Chazy Central Rural Junior-​Senior High School	609 MINER FARM RD CHAZY NY 12921 	44.8872861	-73.4328747	1280
Fennimore High	510 7TH ST FENNIMORE WI 53809 	42.985431	-90.6478162	1281
Newton-​Conover High	338 WEST 15TH ST NEWTON NC 28658 	35.679071	-81.225474	1282
Olmsted Falls High School	26939 BAGLEY RD OLMSTED FALLS OH 44138 	41.370058	-81.92752	1283
Montoursville Area S	100 NORTH ARCH ST MONTOURSVILLE PA 17754 	41.2499748	-76.9200228	1284
Hopkins Academy	131 RUSSELL ST HADLEY MA 01035 	42.3421169	-72.5912231	1285
Farragut High School	11237 KINGSTON PK KNOXVILLE TN 37922 	35.886614	-84.158806	1286
Cumberland Valley High School	6746 CARLISLE PK MECHANICSBURG PA 17050 	40.237865	-77.061033	1287
Ferris High School	3020 EAST 37TH AVE SPOKANE WA 99223 	47.6191795	-117.3663379	1288
Red Rock Central Secondary	100 6TH AVE EAST LAMBERTON MN 56152 	44.2272202	-95.2630766	1289
Rancho Alamitos High School	11351 DALE ST GARDEN GROVE CA 92841 	33.79915	-117.9867	1290
Goffstown High School	27 WALLACE RD GOFFSTOWN NH 03045 	43.0126495	-71.5832621	1291
Garland High School	310 SOUTH GARLAND AVE GARLAND TX 75040 	32.9102112	-96.6468133	1292
John A. Ferguson Sr High	15900 SW 56TH ST MIAMI FL 33185 	25.712303	-80.452105	1293
Urban Assembly Academy Of Government And Law	350 GRAND ST NEW YORK NY 10002 	40.717321	-73.989323	1294
Berkner High School	1600 EAST SPRING VLY RD RICHARDSON TX 75081 	32.936238	-96.6930749	1295
Bearden High School	8352 KINGSTON PK KNOXVILLE TN 37919 	35.9421232	-83.9720586	1296
Park Hill South High	4500 NW RIVER PARK DR RIVERSIDE MO 64150 	39.175184	-94.630367	1297
Jordan Matthews High	910 EAST CARDINAL ST SILER CITY NC 27344 	35.7229979	-79.4517	1298
Hammond High	8800 GUILFORD RD COLUMBIA MD 21046 	39.168524	-76.8594963	1299
Ouray Senior High School	400 7TH AVE OURAY CO 81427 	38.0238838	-107.6700906	1300
Chestatee High School	3005 SARDIS RD GAINESVILLE GA 30506 	34.348628	-83.893728	1301
ADM Senior High School 	801 NILE KINNICK DR SOUTH ADEL IA 50003 	41.610832	-94.015078	1302
Baltimore School For The Arts	712 CATHEDRAL ST BALTIMORE MD 21201 	39.2985111	-76.6173717	1303
Rogers High School	2300 SOUTH DIXIELAND RD ROGERS AR 72758 	36.299535	-94.146789	1304
Robert F Kennedy Community High School	7540 PARSONS BLVD FLUSHING NY 11366 	40.7252971	-73.810707	1305
Johnson City Senior High School	666 REYNOLDS RD JOHNSON CITY NY 13790 	42.134542	-75.9685159	1306
Basha High School	5990 SOUTH VAL VISTA DR CHANDLER AZ 85249 	33.221165	-111.75891	1307
San Lorenzo Valley High School	7105 HWY 9 FELTON CA 95018 	37.0614101	-122.0801856	1308
North Fort Myers High School	5000 ORANGE GROVE BLVD NORTH FORT MYERS FL 33903 	26.663028	-81.91275	1309
Kingwood High School	2701 KINGWOOD DR KINGWOOD TX 77339 	30.045855	-95.193938	1310
Morris Hills High School	520 WEST MAIN ST ROCKAWAY NJ 07866 	40.890836	-74.52918	1311
Spring Hill High School	3101 SPRING HILL RD LONGVIEW TX 75605 	32.562508	-94.796044	1312
Leesville Road High	8409 LEESVILLE RD RALEIGH NC 27613 	35.8904623	-78.7135379	1313
Temecula Valley High	31555 RANCHO VISTA RD TEMECULA CA 92592 	33.501401	-117.116102	1314
John A. Rowland High School	2000 SOUTH OTTERBEIN ST ROWLAND HEIGHTS CA 91748 	33.9819728	-117.8848705	1315
Fred J Page High	6281 ARNO RD FRANKLIN TN 37064 	35.847875	-86.753474	1316
Los Amigos High School	16566 NEWHOPE ST FOUNTAIN VALLEY CA 92708 	33.722741	-117.927354	1317
West Covina High School	1609 EAST CAMERON AVE WEST COVINA CA 91791 	34.06256	-117.913763	1318
Olathe Northwest High School	21300 COLLEGE BLVD OLATHE KS 66061 	38.926882	-94.83525	1319
Garnet Valley High School	552 SMITHBRIDGE RD GLEN MILLS PA 19342 	39.8701381	-75.5055699	1320
Westmoor High School	131 WESTMOOR AVE DALY CITY CA 94015 	37.6837768	-122.4821653	1321
Northfield Senior High School	1400 DIVISION ST SOUTH NORTHFIELD MN 55057 	44.4442795	-93.1640515	1322
Kennebunk High School	89 FLETCHER ST KENNEBUNK ME 04043 	43.3953253	-70.5496962	1323
Eastern Jr & Sr High School	421 SOUTH HARRISON ST GREENTOWN IN 46936 	40.4736929	-85.9703971	1324
South Park High School	640 HATHAWAY ST FAIRPLAY CO 80440 	39.224324	-105.9987249	1325
Green High School	1474 BOETTLER RD UNIONTOWN OH 44685 	40.9574583	-81.4734936	1326
Eldorado High	11300 MONTGOMERY NE ALBUQUERQUE NM 87111 	35.128238	-106.513188	1327
David H. Hickman High	1104 NORTH PROVIDENCE RD COLUMBIA MO 65203 	38.9637969	-92.3330069	1328
Burbank High School	902 NORTH THIRD ST BURBANK CA 91502 	34.188832	-118.31537	1329
Escondido High	1535 NORTH BROADWAY ESCONDIDO CA 92026 	33.1442665	-117.0906637	1330
Deer Park  Jr/​Sr High School	8351 PLAINFIELD RD CINCINNATI OH 45236 	39.2106769	-84.400986	1331
Valencia High	27801 NORTH DICKASON DR VALENCIA CA 91355 	34.442705	-118.5616006	1332
Western High School	4600 FALLS RD BALTIMORE MD 21209 	39.3471656	-76.6425309	1333
Waterford High School	121 SOUTH REINWAY WATERFORD CA 95386 	37.6360388	-120.7739231	1334
Cheshire High School	525 SOUTH MAIN ST CHESHIRE CT 06410 	41.489863	-72.909437	1335
Center Grove High School	2717 SOUTH MORGANTOWN RD GREENWOOD IN 46143 	39.5763121	-86.1969192	1336
Kenwood Academy High School	5015 SOUTH BLACKSTONE AVE CHICAGO IL 60615 	41.8034978	-87.5900907	1337
Antwerp Local High School	303 SOUTH HARRMANN RD ANTWERP OH 45813 	41.178818	-84.72744	1338
O'Connor High School	12221 LESLIE RD HELOTES TX 78023 	29.559898	-98.686053	1339
Wakefield High	2200 WAKEFIELD PINES DR RALEIGH NC 27614 	35.9479635	-78.5707299	1340
Maplewood High School	2414 GREENVILLE RD CORTLAND OH 44410 	41.3892804	-80.7324104	1341
Garaway High School	146 DOVER RD NW SUGARCREEK OH 44681 	40.506941	-81.640287	1342
Sprayberry High School	2525 SANDY PLAINS RD MARIETTA GA 30066 	34.0121625	-84.4961841	1343
Lagrange High School	516 NORTH GREENWOOD ST LAGRANGE GA 30240 	33.046082	-85.034044	1344
Times2 Academy	50 FILLMORE ST PROVIDENCE RI 02908 	41.838643	-71.422191	1345
Imperial High School	517 WEST BARIONI BLVD IMPERIAL CA 92251 	32.8482119	-115.575882	1346
Bethel Tate High School	3420 STATE ROUTE 125 BETHEL OH 45106 	38.9620494	-84.0647493	1347
Shiloh High School	4210 SHILOH RD SNELLVILLE GA 30039 	33.8233825	-84.0707123	1348
Mount Si High School	8651 MEADOWBROOK WAY SE SNOQUALMIE WA 98065 	47.5236237	-121.8141942	1349
Loch Raven High	1212 COWPENS AVE BALTIMORE MD 21286 	39.404643	-76.5639675	1350
Blaine High School	1055 H ST BLAINE WA 98230 	48.9939907	-122.736569	1351
Hicksville High School	958 EAST HIGH ST HICKSVILLE OH 43526 	41.301439	-84.745177	1352
Classical Academy High School	144 WEST WOODWARD AVE ESCONDIDO CA 92025 	33.125389	-117.085861	1353
Menomonie High	1715 5TH ST WEST MENOMONIE WI 54751 	44.868076	-91.938811	1354
Glenwood High School	1501 EAST PLUMMER BLVD CHATHAM IL 62629 	39.6899374	-89.6894066	1355
Greely High School	303 MAIN ST CUMBERLAND CENTER ME 04021 	43.7978084	-70.2575469	1356
Cypress Ranch H	10700 FRY RD CYPRESS TX 77433 	29.9647503	-95.6861973	1357
Kennesaw Mountain High School	1898 KENNESAW DUE WEST RD NW KENNESAW GA 30152 	34.0008972	-84.6249551	1358
Benzie Central Sr. High School	9300 HOMESTEAD RD BENZONIA MI 49616 	44.6173174	-86.0584797	1359
Middle College High School	11750 SOUTH WESTERN AVE LOS ANGELES CA 90047 	33.9278728	-118.3089824	1360
Valley Center High School	31322 COLE GRADE RD VALLEY CENTER CA 92082 	33.2798289	-117.0237917	1361
Lago Vista High School	8039 BAR K RANCH RD LAGO VISTA TX 78645 	30.4803461	-97.9778164	1362
Eureka Springs High School	44 KINGS HWY RD EUREKA SPRINGS AR 72632 	36.4011825	-93.7379711	1363
Sangre De Cristo Undivided High School	5401 TERRY ST MOSCA CO 81146 	37.6523363	-105.8754069	1364
Clackamas High School	14486 SE 122ND AVE CLACKAMAS OR 97015 	45.4162875	-122.5335247	1365
Brainerd Senior High	702 SOUTH 5TH ST BRAINERD MN 56401 	46.3515971	-94.2022247	1366
Chardon High School	151 CHARDON AVE CHARDON OH 44024 	41.591074	-81.199946	1367
Sheridan High School	1056 LONG DR SHERIDAN WY 82801 	44.8075929	-106.9833161	1368
Rocky River High School	20951 DETROIT RD ROCKY RIVER OH 44116 	41.473317	-81.851276	1369
Dearborn High School	19501 OUTER DR DEARBORN MI 48124 	42.3081335	-83.2633099	1370
El Camino Fundamental High	4300 EL CAMINO AVE SACRAMENTO CA 95821 	38.608389	-121.362128	1371
Glasscock Count	240 WEST BEARKAT AVE GARDEN CITY TX 79739 	31.8664532	-101.48488	1372
South Windsor High School	161 NEVERS RD SOUTH WINDSOR CT 06074 	41.8423193	-72.5518147	1373
Burroughs High School	1920 CLARK AVE BURBANK CA 91506 	34.1702685	-118.3274783	1374
Thunderbird High School	1750 WEST THUNDERBIRD PHOENIX AZ 85023 	33.612316	-112.098063	1375
Bangor High School	885 BROADWAY BANGOR ME 04401 	44.831237	-68.781731	1376
Highland High School	4150 RIDGE RD MEDINA OH 44256 	41.163824	-81.742424	1377
Hightower High School	3333 HURRICANE LN MISSOURI CITY TX 77459 	29.532039	-95.4980816	1378
North Pointe Preparatory	10215 NORTH 43RD AVE PHOENIX AZ 85051 	33.578855	-112.150486	1379
Renaissance High School for the Arts	235 EAST EIGHTH ST LONG BEACH CA 90813 	33.7766069	-118.1903115	1380
South Hills High School	645 SOUTH BARRANCA ST WEST COVINA CA 91723 	34.0625927	-117.8827292	1381
Galt High	145 NORTH LINCOLN WAY GALT CA 95632 	38.2558485	-121.3000531	1382
Morton Ranch High School	21000 FRANZ RD KATY TX 77449 	29.803755	-95.7449345	1383
Clear Springs High School	501 PALAMINO LN LEAGUE CITY TX 77573 	29.501093	-95.143452	1384
Holmen High	1001 MCHUGH RD HOLMEN WI 54636 	43.972187	-91.277504	1385
Golden Valley High School	2121 EAST CHILDS AVE MERCED CA 95344 	37.2878589	-120.4507293	1386
Lee County High School	1 TROJAN WAY LEESBURG GA 31763 	31.7321156	-84.1707423	1387
Oregon City Senior High School	19761 SOUTH BEAVERCREEK RD OREGON CITY OR 97045 	45.3207979	-122.5592151	1388
Nathan Hale High	11601 WEST LINCOLN AVE WEST ALLIS WI 53227 	42.998792	-88.056124	1389
Columbia River High	800 NW 99TH ST VANCOUVER WA 98665 	45.6933634	-122.6790106	1390
G.F.W. Sr.	N COTTONWOOD ST WINTHROP MN 55396 	44.5444632	-94.3679946	1391
Boerne High School	1 GREYHOUND LN BOERNE TX 78006 	29.799036	-98.7119222	1392
Port Of Los Angeles High School	250 WEST FIFTH ST SAN PEDRO CA 90731 	33.739985	-118.2828615	1393
Sweetwater High School	2900 HIGHLAND AVE NATIONAL CITY CA 91950 	32.6599646	-117.0921272	1394
Ashland High School	201 SOUTH MOUNTAIN AVE ASHLAND OR 97520 	42.191232	-122.700382	1395
Medina High School	777 EAST UNION ST MEDINA OH 44256 	41.1446871	-81.851111	1396
Muenster High School	135 7TH ST MUENSTER TX 76252 	33.6560198	-97.3798267	1397
Williamstown Jr. Sr. High	300 HELTON ST WILLIAMSTOWN KY 41097 	38.6499792	-84.5690726	1398
Huntington Beach High School	1905 MAIN ST HUNTINGTON BEACH CA 92648 	33.678378	-118.002923	1399
Lakeside High School	32593 RIVERSIDE DR LAKE ELSINORE CA 92530 	33.6712795	-117.3785582	1400
John Dewey High School	50 AVE X BROOKLYN NY 11223 	40.5892496	-73.9818322	1401
Stockdale High School	2800 BUENA VISTA RD BAKERSFIELD CA 93311 	35.3265936	-119.1272496	1402
Animo Jackie Robinson High School	3500 SOUTH HILL ST LOS ANGELES CA 90007 	34.0176275	-118.2760294	1403
Marysville High School	555 EAST HURON BLVD MARYSVILLE MI 48040 	42.9091124	-82.4744986	1404
Avon High School	37545 DETROIT RD AVON OH 44011 	41.444481	-82.036634	1405
Otsego High School	550 WASHINGTON ST OTSEGO MI 49078 	42.4554542	-85.7116076	1406
Hilliard Davidson High School	5100 DAVIDSON RD HILLIARD OH 43026 	40.048973	-83.157486	1407
Hughesville Junior Senior High School	349 CEMETERY ST HUGHESVILLE PA 17737 	41.2417393	-76.7333889	1408
John F. Kennedy High School	6715 GLORIA DR SACRAMENTO CA 95831 	38.503061	-121.534552	1409
West High	1200 WEST WAUSAU AVE WAUSAU WI 54401 	44.9754549	-89.650651	1410
Rio Rancho High	500 LASER RD NE RIO RANCHO NM 87124 	35.265897	-106.631406	1411
Santa Clara High School	3000 BENTON ST SANTA CLARA CA 95051 	37.3462917	-121.9822595	1412
Arlington High	2951 JACKSON ST RIVERSIDE CA 92503 	33.9132328	-117.4296653	1413
Cary-​Grove Community High School	2208 3 OAKS RD CARY IL 60013 	42.2204551	-88.241664	1414
Vista Murrieta High School	28251 CLINTON KEITH RD MURRIETA CA 92563 	33.596915	-117.1652988	1415
Estancia High School	2323 PLACENTIA AVE COSTA MESA CA 92627 	33.6588831	-117.9345688	1416
Lampeter-​Strasburg Senior High School	1600 BOOK RD LAMPETER PA 17537 	39.9958675	-76.2321889	1417
Verdugo Hills Senior High School	10625 PLAINVIEW AVE TUJUNGA CA 91042 	34.2605759	-118.3003912	1418
Tustin High School	1171 EL CAMINO REAL TUSTIN CA 92780 	33.73643	-117.817477	1419
Harbor High School	300 LA FONDA AVE SANTA CRUZ CA 95062 	36.984422	-121.992907	1420
Livermore High	600 MAPLE ST LIVERMORE CA 94550 	37.6805076	-121.7617642	1421
Millbrook High	2201 SPRING FOREST RD RALEIGH NC 27615 	35.865662	-78.6033424	1422
Mission Viejo High School	25025 CHRISANTA DR MISSION VIEJO CA 92691 	33.5967089	-117.6718547	1423
Hubbard High School	350 HALL AVE HUBBARD OH 44425 	41.1524205	-80.5813058	1424
Sylvania Southview High School	7225 SYLVANIA AVE SYLVANIA OH 43560 	41.6886997	-83.7154842	1425
Fairmont Senior High School	1 LOOP PARK DR FAIRMONT WV 26554 	39.4789039	-80.1571422	1426
Trinity High School	500 NORTH INDUSTRIAL BLVD EULESS TX 76039 	32.842908	-97.1003652	1427
Lee'S Summit North High	901 NE DOUGLAS ST LEE'S SUMMIT MO 64086 	38.928344	-94.376862	1428
Northeast Magnet High School	1847 NORTH CHAUTAUQUA WICHITA KS 67214 	37.716455	-97.301666	1429
New Century Technology Demo High School	300 EXPLORER BLVD HUNTSVILLE AL 35806 	34.7234274	-86.6989639	1430
North Royalton High School	14713 RIDGE RD NORTH ROYALTON OH 44133 	41.311003	-81.733254	1431
Aynor High	201 JORDANVILLE RD AYNOR SC 29511 	33.9924916	-79.2036158	1432
East Surry High	801 WEST MAIN ST PILOT MOUNTA NC 27041 	36.392992	-80.47708	1433
Colony High School	9550 EAST COLONY SCHOOL DR PALMER AK 99645 	61.6107449	-149.2181712	1434
Early High School	115 SUDDERTH EARLY TX 76803 	31.745931	-98.9321183	1435
Sheridan High School	800 WEST VINE SHERIDAN AR 72150 	34.311204	-92.408953	1436
Hanover High School	41 LEBANON ST HANOVER NH 03755 	43.6992028	-72.2831701	1437
Riverview High School	100 HULTON RD OAKMONT PA 15139 	40.525756	-79.8442139	1438
Miami Lakes Educational Center	5780 NW 158TH ST MIAMI LAKES FL 33014 	25.9169339	-80.2940132	1439
Owosso High School	765 EAST NORTH ST OWOSSO MI 48867 	43.0122165	-84.1604835	1440
Stephen Decatur High	9913 SEAHAWK RD BERLIN MD 21811 	38.340297	-75.190788	1441
Topsail High	17445 US HWY 17 HAMPSTEAD NC 28443 	34.3793272	-77.6971719	1442
East Hampton High School	15 NORTH MAPLE ST EAST HAMPTON CT 06424 	41.5823594	-72.5129546	1443
North High School	801 17TH AVE NORTH FARGO ND 58102 	46.90334	-96.79043	1444
Morristown West High School	1025 SULPHUR SPRINGS RD MORRISTOWN TN 37814 	36.1998559	-83.2976264	1445
Mound-​Westonka High School	5905 SUNNYFIELD RD EAST MINNETRISTA MN 55364 	44.956762	-93.6717966	1446
Wade Hampton High	100 PINE KNOLL GREENVILLE SC 29609 	34.887119	-82.356348	1447
G. Holmes Braddock Senior High	3601 SW 147TH AVE MIAMI FL 33185 	25.7326198	-80.4297906	1448
Midway High School	8200 MARS DR WACO TX 76712 	31.4840095	-97.1990532	1449
North Penn Senior High School	1340 SOUTH VALLEY FORGE RD LANSDALE PA 19446 	40.2362814	-75.315383	1450
Jay High School	7611 MARBACH RD SAN ANTONIO TX 78227 	29.419438	-98.640146	1451
Dublin High School	8151 VILLAGE PARKWAY DUBLIN CA 94568 	37.720565	-121.92403	1452
Amador High	330 SPANISH ST SUTTER CREEK CA 95685 	38.3988596	-120.8099368	1453
Arcadia High School	4703 EAST INDIAN SCHOOL RD PHOENIX AZ 85018 	33.492828	-111.981619	1454
Mott Hall Bronx High School	1595 BATHGATE AVE BRONX NY 10457 	40.839491	-73.901765	1455
Johnsburg Central School	165 MAIN ST NORTH CREEK NY 12853 	43.693626	-73.9847	1456
High School Of Economics & Finance	100 TRINITY PLACE NEW YORK NY 10006 	40.7089777	-74.0122017	1457
Montague High School	4900 STANTON BLVD MONTAGUE MI 49437 	43.4222384	-86.3626934	1458
Panguitch High	390 EAST 100 SOUTH PANGUITCH UT 84759 	37.8212714	-112.4278312	1459
Mount Carmel Ac	7155 ASHBURN ST HOUSTON TX 77061 	29.66073	-95.30174	1460
Centennial High School	1820 RIMPAU AVE CORONA CA 92881 	33.8585605	-117.5454176	1461
Miami Coral Park Senior High	8865 SW 16TH ST MIAMI FL 33165 	25.7552175	-80.338904	1462
Marietta High School	1171 WHITLOCK AVE SW MARIETTA GA 30064 	33.9483335	-84.5860591	1463
Cabrillo High School	4350 CONSTELLATION RD LOMPOC CA 93436 	34.7110809	-120.475008	1464
Terry Sanford High	2301 FORT BRAGG RD FAYETTEVILLE NC 28303 	35.064479	-78.915628	1465
Desert Hills High	828 EAST DESERT HILLS DR SAINT GEORGE UT 84790 	37.0520048	-113.565829	1466
Chino Hills High School	16150 POMONA RINCON RD CHINO HILLS CA 91709 	33.960227	-117.6864413	1467
Calhoun High School	315 SOUTH RIVER ST CALHOUN GA 30701 	34.5020672	-84.9549812	1468
Turlock High School	1600 EAST CANAL DR TURLOCK CA 95380 	37.498298	-120.829488	1469
Ruben S. Ayala High	14255 PEYTON AVE CHINO HILLS CA 91709 	33.9944099	-117.7325242	1470
Champs -​ Charter High School of Arts-​Multimedia & Performin	6952 VAN NUYS BLVD SHERMAN OAKS CA 91405 	34.1972295	-118.4481661	1471
Sandpoint High School	410 SOUTH DIVISION ST SANDPOINT ID 83864 	48.2692864	-116.5679381	1472
Central Valley High School	4033 CENTRAL AVE CERES CA 95307 	37.5798174	-120.9570069	1473
Woodbury Jr-​Sr High School	25 NORTH BROAD ST WOODBURY NJ 08096 	39.839599	-75.153453	1474
Gulf High School	5355 SCHOOL RD NEW PORT RICHEY FL 34652 	28.233471	-82.717405	1475
Independence High School	1776 DECLARATION WAY THOMPSON'S STATION TN 37179 	35.82481	-86.892062	1476
Corbin High School	1901 SNYDER ST CORBIN KY 40701 	36.9323483	-84.0951375	1477
Simi Valley High	5400 COCHRAN ST SIMI VALLEY CA 93063 	34.2779215	-118.6847817	1478
Trabuco Hills High School	27501 CORDOVA RD MISSION VIEJO CA 92691 			1479
Manheim Township High School	SCHOOL RD LANCASTER PA 17601 	40.1018686	-76.3028264	1480
Dover High School	520 NORTH WALNUT ST DOVER OH 44622 	40.5235327	-81.4804121	1481
El Dorado High School	561 CANAL ST PLACERVILLE CA 95667 	38.7325515	-120.8119735	1482
Herbert Hoover High School	651 GLENWOOD RD GLENDALE CA 91202 	34.1659643	-118.2701681	1483
Green Mountain Uhs #35	716 VT RTE 103 SOUTH CHESTER VT 05143 	43.253613	-72.581459	1484
Bemidji Senior High	2900 DIVISION ST WEST BEMIDJI MN 56601 	47.4685285	-94.9216938	1485
Preble High	2222 DECKNER AVE GREEN BAY WI 54302 	44.500607	-87.965743	1486
Bedford High School	47B NASHUA RD BEDFORD NH 03110 	42.9365347	-71.5156736	1487
Charlevoix High School	5200 MARION CENTER RD CHARLEVOIX MI 49720 	45.2823013	-85.2711537	1488
Fairbanks High School	11158 STATE ROUTE 38 MILFORD CENTER OH 43045 	40.1448238	-83.3824281	1489
Animo Inglewood Charter High	3425 WEST MANCHESTER BLVD INGLEWOOD CA 90305 	33.9604301	-118.3316537	1490
Hillgrove High School	4165 LUTHER WARD RD POWDER SPRINGS GA 30127 	33.9264072	-84.6674219	1491
Bloomington High School North	3901 NORTH KINSER PK BLOOMINGTON IN 47404 	39.2023625	-86.5490592	1492
Grove City Area High School	511 HIGHLAND AVE GROVE CITY PA 16127 	41.1620434	-80.0973422	1493
Hellgate High School	900 SOUTH HIGGINS MISSOULA MT 59801 	46.8630068	-113.9974243	1494
Murray High School	501 DORAN RD MURRAY KY 42071 	36.6028	-88.3335941	1495
La Serna High School	15301 EAST YOUNGWOOD DR WHITTIER CA 90605 	33.9546499	-117.9992595	1496
Akron High School	47 BLOOMINGDALE AVE AKRON NY 14001 	43.023371	-78.489897	1497
Apple Valley Senior High	14450 HAYES RD APPLE VALLEY MN 55124 	44.742774	-93.230399	1498
Klein High School	16715 STUEBNER AIRLINE RD KLEIN TX 77379 	30.0190948	-95.5224921	1499
Alexander Middle School-​High School	3314 BUFFALO ST ALEXANDER NY 14005 	42.90081	-78.2615515	1500
Elderton Jshs	239 SOUTH LYTLE ST ELDERTON PA 15736 	40.6931914	-79.3408026	1501
West Seneca West Senior High School	3330 SENECA ST WEST SENECA NY 14224 	42.833062	-78.772521	1502
Sherman High School	2201 EAST LAMAR ST SHERMAN TX 75090 	33.6415272	-96.5817273	1503
Von Steuben Metro Science High School	5039 NORTH KIMBALL AVE CHICAGO IL 60625 	41.9728977	-87.7131962	1504
Amerischools College Preparatory Academy -​ Tucson	7444 EAST BROADWAY TUCSON AZ 85710 	32.220251	-110.83361	1505
Exeter High School	1 BLUE HAWK DR EXETER NH 03833 	43.0167668	-71.0004176	1506
Montgomery High	1250 HAHMAN DR SANTA ROSA CA 95405 	38.4403662	-122.6840755	1507
Stevens High School	1200 44TH ST RAPID CITY SD 57702 	44.0760939	-103.29144	1508
El Toro High School	25255 TOLEDO WAY LAKE FOREST CA 92630 	33.6376232	-117.6878643	1509
Lecanto High School	3810 WEST EDUCATIONAL PATH LECANTO FL 34461 	28.8239382	-82.4968542	1510
Craig High	401 SOUTH RANDALL AVE JANESVILLE WI 53545 	42.6802952	-89.002832	1511
Redlands Senior High School	840 EAST CITRUS AVE REDLANDS CA 92374 	34.0551677	-117.1703927	1512
Phillips High	COUNTY HWY WEST PHILLIPS WI 54555 	45.6917121	-90.5422253	1513
Tallmadge High School	140 NORTH MUNROE RD TALLMADGE OH 44278 	41.1018969	-81.4157006	1514
Beachwood High School	25100 FAIRMOUNT BLVD BEACHWOOD OH 44122 	41.4861821	-81.5015112	1515
Six Rivers Charter High School	1720 M ST ARCATA CA 95521 	40.8665166	-124.0828396	1516
Rancho Buena Vista High	1601 LONGHORN DR VISTA CA 92081 	33.164157	-117.246641	1517
Fairhope High School	1 PIRATE DR FAIRHOPE AL 36532 	30.4979975	-87.883945	1518
Ocean View High School	17071 GOTHARD ST HUNTINGTON BEACH CA 92647 	33.714673	-118.000433	1519
Laurel Hill School	8078 4TH ST LAUREL HILL FL 32567 	30.958409	-86.462557	1520
Vanden High	2951 MARKLEY LN FAIRFIELD CA 94533 	39.4390588	-75.2281541	1521
Rancho Cucamonga High School	11801 LARK DR RANCHO CUCAMONGA CA 91701 	34.1324154	-117.545634	1522
Matanzas High School	3535 OLD KING RD PALM COAST FL 32137 	29.600512	-81.236931	1523
Tuscola High	564 TUSCOLA SCHOOL RD WAYNESVILLE NC 28786 	35.522771	-82.952652	1524
Pickerington High School North	7800 REFUGEE RD PICKERINGTON OH 43147 	39.9092733	-82.7341252	1525
Eleanor Roosevelt High School	7447 CLEVELAND AVE CORONA CA 92880 	33.9855857	-117.5671876	1526
Lake Central High School	8400 WICKER AVE SAINT JOHN IN 46373 	41.468153	-87.472664	1527
St Croix Falls High School	740 MAPLE DR SAINT CROIX FALLS WI 54024 	45.404657	-92.6329808	1528
Alhambra Senior High School	150 EAST ST MARTINEZ CA 94553 	38.0475852	-122.1585965	1529
Polson High School	1712 2ND ST WEST POLSON MT 59860 	47.678521	-114.1668003	1530
Fallston High	2301 CARRS MILL RD FALLSTON MD 21047 	39.52206	-76.4131712	1531
Corona High School	1150 WEST TENTH ST CORONA CA 92882 	33.8732116	-117.5852398	1532
East Canton High School	310 BROWNING CT NORTH EAST CANTON OH 44730 	40.7898578	-81.2798532	1533
Strongsville High School	20025 LUNN RD STRONGSVILLE OH 44149 	41.3052139	-81.8471901	1534
Skyline High School	1122 228TH AVE SE SAMMAMISH WA 98075 	47.6001491	-122.0315677	1535
Bend Senior High School	230 NE 6TH ST BEND OR 97701 	44.0525986	-121.2957626	1536
Kendall Junior-​Senior High School	16887 ROOSEVELT HWY KENDALL NY 14476 	43.318301	-78.0255971	1537
Marshall High School	8000 LOBO LN SAN ANTONIO TX 78240 	29.512616	-98.619337	1538
University High School	131 BAKER'S RIDGE RD MORGANTOWN WV 26505 	39.6742923	-79.9487091	1539
Franklin High School	900 NORTH RESLER DR EL PASO TX 79912 	31.860831	-106.557156	1540
Dunellen High School	FIRST ST AND LINCOLN AVE DUNELLEN NJ 08812 	40.5928181	-74.4678205	1541
World Journalism Preparatory	3465 192ND ST FLUSHING NY 11358 	40.7648343	-73.7897125	1542
Whittier High School	12417 EAST PHILADELPHIA ST WHITTIER CA 90601 	33.9798181	-118.0441169	1543
Montevideo Senior High	1501 WILLIAM AVE MONTEVIDEO MN 56265 	44.9380297	-95.7080306	1544
Glendale High School	1440 EAST BROADWAY GLENDALE CA 91205 	34.1443995	-118.2345408	1545
Mariner High School	701 CHIQUITA BLVD NORTH CAPE CORAL FL 33993 	26.663046	-82.003198	1546
Northridge High School	56779 NORTHRIDGE DR MIDDLEBURY IN 46540 	41.6734102	-85.7253091	1547
Mt. Shasta High	710 EVERITT MEMORIAL HWY MOUNT SHASTA CA 96067 	41.323983	-122.302296	1548
Mount Everett Regional School	491 BERKSHIRE SCHOOL RD SHEFFIELD MA 01257 	42.105211	-73.374373	1549
Rowlett High School	4700 KIRBY RD ROWLETT TX 75088 	32.9012084	-96.552906	1550
Langham Creek High School	17610 FM 529 HOUSTON TX 77095 	29.878688	-95.6748577	1551
Fairfax Senior High School	7850 MELROSE AVE LOS ANGELES CA 90046 	34.0819586	-118.3601272	1552
Oakmont Regional High School	9 OAKMONT DR ASHBURNHAM MA 01430 	42.605426	-71.922534	1553
Prosser High School	1203 PROSSER AVE PROSSER WA 99350 	46.2042491	-119.7658042	1554
Portola Junior/​Senior High School	155 SIXTH AVE PORTOLA CA 96122 	39.8015398	-120.46726	1555
Fillmore Senior High School	555 CENTRAL AVE FILLMORE CA 93015 	34.4035903	-118.9143776	1556
Bell High School	1601 BROWN TRL HURST TX 76054 	32.842266	-97.1628379	1557
Truman High	3301 SOUTH NOLAND RD INDEPENDENCE MO 64055 	39.059754	-94.412255	1558
Homer High School	600 EAST FAIRVIEW AVE HOMER AK 99603 	59.6501485	-151.5282011	1559
Sprague High School	2373 KUEBLER BLVD SOUTH SALEM OR 97302 	44.8867782	-123.0782361	1560
Kingston High School	26201 SIYAYA AVE NE KINGSTON WA 98346 	47.7983239	-122.5193243	1561
Carpinteria Senior High School	4810 FOOTHILL RD CARPINTERIA CA 93013 	34.411245	-119.516852	1562
West High	375 NORTH EAGLE ST OSHKOSH WI 54902 	44.0227884	-88.5723373	1563
Canyon View High	166 WEST 1925 NORTH CEDAR CITY UT 84721 	37.712204	-113.0670407	1564
Carroll Jr-​Sr High Sch	2362 EAST SR 18 FLORA IN 46929 	40.5473454	-86.5706611	1565
Roselle Park High School	185 WEST WEBSTER AVE ROSELLE PARK NJ 07204 	40.6658738	-74.2680573	1566
Bodine William W High School	1101 NORTH 4TH ST PHILADELPHIA PA 19123 	39.9682621	-75.1433499	1567
Palisade High School	3679 G RD PALISADE CO 81526 	39.105288	-108.369956	1568
Arroyo High	15701 LORENZO AVE SAN LORENZO CA 94580 	37.6807888	-122.1386662	1569
Blackduck Secondary	156 FIRST ST NE BLACKDUCK MN 56630 	47.7317195	-94.5499748	1570
Greeneville High School	210 TUSCULUM BL GREENEVILLE TN 37745 	36.165279	-82.825468	1571
Hudson High School	HWY 94 WEST LUFKIN TX 75904 	31.3162663	-94.8296908	1572
Ross High School	3601 HAMILTON CLEVES RD HAMILTON OH 45013 	39.329826	-84.635679	1573
Delaware Academy High School	2 SHELDON DR DELHI NY 13753 	42.2724759	-74.9138066	1574
Pateros High School	344 WEST BEACH ST PATEROS WA 98846 	48.0512137	-119.9064874	1575
John Glenn High School	201 JOHN GLENN DR WALKERTON IN 46574 	41.456533	-86.478902	1576
Salado High School	1880 WILLIAMS RD SALADO TX 76571 	30.963449	-97.54113	1577
South El Monte High School	1001 DURFEE AVE SOUTH EL MONTE CA 91733 	34.0366039	-118.044157	1578
Athens High School	100 HWY 31 NORTH ATHENS AL 35611 	38.3187153	-85.7534821	1579
South High School	1436 NORFOLK ST DOWNERS GROVE IL 60516 	41.771175	-88.020645	1580
West Liberty High School	310 WEST MAXSON AVE WEST LIBERTY IA 52776 	41.575801	-91.269757	1581
Crivitz High	400 SOUTH AVE CRIVITZ WI 54114 	45.2245497	-87.9982875	1582
La Habra High School	801 WEST HIGHLANDER AVE LA HABRA CA 90631 	33.9360817	-117.9574209	1583
Bardstown High School	400 NORTH 5TH ST BARDSTOWN KY 40004 	37.8141591	-85.4689057	1584
East Hall High School	3534 EAST HALL RD GAINESVILLE GA 30507 	34.334289	-83.74303	1585
Salinas High	726 SOUTH MAIN ST SALINAS CA 93901 	36.6667287	-121.6563467	1586
Chandler High School	350 NORTH ARIZONA AV. CHANDLER AZ 85225 	33.30797	-111.842483	1587
Westmoore High School	12613 SOUTH WESTERN OKLAHOMA CITY OK 73170 	35.342389	-97.534438	1588
Pass Christian High	720 WEST NORTH ST PASS CHRISTIAN MS 39571 	30.3204739	-89.2665554	1589
Cartersville High School	320 EAST CHURCH ST CARTERSVILLE GA 30120 	34.169777	-84.790653	1590
Canyon High	19300 WEST NADAL ST CANYON COUNTRY CA 91351 	34.4295461	-118.4730391	1591
Delmar Senior High School	200 NORTH EIGHTH ST DELMAR DE 19940 	38.4578426	-75.5682017	1592
Richmond-​Burton High School	8311 IL ROUTE 31 RICHMOND IL 60071 	42.4475439	-88.3058821	1593
High School For International-​Business & Finance	549 AUDUBON AVE NEW YORK NY 10040 	40.8565083	-73.926579	1594
Southern Guilford High	5700 DRAKE RD GREENSBORO NC 27406 	35.947057	-79.856185	1595
Harrisburg High School	1300 WEST WILLOW ST HARRISBURG SD 57032 	43.435241	-96.72068	1596
Elkton High	110 JAMES ST ELKTON MD 21921 	39.62334	-75.835185	1597
Terra Nova High	1450 TERRA NOVA BLVD PACIFICA CA 94044 	37.595144	-122.4756562	1598
Hurricane High School	3350 TEAYS VALLEY RD HURRICANE WV 25526 	38.437667	-82.0058466	1599
Artesia High School	12108 EAST DEL AMO BLVD LAKEWOOD CA 90715 	33.8459952	-118.074304	1600
Smithsburg High	66 NORTH MAIN ST SMITHSBURG MD 21783 	39.6597859	-77.575118	1601
South Broward High School	1901 NORTH FEDERAL HWY HOLLYWOOD FL 33020 	26.029243	-80.140984	1602
Prairie High School	401 76TH AVE SW CEDAR RAPIDS IA 52404 	41.901822	-91.666689	1603
St. James High	10800 HWY 707 MURRELLS INLET SC 29576 	33.6127831	-79.0508713	1604
Platte Canyon High School	57243 US HWY 285 BAILEY CO 80421 	39.4212716	-105.5349608	1605
Wall High School	401 SOUTH BLVD WEST WALL SD 57790 	43.9882093	-102.2386209	1606
Kenmore West Senior High School	33 HIGHLAND PKY BUFFALO NY 14223 	42.973221	-78.863926	1607
Monroe High School	220 YANKEE RD MONROE OH 45050 	39.447644	-84.388556	1608
Washington High School	2217 WEST GLENDALE AVE PHOENIX AZ 85021 	33.53673	-112.106061	1609
Urban Assembly School For Law And Justice	283 ADAMS ST BROOKLYN NY 11201 	40.6945218	-73.9885598	1610
West Hall High School	5500 MCEVER RD OAKWOOD GA 30566 	34.219719	-83.9083428	1611
Young Women'S Leadership School of Queens	15091 87TH RD JAMAICA NY 11432 	40.708383	-73.804153	1612
Reseda Senior High School	18230 KITTRIDGE ST RESEDA CA 91335 	34.1886174	-118.5293592	1613
Brandon Valley High School	301 SOUTH SPLITROCK BLVD BRANDON SD 57005 	43.592239	-96.574876	1614
Pioneer High School	10800 BEN AVON WHITTIER CA 90606 	33.9717403	-118.0789033	1615
Cy-​Fair High School	22602 HEMPSTEAD HWY CYPRESS TX 77429 	29.9407298	-95.6539249	1616
Altoona High	711 7TH ST WEST ALTOONA WI 54720 	44.8019589	-91.441978	1617
Geneva High School	101 CARTER RD GENEVA NY 14456 	42.8795558	-76.9930166	1618
Alexandria-​Monroe High School	1 BURDEN CT ALEXANDRIA IN 46001 	40.252088	-85.678498	1619
Durand Junior/​Senior High	604 7TH AVE EAST DURAND WI 54736 	44.6304889	-91.958277	1620
Placer High	275 ORANGE ST AUBURN CA 95603 	38.8952078	-121.0720333	1621
Talawanda High School	101 WEST CHESTNUT ST OXFORD OH 45056 	39.499379	-84.746016	1622
Fort Mill High	225 MUNN RD FORT MILL SC 29715 	35.0141549	-80.9663839	1623
Comstock Park High School	150 6 MILE RD NE COMSTOCK PARK MI 49321 	43.0580357	-85.6641371	1624
John H. Francis Polytechnic School	12431 ROSCOE BLVD SUN VALLEY CA 91352 	34.223917	-118.404073	1625
Hostos-​Lincoln Academy of Science	475 GRAND CONCOURSE BRONX NY 10451 	40.8173575	-73.9288905	1626
Fallbrook High	2400 SOUTH STAGE COACH LN FALLBROOK CA 92028 	33.3490246	-117.241838	1627
Carbon High	750 EAST 400 NORTH PRICE UT 84501 	39.607712	-110.795663	1628
Crestwood High School	1501 NORTH BEECH DALY RD DEARBORN HEIGHTS MI 48127 	42.321711	-83.294327	1629
San Marcos Senior High	4750 HOLLISTER AVE SANTA BARBARA CA 93110 	34.4377613	-119.7868752	1630
Brookings High School	530 ELM AVE BROOKINGS SD 57006 	44.3002098	-96.7822368	1631
Millikan Senior High	2800 SNOWDEN AVE LONG BEACH CA 90815 	33.8065202	-118.1111062	1632
University High School	55 CLINTON PLACE NEWARK NJ 07108 	40.7209752	-74.210544	1633
Thomas Jefferson Charter	1209 ADAM SMITH AVE CALDWELL ID 83605 	43.660051	-116.63867	1634
Deerfield Beach High School	910 SW 15TH ST DEERFIELD BEACH FL 33441 	26.295385	-80.117608	1635
Tulare Western High School	824 WEST MAPLE AVE TULARE CA 93274 	36.2146663	-119.3597273	1636
St. Peter Senior High	100 LINCOLN DR ST. PETER MN 56082 	44.327256	-93.966408	1637
Irvington Community School	6705 EAST JULIAN AVE INDIANAPOLIS IN 46219 	39.7691519	-86.0520635	1638
Campbell High School	5265 WARD ST SE SMYRNA GA 30080 	33.889047	-84.5262338	1639
Calvert High	600 DARES BEACH RD PRINCE FREDERICK MD 20678 	38.555416	-76.584917	1640
Chapin High School	7001 GATEWAY BLVD SOUTH EL PASO TX 79904 	31.8349398	-106.4403252	1641
Wheat Ridge High School	9505 WEST 32ND AVE WHEAT RIDGE CO 80033 	39.763911	-105.10354	1642
Owings Mills High	124 TOLLGATE RD OWINGS MILLS MD 21117 	39.4233959	-76.794027	1643
Montclair High School	4725 BENITO ST MONTCLAIR CA 91763 	34.0736266	-117.7022657	1644
Redlands East Valley High School	31000 EAST COLTON AVE REDLANDS CA 92374 	34.0615362	-117.1292787	1645
John F. Kennedy Memorial High School	WASHINGTON AVE ISELIN NJ 08830 	40.5733043	-74.3067382	1646
Cleveland High School	3400 SE 26TH AVE PORTLAND OR 97202 	45.498497	-122.638589	1647
Montgomery Senior High School	3250 PALM AVE SAN DIEGO CA 92154 	32.5838773	-117.0627402	1648
Milwaukee School of Languages	8400 WEST BURLEIGH ST MILWAUKEE WI 53222 	43.076157	-88.0188	1649
Hewitt-​Trussville High School	5275 TRUSSVILLECLAY RD TRUSSVILLE AL 35173 	33.655558	-86.593195	1650
Seymour High School	300 STADIUM DR SEYMOUR TX 76380 	33.5924382	-99.247107	1651
Lakeview Technology Academy	9449 88TH AVE PLEASANT PRAIRIE WI 53158 	42.536444	-87.91215	1652
Waltham High School	617 LEXINGTON ST WALTHAM MA 02452 	42.3945453	-71.2319607	1653
Hood River Valley High School	1220 INDIAN CREEK RD HOOD RIVER OR 97031 	45.684921	-121.547054	1654
Columbiana High School	700 COLUMBIANA WATERFORD RD COLUMBIANA OH 44408 	40.8804675	-80.6824751	1655
Atascadero High School	1 HIGH SCHOOL HILL ATASCADERO CA 93422 	35.4818529	-120.6720718	1656
Perry High School	1919 EAST QUEEN CREEK RD GILBERT AZ 85296 	33.2630201	-111.7482408	1657
Early College High	2990 EAST MESA VERDE DR COSTA MESA CA 92626 	33.680624	-117.927832	1658
Technology Engineering & Communications	830 SW 116TH ST SEATTLE WA 98146 	47.4993211	-122.3448489	1659
El Paso High School	800 EAST SCHUSTER AVE EL PASO TX 79902 	31.7729722	-106.4916289	1660
Chugiak High School	16525 SOUTH BIRCHWOOD LOOP RD CHUGIAK AK 99567 	61.4117676	-149.4924825	1661
Carson High School	1111 NORTH SALIMAN CARSON CITY NV 89701 	39.1692735	-119.7477578	1662
John H. Pitman High School	2525 WEST CHRISTOFFERSON PARKW TURLOCK CA 95382 	37.5291268	-120.8765131	1663
Fuquay-​Varina High	201 BENGAL BLVD FUQUAY-VARIN NC 27526 	35.599922	-78.792503	1664
Barker High School	1628 QUAKER RD BARKER NY 14012 	43.334412	-78.55557	1665
Sullivan West High School at Lake Huntington	6604 STATEROUTE 52 LAKE HUNTINGTON NY 12752 	41.6744231	-74.9831544	1666
Sam Barlow High School	5105 SE 302ND AVE GRESHAM OR 97080 	45.4850325	-122.3530255	1667
Copley High School	3807 RIDGEWOOD RD COPLEY OH 44321 	41.112801	-81.649346	1668
Saint Stephens High	3205 34TH ST DR NE HICKORY NC 28601 	35.774616	-81.270472	1669
Rutherford High School	1000 SCHOOL AVE PANAMA CITY FL 32401 	30.165862	-85.614836	1670
Burges High School	7800 EDGEMERE WAY EL PASO TX 79925 	31.7855408	-106.384562	1671
Flowing Wells High School	3725 NORTH FLOWING WELLS RD TUCSON AZ 85705 	32.2746039	-110.997071	1672
Central Valley High School	821 SOUTH SULLIVAN RD VERADALE WA 99037 	47.649593	-117.192529	1673
Wrightstown High	600 HIGH ST WRIGHTSTOWN WI 54180 	44.317701	-88.155017	1674
Heber Springs High School	900 WEST PINE ST HEBER SPRINGS AR 72543 	35.495606	-92.0395806	1675
Animo Venice Charter High School	820 BROADWAY ST VENICE CA 90291 	33.9965079	-118.4629562	1676
Galileo Magnet High	230 SOUTH RIDGE ST DANVILLE VA 24541 	36.5848204	-79.39336	1677
Lakewood High	4400 BRIERCREST AVE LAKEWOOD CA 90713 	33.8384459	-118.1229773	1678
Northview High School	1016 WEST CYPRESS AVE COVINA CA 91722 	34.0938919	-117.911034	1679
Newnan High School	190 LAGRANGE ST NEWNAN GA 30263 	33.3638804	-84.8132046	1680
Fowler High	701 EAST MAIN ST FOWLER CA 93625 	36.6331193	-119.6727229	1681
Mariposa Co High	5074 OLD HWY MARIPOSA CA 95338 	37.488592	-119.963322	1682
Portsmouth High School	50 ANDREW JARVIS DR PORTSMOUTH NH 03801 	43.058787	-70.7686243	1683
Corona Del Sol High School	1001 EAST KNOX RD TEMPE AZ 85284 	33.325514	-111.925402	1684
Mendocino High	10700 FORD ST MENDOCINO CA 95460 	39.3102216	-123.80123	1685
Ithaca High School	710 NORTH UNION ST ITHACA MI 48847 	43.301026	-84.5975976	1686
Wando High	1000 WARRIOR WAY MT. PLEASANT SC 29466 	32.883459	-79.7607732	1687
Shasta High School	2500 EUREKA WAY REDDING CA 96001 	40.5886012	-122.4101995	1688
Caddo Parish Magnet High School	1601 VIKING DR SHREVEPORT LA 71101 	32.497177	-93.719356	1689
Southwest High	1331 PACKERLAND DR GREEN BAY WI 54304 	44.518939	-88.096757	1690
Glencoe High School	2700 NW GLENCOE RD HILLSBORO OR 97124 	45.542671	-122.992538	1691
Elmira High School	24936 FIR GROVE LN ELMIRA OR 97437 	44.0731918	-123.3603552	1692
Serrano High School	9292 SHEEP CREEK RD PHELAN CA 92329 	34.4133715	-117.5738766	1693
Chippewa High School	100 VALLEY VIEW RD DOYLESTOWN OH 44230 	40.960213	-81.690881	1694
Concord High School	10920 HEBER SPRINGS NORTH CONCORD AR 72523 	35.6634824	-91.8481544	1695
Georgetown High School	2211 NORTH AUSTIN AVE GEORGETOWN TX 78626 	30.6614882	-97.6678861	1696
Bridgeport High School	515 JOHNSON AVE BRIDGEPORT WV 26330 	39.2905422	-80.262484	1697
Westview Jr-​Sr High School	1635 SOUTH 600 WEST TOPEKA IN 46571 	41.6174014	-85.5397319	1698
South Spencer High School	1142 NORTH ORCHARD RD ROCKPORT IN 47635 	37.903339	-87.105706	1699
Twin Cities Academy High School	835 EAST 5TH ST ST. PAUL MN 55106 	44.9594703	-93.0651763	1700
Yucaipa High School	33000 YUCAIPA BLVD YUCAIPA CA 92399 	34.0348619	-117.085682	1701
Franklin High School	5405 SE WOODWARD ST PORTLAND OR 97206 	45.5018521	-122.6072624	1702
Saginaw Arts And Sciences Academy	200 CONGRESS AVE SAGINAW MI 48602 	43.431909	-83.9450261	1703
Science Hill High	1509 JOHN EXUM PW JOHNSON CITY TN 37601 	36.3412594	-82.3234843	1704
City Honors College Preparatory Charter	155 WEST KELSO AVE INGLEWOOD CA 90301 	33.9590658	-118.3562446	1705
Ada High School	435 GRAND AVE ADA OH 45810 	40.7747376	-83.8294826	1706
Centennial High School	3505 SE 182ND AVE GRESHAM OR 97030 	45.495932	-122.4836755	1707
Heritage High School	2400 GRANADE RD SW CONYERS GA 30094 	33.627276	-84.04671	1708
Nordonia High School	8006 SOUTH BEDFORD RD MACEDONIA OH 44056 	41.3031771	-81.5090852	1709
Miller High School -​ 01	623 EAST 4TH ST MILLER SD 57362 	44.5191623	-98.9805215	1710
Bay Shore Senior High School	155 3RD AVE BAY SHORE NY 11706 	40.731246	-73.253729	1711
Macomb Senior High School	1525 SOUTH JOHNSON ST MACOMB IL 61455 	40.4391696	-90.6760097	1712
Union Pines High	1981 UNION CHURCH RD CAMERON NC 28326 	35.317963	-79.347126	1713
Miami Springs Senior High School	751 DOVE AVE MIAMI SPRINGS FL 33166 	25.830689	-80.29506	1714
Randolph Uhs #2	15 FOREST ST RANDOLPH VT 05060 	43.9308509	-72.659904	1715
Lake View High School	4015 NORTH ASHLAND AVE CHICAGO IL 60613 	41.9546209	-87.6689706	1716
Maryville High School	825 LAWRENCE AV MARYVILLE TN 37803 	35.7475463	-83.9777649	1717
St. Joseph High School	2521 STADIUM DR SAINT JOSEPH MI 49085 	42.089441	-86.492801	1718
Riverdale High School	3086 WEST MT. WHITNEY AVE RIVERDALE CA 93656 	36.430875	-119.8550148	1719
Socastee High	4900 SOCASTEE BLVD MYRTLE BEACH SC 29588 	33.685151	-78.996391	1720
Riverbank High	6200 CLAUS RD RIVERBANK CA 95367 	37.7308939	-120.9206069	1721
High School For Law Advocacy And Community Justic	122 AMSTERDAM AVE NEW YORK NY 10023 	40.7748238	-73.9847013	1722
Ishpeming High School	319 EAST DIVISION ST ISHPEMING MI 49849 	46.4885645	-87.6662596	1723
Mountain Ridge High School	22800 NORTH 67TH AVE GLENDALE AZ 85310 	33.690797	-112.20533	1724
West Salem High School	1776 TITAN WAY SALEM OR 97304 	44.9573902	-123.0867872	1725
Lincoln High School	6844 ALEXANDRIA  PLACE STOCKTON CA 95207 	38.0095673	-121.3391539	1726
Hialeah Gardens Senior High School	11700 HIALEAH GARDENS BLVD HIALEAH GARDENS FL 33018 	25.8791579	-80.3528874	1727
East Early Coll	220 NORTH MILBY ST HOUSTON TX 77003 	29.751907	-95.3341221	1728
SABIS International Charter School	160 JOAN ST SPRINGFIELD MA 01129 	42.127138	-72.484518	1729
Cedar City High	703 WEST 600 SOUTH CEDAR CITY UT 84720 	37.6662566	-113.0718187	1730
John W. North High School	1550 WEST THIRD ST RIVERSIDE CA 92507 	33.9828027	-117.3454205	1731
Munising High And Middle School	810 EAST STATE HWY M28 MUNISING MI 49862 	46.3129058	-86.7180603	1732
William H. Turner Technical Arts High School	10151 NW 19TH AVE MIAMI FL 33147 	25.8670881	-80.2301788	1733
Winfield High School	232 PIRATE COVE WINFIELD AL 35594 	33.9415862	-87.8209348	1734
Garden Valley School	1076 BANKS LOWMAN RD GARDEN VALLEY ID 83622 	44.0738495	-115.9444527	1735
East Troy High	3128 GRAYDON AVE EAST TROY WI 53120 	42.7865119	-88.4180648	1736
Gilroy High School	750 WEST TENTH ST GILROY CA 95020 	36.996352	-121.575271	1737
Springboro High School	1675 SOUTH MAIN ST SPRINGBORO OH 45066 	39.5383467	-84.2348743	1738
Cooperative Arts and Humanities High School	177 COLLEGE ST NEW HAVEN CT 06511 	41.305639	-72.9298677	1739
Fort Bragg High School	300 DANA ST FORT BRAGG CA 95437 	39.4373901	-123.7871525	1740
Bayside High School	3224 CORP KENNEDY ST BAYSIDE NY 11361 	40.7651556	-73.7768489	1741
Woodruff High	710 CROSS ANCHOR HWY WOODRUFF SC 29388 			1742
Poland Seminary High School	3199 DOBBINS RD POLAND OH 44514 	41.003754	-80.592533	1743
Spartanburg Sr High	500 DUPRE DR SPARTANBURG SC 29307 	34.9552085	-81.898591	1744
Calumet High School	57070 MINE ST CALUMET MI 49913 	47.2434666	-88.4479893	1745
Ankeny High School	1302 NORTH ANKENY BLVD ANKENY IA 50023 	41.7416666	-93.6020565	1746
Bright Star Secondary Charter Academy	5431 WEST 98TH ST LOS ANGELES CA 90045 	33.948341	-118.37601	1747
Sylvania Northview High School	5403 SILICA DR SYLVANIA OH 43560 	41.712638	-83.710874	1748
Trinidad Garza	4849 ILLINOIS AVE DALLAS TX 75211 	32.7266269	-96.9027657	1749
Oak Grove High School	5198 OLD HWY11 HATTIESBURG MS 39402 	31.3101701	-89.4044352	1750
Burns High	307 EAST STAGECOACH TRAIL LAWNDALE NC 28090 	35.421714	-81.536215	1751
Alisal High	777 WILLIAMS RD SALINAS CA 93905 	36.6846868	-121.6020867	1752
Buckeye Valley Local High School	901 COOVER RD DELAWARE OH 43015 	40.348691	-83.091603	1753
Cordova Jr/​Sr High School	100 FISHERMAN AVE CORDOVA AK 99574 	60.5407669	-145.7596907	1754
North Stafford High	839 GARRISONVILLE RD STAFFORD VA 22556 	38.4662719	-77.4576249	1755
Ligonier Valley Senior High School	40 SPRINGER RD LIGONIER PA 15658 	40.253458	-79.243331	1756
Prairie Du Chien High	800 EAST CRAWFORD ST PRAIRIE DU CHIEN WI 53821 	43.0422202	-91.140392	1757
Chippewa Falls High	735 TERRILL ST CHIPPEWA FALLS WI 54729 	44.9367157	-91.4127887	1758
New Dimensions High School	4900 PLEASANT HILL RD KISSIMMEE FL 34759 	28.1378803	-81.4482628	1759
Snow Hill High	305 SOUTH CHURCH ST SNOW HILL MD 21863 	38.1713047	-75.392807	1760
River City High School	1 RAIDER LN WEST SACRAMENTO CA 95691 	38.5804609	-121.530234	1761
Clear Lake High	1101 3RD ST SW CLEAR LAKE WI 54005 	45.2380657	-92.2706038	1762
Pleasant Valley High School	604 BELMONT RD BETTENDORF IA 52722 	41.5535763	-90.4681489	1763
Clovis East High	2940 LEONARD AVE CLOVIS CA 93611 	36.7985047	-119.6422956	1764
Fluvanna County High	3717 CENTRAL PLAINS RD PALMYRA VA 22963 	37.8234364	-78.2751979	1765
Clear Spring High	12630 BROADFORDING RD CLEAR SPRING MD 21722 	39.657594	-77.93704	1766
Covina High School	463 SOUTH HOLLENBECK AVE COVINA CA 91723 	34.08091	-117.900083	1767
Spotswood High	368 BLAZER DR PENN LAIRD VA 22846 	38.3753811	-78.7630769	1768
Westminster High	14325 GOLDENWEST ST WESTMINSTER CA 92683 	33.7536569	-118.009329	1769
Alexander Hamilton High School	98 SOUTH GOODWIN AVE ELMSFORD NY 10523 	41.050068	-73.817385	1770
Hancock Middle Senior High	289 WEST MAIN ST HANCOCK MD 21750 	39.69718	-78.196762	1771
Ellington School of the Arts	3500 R ST NW WASHINGTON DC 20007 	38.9134539	-77.070384	1772
Navarre High School	8600 HIGH SCHOOL BLVD NAVARRE FL 32566 	30.423628	-86.860283	1773
Flagstaff High School	400 WEST ELM ST FLAGSTAFF AZ 86001 	35.205348	-111.650743	1774
Sunnyslope High School	35 WEST DUNLAP PHOENIX AZ 85021 	33.5676676	-112.0757342	1775
Elgin High School	1200 MAROON DR ELGIN IL 60120 	42.0252364	-88.2463357	1776
East Ridge High School	4200 PIONEER DR WOODBURY MN 55129 	44.8894905	-92.9273415	1777
Glenvar High	4549 MALUS DR SALEM VA 24153 	37.279127	-80.1380661	1778
Minnewaska Secondary	25122 STATE HWY 28 GLENWOOD MN 56334 	45.6248403	-95.4548666	1779
Craig High School	100 PANTHER WAY CRAIG AK 99921 	55.488553	-133.1287469	1780
Higher Ground Academy	1381 MARSHALL AVE ST PAUL MN 55104 	44.949017	-93.158855	1781
Celina High School	3455 NORTH PRESTON RD CELINA TX 75009 	33.3813529	-96.7792539	1782
Esperanza Academy Charter High School	301 WEST HUNTING PARK AVE PHILADELPHIA PA 19140 	40.0147109	-75.1323399	1783
Lisle High School	1800 SHORT ST LISLE IL 60532 	41.792441	-88.079624	1784
Greater Hartford Academy of  the Arts -​ Full Time	15 VERNON ST HARTFORD CT 06106 	41.751243	-72.6840131	1785
Orestimba High	707 HARDIN RD NEWMAN CA 95360 	37.3218794	-121.0321657	1786
Scranton High School	103 NORTH TENTH ST SCRANTON AR 72863 	35.3599567	-93.5415784	1787
Piedra Vista High	5700 COLLEGE BLVD FARMINGTON NM 87402 	36.778801	-108.159509	1788
North Dorchester High School	5875 CLOVERDALE RD HURLOCK MD 21643 	38.5838686	-75.8779433	1789
Liberty High School	21945 NW WAGON WAY HILLSBORO OR 97214 	45.5611418	-122.9026787	1790
Dawson-​Bryant High School	1 HORNET LN COAL GROVE OH 45638 	38.5016506	-82.6442875	1791
El Diamante High	5100 WEST WHITENDALE AVE VISALIA CA 93277 	36.3055133	-119.3469395	1792
Hilliard Bradley High School	2800 WALKER RD HILLIARD OH 43026 	40.007399	-83.2004	1793
Dover High School	100 GRACE ST DOVER NJ 07801 	40.8973092	-74.5621378	1794
Warren High School	8141 DE PALMA ST DOWNEY CA 90241 	33.936179	-118.140202	1795
Mason High School	1105 WEST COLLEGE AVE MASON TX 76856 	30.7439864	-99.2365186	1796
Western High School	501 SOUTH WESTERN AVE ANAHEIM CA 92804 	33.8253629	-118.0022316	1797
Elsinore High	21800 CANYON DR WILDOMAR CA 92595 	33.6233085	-117.2789224	1798
Paw Paw High School	30609 EAST RED ARROW HWY PAW PAW MI 49079 	42.2245631	-85.8492324	1799
Big Bear High School	351 MAPLE LN BIG BEAR CITY CA 92314 	34.2558939	-116.8239163	1800
Monache High School	960 NORTH NEWCOMB ST PORTERVILLE CA 93257 	36.0832517	-119.0528124	1801
Center Line High School	26300 ARSENAL CENTER LINE MI 48015 	42.487139	-83.018776	1802
Palm Springs High School	2401 EAST BARISTO RD PALM SPRINGS CA 92262 	33.8195597	-116.5208255	1803
Eximius College Preparatory Academy	1363 FULTON AVE BRONX NY 10456 	40.833875	-73.902818	1804
Nipomo High School	525 NORTH THOMPSON RD NIPOMO CA 93444 	35.048214	-120.487749	1805
North Collins Junior-​Senior High School	2045 SCHOOL ST NORTH COLLINS NY 14111 	42.5985989	-78.9389542	1806
Rio Grande City High School	144 FM 3167 RIO GRANDE CITY TX 78582 	26.5547344	-98.8756383	1807
Wilkes Central High	1179 MORAVIAN FALLS RD WILKESBORO NC 28697 	36.1162296	-81.1759559	1808
The Springfield Renaissance School	1170 CAREW ST SPRINGFIELD MA 01104 	42.133127	-72.574489	1809
Ethan High School	320 SOUTH 2ND ST ETHAN SD 57334 	43.5451355	-97.9852997	1810
Ventura High School	2 NORTH CATALINA ST VENTURA CA 93001 	34.2777665	-119.2689544	1811
Plymouth High School	810 NORTH RANDOLPH ST PLYMOUTH IN 46563 	41.3469969	-86.3046344	1812
Johnston Senior High School	6501 NW 62ND AVE JOHNSTON IA 50131 	41.6730193	-93.707181	1813
Hastings High School	520 WEST SOUTH ST HASTINGS MI 49058 	42.6395366	-85.2938464	1814
Brazoswood High School	302 WEST BRAZOSWOOD DR CLUTE TX 77531 	29.0256188	-95.4101516	1815
South Gwinnett High School	2288 MAIN ST EAST SNELLVILLE GA 30078 	33.8565093	-83.998749	1816
Sheldon High School	2455 WILLAKENZIE RD EUGENE OR 97401 	44.081751	-123.073162	1817
Duarte High School	1565 EAST CENTRAL AVE DUARTE CA 91010 	34.1372385	-117.9713135	1818
Desert Vista High School	16440 SOUTH 32ND ST PHOENIX AZ 85048 	33.2958753	-112.0146963	1819
South Seneca High School	7263 SOUTH MAIN ST OVID NY 14521 	42.671762	-76.820795	1820
Riverside High School	301 MIDWAY DR EL PASO TX 79915 	31.73405	-106.369976	1821
Weatherford High School	1500 NORTH WASHINGTON WEATHERFORD OK 73096 	35.5412498	-98.6941514	1822
St. Petersburg High School	2501 5TH AVE NORTH ST PETERSBURG FL 33713 	27.7779616	-82.6682151	1823
Foster High School	4400 FM 723 RICHMOND TX 77406 	29.6254374	-95.8115537	1824
Summit High	15551 SUMMIT AVE FONTANA CA 92336 	34.1488873	-117.4646488	1825
Bullard High	5445 NORTH PALM AVE FRESNO CA 93704 	36.8177592	-119.8084436	1826
Southmont Sr High School	6425 US 231 SOUTH CRAWFORDSVILLE IN 47933 	39.94753	-86.9055342	1827
Sherwood High School	16956 SW MEINECKE RD SHERWOOD OR 97140 	45.3565797	-122.8506688	1828
Carver High School Engineering & Science	1600 WEST NORRIS ST PHILADELPHIA PA 19121 	39.983465	-75.161094	1829
Girard Academic Music Program	23RD AND RITNER STS PHILADELPHIA PA 19145 	39.9225149	-75.1852149	1830
Cesar E. Chavez High School	800 BROWNING RD DELANO CA 93215 	35.765026	-119.2231541	1831
Sentinel High School	901 SOUTH AVE WEST MISSOULA MT 59801 	46.846372	-114.01037	1832
Plainview High School	1140 SOUTH PLAINVIEW RD ARDMORE OK 73401 	34.1572727	-97.1778917	1833
Parkland High School	2700 NORTH CEDAR CREST BLVD ALLENTOWN PA 18104 	40.638605	-75.547931	1834
Osborne High School	2451 FAVOR RD SW MARIETTA GA 30060 	33.8914744	-84.5657108	1835
Orange High	500 ORANGE HIGH RD HILLSBOROUGH NC 27278 	36.0922909	-79.0930349	1836
Dove Science Academy (Tulsa)	280 S.MEMORIAL DR TULSA OK 74112 	36.155825	-95.887355	1837
Loyalton High	700 FOURTH ST LOYALTON CA 96118 	39.679925	-120.244566	1838
Del Valle High School	950 BORDEAUX DR EL PASO TX 79907 	31.692379	-106.297425	1839
Highland High School	4301 EAST GUADALUPE RD GILBERT AZ 85234 	33.3644866	-111.6981	1840
Olympic -​ Biotech Health Publi	4301 SANDY PORTER ST CHARLOTTE NC 28205 	35.157963	-80.952376	1841
Hoosick Falls Junior/​Senior High School	21187 NYROUTE 22 HOOSICK FALLS NY 12090 	42.8363431	-73.3353161	1842
Rising Sun High	100 TIGER DR NORTH EAST MD 21901 	39.692776	-75.972348	1843
El Rancho High	6501 SOUTH PASSONS BLVD PICO RIVERA CA 90660 	33.9836496	-118.0873068	1844
Smoky Mountain High	100 SMOKY MOUNTAIN DR SYLVA NC 28779 	35.3938421	-83.1994022	1845
Denison High School	1901 SOUTH MIRICK AVE DENISON TX 75020 	33.736839	-96.543962	1846
Bassett Senior High	755 ARDILLA AVE LA PUENTE CA 91746 	34.051432	-117.9763861	1847
Sharyland High School	1106 NORTH SHARY RD MISSION TX 78572 	26.2136425	-98.2853813	1848
Edinburgh Community High Sch	300 SOUTH KEELEY ST EDINBURGH IN 46124 	39.3522774	-85.9697111	1849
Northside High School	926 GREEN ST WARNER ROBINS GA 31093 	32.627798	-83.629806	1850
Baltimore City College	3220 THE ALAMEDA BALTIMORE MD 21218 	39.326019	-76.59708	1851
Dennis-​Yarmouth Regional High School	210 STATION AVE SOUTH YARMOUTH MA 02664 	41.677975	-70.193636	1852
John Marshall Senior High	1510 14TH ST NW ROCHESTER MN 55901 	44.0341669	-92.484137	1853
Elk Grove High	9800 ELK GROVEFLORIN RD ELK GROVE CA 95624 	38.4016911	-121.3715055	1854
Livingston High School	1617 MAIN ST LIVINGSTON CA 95334 	37.3754022	-120.7234038	1855
Southridge High School	9625 SW 125TH AVE BEAVERTON OR 97008 	45.4501075	-122.8073139	1856
Achievable Dream Middle/​High	5720 MARSHALL AVE NEWPORT NEWS VA 23605 	37.0033568	-76.4278576	1857
King College Prep High School	4445 SOUTH DREXEL BLVD CHICAGO IL 60653 	41.8134025	-87.6037607	1858
Perham Senior High	200 5TH ST SE PERHAM MN 56573 	46.5903348	-95.5755077	1859
John Stark Regional High Sch	618 NORTH STARK HWY WEARE NH 03281 	43.1277892	-71.7610096	1860
Paloma Valley High School	31375 BRADLEY RD MENIFEE CA 92584 	33.664909	-117.1900672	1861
Franklin Central High School	6215 SOUTH FRANKLIN RD INDIANAPOLIS IN 46259 	39.676135	-86.011507	1862
Ramona High School	7675 MAGNOLIA AVE RIVERSIDE CA 92504 	33.9405635	-117.4131058	1863
Belton High School	600 LAKE RD BELTON TX 76513 	31.087205	-97.472575	1864
Van Vleck High School	133 SOUTH 4TH ST VAN VLECK TX 77482 	29.0134903	-95.8844778	1865
Jersey Village	7600 SOLOMON ST HOUSTON TX 77040 	29.881908	-95.553744	1866
Kerman High School	205 SOUTH FIRST ST KERMAN CA 93630 	36.7319378	-120.0648537	1867
Oakfield-​Alabama Middle School High School	7001 LEWISTON RD OAKFIELD NY 14125 	43.075249	-78.27836	1868
Whiteland Community High School	300 MAIN ST WHITELAND IN 46184 	39.551259	-86.084104	1869
Silver Creek High School	1 DICKINSON ST SILVER CREEK NY 14136 	42.5340158	-79.1621711	1870
Beaumont Senior High School	39139 CHERRY VALLEY BLVD BEAUMONT CA 92223 	33.9653009	-116.979506	1871
Pella High School	212 EAST UNIVERSITY ST PELLA IA 50219 	41.4002085	-92.9027731	1872
Webb City High	621 NORTH MADISON WEBB CITY MO 64870 	37.1516973	-94.4742893	1873
South San Francisco High	400 B ST SOUTH SAN FRANCISCO CA 94080 	37.6488596	-122.4245789	1874
Kearny Digital Media & Design	7651 WELLINGTON WAY SAN DIEGO CA 92111 	32.8010577	-117.1596826	1875
McEachern High School	2400 NEW MACLAND RD POWDER SPRINGS GA 30127 	33.8959818	-84.6762639	1876
Bassett High	85 RIVERSIDE DR BASSETT VA 24055 	36.7482627	-79.9762925	1877
Upland High School	565 WEST 11TH ST UPLAND CA 91786 	34.1041059	-117.6602536	1878
Williams Field High School	2076 SOUTH HIGLEY RD HIGLEY AZ 85236 	33.3142929	-111.7221136	1879
Cienega High School	12775 EAST MARY ANN CLEVELAND VAIL AZ 85641 	32.0574081	-110.7219516	1880
South Ridge High School	1122 SOUTH 67TH AVE PHOENIX AZ 85043 	33.4385628	-112.204477	1881
Yukon High School	1000 YUKON AVE YUKON OK 73099 	35.5006595	-97.7589011	1882
Lake High School	1025 LAKE CENTER ST NW UNIONTOWN OH 44685 	40.958418	-81.3584072	1883
Delta High	52810 NETHERLANDS AVE CLARKSBURG CA 95612 	38.4163669	-121.5279793	1884
Platteville High	710 EAST MADISON ST PLATTEVILLE WI 53818 	42.7402871	-90.466905	1885
Jamestown High School	350 EAST 2ND ST JAMESTOWN NY 14701 	42.095346	-79.236666	1886
Schurr High School	820 NORTH WILCOX AVE MONTEBELLO CA 90640 	34.0269251	-118.1239863	1887
In Tech Academy (Ms/​Hs 368)	2975 TIBBETTS AVE BRONX NY 10463 	40.8795978	-73.9096171	1888
Mt. Vernon/​Enola High School	38 GARLAND SPRINGS RD MT VERNON AR 72111 	35.22441	-92.132159	1889
High School For Health Professions & Human Service	345 EAST 15TH ST NEW YORK NY 10003 	40.732417	-73.982768	1890
Santa Fe High School	10400 SOUTH ORR AND DAY RD SANTA FE SPRINGS CA 90670 	33.9401231	-118.0895362	1891
Graves County High School	1107 HOUSMAN ST MAYFIELD KY 42066 	36.7518748	-88.6448676	1892
Empire High School	10701 EAST MARYANN CLEVELAND W TUCSON AZ 85602 	32.088768	-110.763516	1893
Franklin D Roosevelt High School	5800 20TH AVE BROOKLYN NY 11204 	40.621284	-73.982587	1894
Revere High School	101 SCHOOL ST REVERE MA 02151 	42.412088	-71.008116	1895
Chula Vista Senior High School	820 FOURTH AVE CHULA VISTA CA 91911 	32.6217314	-117.0767982	1896
Mckinley Technology High School	151 T ST NE WASHINGTON DC 20002 	38.9155575	-77.0042764	1897
The Pinnacle Charter School High	1001 WEST 84TH ST FEDERAL HEIGHTS CO 80206 	39.850072	-104.99853	1898
Petal High	1145 HWY 42 EAST PETAL MS 39465 	31.3733681	-89.1189087	1899
Mayfair High School	6000 NORTH WOODRUFF AVE LAKEWOOD CA 90713 	33.863788	-118.113824	1900
Laton High	6449 DEWOODY LATON CA 93242 	36.4352929	-119.6827375	1901
Clovis High	1055 FOWLER AVE CLOVIS CA 93611 	36.8142121	-119.6817376	1902
Calallen High School	4001 WILDCAT DR CORPUS CHRISTI TX 78410 	27.85886	-97.6363	1903
Sacramento Charter High	2315 34TH ST SACRAMENTO CA 95817 	38.5561111	-121.4661514	1904
Kennett High School	409 EAGLES WAY NORTH CONWAY NH 03860 	44.0094226	-71.1029577	1905
Central City Value	221 NORTH WESTMORELAND AVE LOS ANGELES CA 90004 	34.075094	-118.288617	1906
California High	9800 SOUTH MILLS AVE WHITTIER CA 90604 	33.9443561	-118.0243204	1907
Gardner Edgerton High	425 NORTH WAVERLY GARDNER KS 66030 	38.817191	-94.945114	1908
Benton High School	211 BORDER ST BENTON AR 72015 	34.5624628	-92.5750806	1909
Decatur High School	110 CEDAR ST DECATUR MI 49045 	42.1117761	-85.9776196	1910
Bret Harte Union High School	364 MURPHYS GRADE RD ANGELS CAMP CA 95221 	38.07942	-120.552141	1911
Midland High School	1301 EASTLAWN DR MIDLAND MI 48642 	43.6194682	-84.2134999	1912
Elmwood Park High School	8201 WEST FULLERTON AVE ELMWOOD PARK IL 60707 	41.921698	-87.830352	1913
Girls High School	1400 WEST OLNEY AVE PHILADELPHIA PA 19141 	40.0390728	-75.1447967	1914
Greater Latrobe Senior High School	131 HIGH SCHOOL RD LATROBE PA 15650 	40.2776909	-79.3773098	1915
Williamsburg Jr-​Sr High School	810 WEST WALNUT WILLIAMSBURG IA 52361 	41.6629156	-92.0169023	1916
Professional & Technical High	501 SIMPSON RD KISSIMMEE FL 34744 	28.2939257	-81.3507957	1917
Eastern Hancock High Sch	10320 EAST 250 NORTH CHARLOTTESVILLE IN 46117 	39.8227834	-85.6113664	1918
Leakey School	429 HWY 83 NORTH LEAKEY TX 78873 	29.7185029	-99.7632916	1919
County Line High School	12092 WEST STATE HWY 22 BRANCH AR 72928 	35.3062833	-93.9451211	1920
Alvin High School	802 SOUTH JOHNSON ST ALVIN TX 77511 	29.4174727	-95.2531528	1921
Caruthers High	2580 WEST TAHOE AVE CARUTHERS CA 93609 	36.5382928	-119.8383244	1922
Viroqua High	100 BLACKHAWK DR VIROQUA WI 54665 	43.5583893	-90.8987911	1923
Martinsville High School	1360 EAST GRAY ST MARTINSVILLE IN 46151 	39.419674	-86.411796	1924
Chatt High Center for Creative Arts	1301 DALLAS RD CHATTANOOGA TN 37405 	35.079255	-85.304213	1925
Atwater High School	2201 FRUITLAND AVE ATWATER CA 95301 	37.364086	-120.615994	1926
Nimitz High School	100 WEST OAKDALE IRVING TX 75060 	32.7937192	-96.9465284	1927
Sanger High	1045 BETHEL AVE SANGER CA 93657 	36.7001475	-119.5754892	1928
Prairie Grove High School	500 COLE PRAIRIE GROVE AR 72753 	35.981099	-94.324679	1929
North Olmsted High School	5755 BURNS RD NORTH OLMSTED OH 44070 	41.408065	-81.924606	1930
Freedom High	511 INDEPENDENCE BLVD MORGANTON NC 28655 	35.743151	-81.719742	1931
Richwoods High School	6301 NORTH UNIVERSITY ST PEORIA IL 61614 	40.763271	-89.613827	1932
Pine City Secondary	1400 MAIN ST SOUTH PINE CITY MN 55063 	45.8123562	-92.9705008	1933
Northfield Middle/​High School	37 CROSS ST UNIT 2 AND 3 NORTHFIELD VT 05663 	44.153715	-72.661088	1934
Turkey Run High School	1551 EAST SR 47 MARSHALL IN 47859 	39.876897	-87.2118179	1935
Mcgregor High School	903 BLUEBONNET PARKWAY MCGREGOR TX 76657 	31.4280583	-97.3999121	1936
Francis Howell Central High	5199 HWY NORTH ST CHARLES MO 63304 	38.7520638	-90.6616196	1937
Enumclaw Sr High School	226 SEMANSKI ST SOUTH ENUMCLAW WA 98022 	47.1912363	-122.0062363	1938
Normandy High School	2500 WEST PLEASANT VALLEY RD PARMA OH 44134 	41.362837	-81.699186	1939
Escalon High	1528 EAST YOSEMITE AVE ESCALON CA 95320 	37.7968362	-120.9955802	1940
Pattonville Sr. High	2497 CREVE COEUR MILL RD MARYLAND HEIGHTS MO 63043 	38.740247	-90.453728	1941
Mt. Hope High School	199 CHESTNUT ST BRISTOL RI 02809 	41.687603	-71.269041	1942
Macarthur High School	3700 NORTH MAC ARTHUR BLVD IRVING TX 75062 	32.854202	-96.958664	1943
Lee'S Summit Sr. High	400 SE BLUE PARKWAY LEE'S SUMMIT MO 64063 	38.905721	-94.365686	1944
Texico High	520 NORTH GRIFFIN TEXICO NM 88135 	34.3930185	-103.05006	1945
Marysville Charter Academy For The Arts	1917 B ST MARYSVILLE CA 95901 	39.1564991	-121.5882921	1946
Oakmont High School	1710 CIRBY WAY ROSEVILLE CA 95661 	38.7289498	-121.2604446	1947
North Henderson High	35 FRUITLAND RD HENDERSONVIL NC 28792 	35.3604569	-82.424077	1948
Manvel High School	19601 HWY 6 MANVEL TX 77578 	29.4641771	-95.3472643	1949
Forest Park Jr-​Sr High Sch	1440 MICHIGAN ST FERDINAND IN 47532 	38.228591	-86.856484	1950
West Side High School	7295 GREERS FERRY RD GREERS FERRY AR 72067 	35.5775484	-92.1759655	1951
Franklin High School	1252 WEST FM 1644 FRANKLIN TX 77856 	31.0143123	-96.5234545	1952
Owego Free Academy	1 SHELDON GUILE BLVD OWEGO NY 13827 	42.1117292	-76.2724379	1953
High School For Teaching And The Professions	2780 RESEVOIR AVE BRONX NY 10468 	40.8708801	-73.8977529	1954
Lincoln High School	201 EAST SCHOOL ST LINCOLN AR 72744 	35.954396	-94.4219029	1955
Marengo High School	110 FRANKS RD MARENGO IL 60152 	42.243404	-88.587146	1956
Bismarck High School	11636 HWY 84 BISMARCK AR 71929 	34.316126	-93.1717982	1957
Mccrory High School	509 NORTH JACKSON ST MCCRORY AR 72101 	35.4065297	-91.088269	1958
Beaver High	195 EAST CENTER BEAVER UT 84713 	38.2742386	-112.6378606	1959
Western Boone Jr-​Sr High School	1205 NORTH SR 75 THORNTOWN IN 46071 	40.057381	-86.619751	1960
Jessieville High School	7900 NORTH HWY 7 JESSIEVILLE AR 71949 	34.7004331	-93.062773	1961
Buena High	5670 TELEGRAPH RD VENTURA CA 93003 	34.2774878	-119.2176305	1962
Waterville Senior High School	1 BROOKLYN AVE WATERVILLE ME 04901 	44.5507734	-69.6420888	1963
Skidmore-​Tynan	HWY 181 SKIDMORE TX 78389 	28.218794	-97.6482145	1964
Prosser Career Academy High School	2148 NORTH LONG AVE CHICAGO IL 60639 	41.920236	-87.7609555	1965
West Lincoln High	172 SHOAL RD LINCOLNTON NC 28092 	35.485337	-81.389974	1966
Granite Falls High School	1401 100TH ST NE GRANITE FALLS WA 98252 	48.0879673	-121.9871597	1967
Patapsco High & Center For Arts	8100 WISE AVE BALTIMORE MD 21222 	39.2648369	-76.4899216	1968
Wawasee High School	1 WARRIOR PATH BLDG 1 SYRACUSE IN 46567 	41.417771	-85.7588339	1969
Dale High School	300 SMITH AVE DALE OK 74851 	35.38668	-97.044314	1970
Craig County High	HWY 615 NEW CASTLE VA 24127 	37.5467006	-80.0574679	1971
Kiowa High School	525 COMANCHE ST KIOWA CO 80117 	39.3466446	-104.4610321	1972
Brevard High	747 COUNTRY CLUB RD BREVARD NC 28712 	35.2175625	-82.7354038	1973
Caledonia-​Mumford High School	99 NORTH ST CALEDONIA NY 14423 	42.983482	-77.853664	1974
Pilot Point High School	1300 NORTH WASHINGTON PILOT POINT TX 76258 	33.4091901	-96.9492486	1975
Wausaukee High	N11941 US HWY 141 WAUSAUKEE WI 54177 	45.3904674	-87.9634083	1976
Jasper High School	600 SCHOOL ST JASPER AR 72641 	35.1925641	-90.1943648	1977
School For Creat & Perf Arts High School	108 WEST CENTRAL PARKWAY CINCINNATI OH 45202 	39.1074157	-84.5168444	1978
Cypress Lakes H	5750 GREENHOUSE RD KATY TX 77449 	29.853239	-95.7050579	1979
Parker High	3125 MINERAL POINT AVE JANESVILLE WI 53548 	42.685984	-89.063416	1980
Blackman High School	3956 BLAZE DR MURFREESBORO TN 37128 	35.859039	-86.474445	1981
Southridge High School	3320 SOUTH UNION LOOP KENNEWICK WA 99338 	46.1792081	-119.1949549	1982
Winslow High School	20 DANIELSON ST WINSLOW ME 04901 	44.551704	-69.616962	1983
Brawley High	480 NORTH IMPERIAL AVE BRAWLEY CA 92227 	32.9828415	-115.5349341	1984
North Port High School	6400 WEST PRICE BLVD NORTH PORT FL 34286 	27.053707	-82.0897557	1985
Morro Bay High School	235 ATASCADERO RD MORRO BAY CA 93442 	35.3824657	-120.8588171	1986
Tippecanoe High School	615 EAST KESSLER COWLESVILLE R TIPP CITY OH 45371 	39.9830183	-84.1890285	1987
Colfax High	24995 BEN TAYLOR RD COLFAX CA 95713 	39.107328	-120.965271	1988
Mountain View Senior High School	2755 NE 27TH ST BEND OR 97701 	44.0767499	-121.266172	1989
Lodi High	3 PACIFIC AVE LODI CA 95242 	38.1341613	-121.290491	1990
Fordson High School	13800 FORD RD DEARBORN MI 48126 	42.3295521	-83.1786924	1991
Sault Area High School	904 MARQUETTE AVE SAULT SAINTE MARIE MI 49783 	46.4808582	-84.3394939	1992
Parkville High & Center For Math/​Science	2600 PUTTY HILL AVE BALTIMORE MD 21234 	39.387551	-76.538707	1993
Murphy High School	100 SOUTH CARLEN ST MOBILE AL 36606 	30.6830966	-88.0847545	1994
Bixby High School	601 SOUTH RIVERVIEW DR BIXBY OK 74008 	35.934935	-95.874322	1995
Goshen High School	401 LINCOLNWAY EAST GOSHEN IN 46526 	41.580942	-85.822599	1996
Bedford Academy High School	1119 BEDFORD AVE BROOKLYN NY 11217 	40.685361	-73.954213	1997
Peter Johansen High	641 NORSEMAN DR MODESTO CA 95357 	37.6491399	-120.9193819	1998
Paris High School	2000 EAST WOOD ST PARIS AR 72855 	35.2993685	-93.703981	1999
Mastery Charter School -​ Thomas Campus	927 JOHNSTON ST PHILADELPHIA PA 19148 	39.9144501	-75.1634165	2000
Hemet High School	41701 STETSON AVE HEMET CA 92544 	33.7288552	-116.9337577	2001
Cusick Jr Sr High School	305 MONUMENTAL WAY CUSICK WA 99119 	48.3372485	-117.2970959	2002
Penn Trafford High School	3381 ROUTE 130 HARRISON CITY PA 15636 	40.354178	-79.655614	2003
Northview High School	4451 HUNSBERGER AVE NE GRAND RAPIDS MI 49525 	43.0437012	-85.6194792	2004
Rio Rico High School	590 NORTH CAMINO GALINDO RIO RICO AZ 85648 	31.5048133	-111.018708	2005
Liberal Sr High	1611 WEST 2ND LIBERAL KS 67901 	37.0396821	-100.9419837	2006
New Philadelphia High School	343 RAY AVE NW NEW PHILADELPHIA OH 44663 	40.494221	-81.449475	2007
Eastern Alamance High	4040 MEBANE ROGERS MEBANE NC 27302 	36.1135792	-79.3039539	2008
Polaris K-​12 School	6200 ASHWOOD ST ANCHORAGE AK 99507 	61.164612	-149.853937	2009
Okarche High School	205 NORTH 4TH OKARCHE OK 73762 	35.7270268	-97.9782867	2010
Watervliet Senior High School	450 EAST SAINT JOSEPH ST WATERVLIET MI 49098 	42.1879202	-86.2536786	2011
Paradise Senior High	5911 MAXWELL DR PARADISE CA 95969 	39.7619291	-121.61242	2012
James Madison High School	3787 BEDFORD AVE BROOKLYN NY 11229 	40.609847	-73.9482073	2013
Logan High	1500 RANGER DR LA CROSSE WI 54603 	43.8456895	-91.2320797	2014
Mt Abram Regional High School	1513 SALEM RD SALEM ME 04983 	44.909769	-70.2396195	2015
Southeastern  Sr. High School	195 EAST JAMESTOWN ST SOUTH CHARLESTON OH 45368 	39.8252	-83.632226	2016
James C. Enochs High	3201 SYLVAN AVE MODESTO CA 95355 	37.6891778	-120.9349125	2017
Powhatan High	1800 JUDES FERRY RD POWHATAN VA 23139 	37.5206527	-77.8001225	2018
Delton-​Kellogg High School	10425 PANTHER PRIDE DELTON MI 49046 	42.5019663	-85.4152767	2019
Lee High School	1400 JACKSON KELLER RD SAN ANTONIO TX 78213 	29.506417	-98.515554	2020
Grantsburg High	480 EAST JAMES AVE GRANTSBURG WI 54840 	45.7746055	-92.6732228	2021
Shenango Area Junior Senior High School	2550 ELLWOOD RD NEW CASTLE PA 16101 	40.9713329	-80.3138294	2022
Webster Groves High	100 SELMA AVE ST LOUIS MO 63119 	38.58985	-90.3480674	2023
Pelham Preparatory Academy	925 ASTOR AVE BRONX NY 10469 	40.85964	-73.8607428	2024
Hutchinson Central Technical High School	256 SOUTH ELMWOOD AVE BUFFALO NY 14201 	42.8919874	-78.8779974	2025
Saunders Trades & Technical High School	183 PALMER RD YONKERS NY 10701 	40.94254	-73.8700568	2026
Sioux Central High	4440 U.S. HWY 71 SIOUX RAPIDS IA 50585 	42.8717032	-95.1510417	2027
Kings Mountain High	500 PHIFER RD KINGS MOUNTA NC 28086 	35.233132	-81.372212	2028
Anthony Wayne High School	5967 FINZEL RD WHITEHOUSE OH 43571 	41.5325032	-83.7797374	2029
Lufkin High School	309 MEDFORD DR LUFKIN TX 75901 	31.3387512	-94.6908541	2030
Manchester Jr-​Sr High School	1 SQUIRE DR N MANCHESTER IN 46962 	43.2062151	-73.0582598	2031
Tulare Union High	755 EAST TULARE AVE TULARE CA 93274 	36.2089311	-119.3388157	2032
Columbia Central High School	11775 HEWITT RD BROOKLYN MI 49230 	42.09175	-84.281446	2033
Vergennes Union High School	50 MONKTON RD VERGENNES VT 05491 	44.170219	-73.242821	2034
Shadle Park High School	4327 NORTH ASH ST SPOKANE WA 99205 	47.698935	-117.437168	2035
Aldine High School	11101 AIRLINE DR HOUSTON TX 77037 	29.9161543	-95.4055126	2036
Cleburne County High School	520 EVANS BRIDGE RD HEFLIN AL 36264 	33.6495809	-85.5710839	2037
Greenwood High	306 WEST CENTRAL AVE GREENWOOD WI 54437 	44.7649688	-90.5997352	2038
Republic Senior High School	30306 HWY 20 EAST REPUBLIC WA 99166 	48.6500879	-118.7131846	2039
Foresthill High	23319 FORESTHILL RD FORESTHILL CA 95631 	39.0145037	-120.8375257	2040
Galesburg High School	1135 WEST FREMONT ST GALESBURG IL 61401 	40.9625386	-90.3884689	2041
North Monterey Co High	13990 CASTROVILLE BLVD CASTROVILLE CA 95012 	36.7963928	-121.7247101	2042
Fairmont High	900 JOHNSON ST FAIRMONT MN 56031 	43.6376157	-94.4482484	2043
Casa Grande Union High School	2730 NORTH TREKELL RD CASA GRANDE AZ 85222 	32.9050774	-111.7400245	2044
La Quinta High School	79255 WESTWARD HO DR LA QUINTA CA 92253 	33.7141	-116.2793966	2045
Clint High School	12625 ALAMEDA AVE CLINT TX 79836 	31.5926878	-106.2374402	2046
De Kalb High School	1515 SOUTH 4TH ST DEKALB IL 60115 	41.9123935	-88.7550145	2047
Gainesville High School	830 CENTURY PLACE GAINESVILLE GA 30501 	34.304676	-83.845594	2048
Frontier High	6401 ALLEN RD BAKERSFIELD CA 93314 	35.3978256	-119.1456467	2049
Katella High	2200 EAST WAGNER AVE ANAHEIM CA 92806 	33.8248489	-117.885136	2050
Mentor High School	6477 CENTER ST MENTOR OH 44060 	41.6960519	-81.3374519	2051
Gregory-​Portlan	4601 WILDCAT DR PORTLAND TX 78374 	27.9022233	-97.3227035	2052
Martin Luther King Middle College	19535 EAST 46TH AVE DENVER CO 80249 	39.780845	-104.76109	2053
Boulder Creek High School	40404 NORTH GAVILAN PEAK PARKW ANTHEM AZ 85086 	33.8530251	-112.1398973	2054
Cushing School	1 BEARKAT DR CUSHING TX 75760 	31.8194926	-94.8366193	2055
Dr Susan S Mckinney Secondary School Of The Arts	101 PARK AVE BROOKLYN NY 11205 	40.6963522	-73.9759357	2056
Nikiski Middle/​Senior High School	52275 EDUCATION DR NIKISKI AK 99635 	60.735776	-151.293589	2057
Elizabethtown High School	620 NORTH MULBERRY ST ELIZABETHTOWN KY 42701 	37.7047497	-85.8524168	2058
Itineris Early College High	9301 SOUTH WIGHTS FORT RD WEST JORDAN UT 84088 	40.5849614	-111.97394	2059
Trimble Technic	1003 WEST CANNON ST FORT WORTH TX 76104 	32.735745	-97.336352	2060
Allatoona High School	3300 DALLAS ACWORTH HWY NW ACWORTH GA 30101 	34.0378484	-84.7363026	2061
Cathedral City High	69250 DINAH SHORE DR CATHEDRAL CITY CA 92234 	33.8015278	-116.4533813	2062
Pulaski High	1040 SOUTH SAINT AUGUSTINE ST PULASKI WI 54162 	44.6629075	-88.2427209	2063
West Henderson High	3600 HAYWOOD RD HENDERSONVIL NC 28791 	35.366202	-82.515126	2064
Indianola High School	1304 EAST 1ST INDIANOLA IA 50125 	41.3590926	-93.5451197	2065
West Geauga High School	13401 CHILLICOTHE RD CHESTERLAND OH 44026 	41.50293	-81.337346	2066
Wyoming Area Secondary Center	20 MEMORIAL ST EXETER PA 18643 	41.3236924	-75.809737	2067
Lincolnton High	803 NORTH ASPEN ST LINCOLNTON NC 28092 	35.47962	-81.260353	2068
Technology High School	187 BROADWAY NEWARK NJ 07102 	40.7579722	-74.1693456	2069
Etiwanda High	13500 VICTORIA AVE ETIWANDA CA 91739 	34.1283386	-117.5111235	2070
Batavia High School	260 STATE ST BATAVIA NY 14020 	43.0102323	-78.1815803	2071
Northeastern High School	7295 NORTH US 27 FOUNTAIN CITY IN 47341 	39.959979	-84.9190774	2072
Barbers Hill H	9600 EAGLE DR MONT BELVIEU TX 77580 	29.8417899	-94.8540632	2073
Marcus Whitman High School	4100 BALDWIN RD RUSHVILLE NY 14544 	42.7787714	-77.2191238	2074
Lordsburg High	501 WEST FOURTH ST LORDSBURG NM 88045 	32.3493151	-108.7144291	2075
University Senior High	11800 TEXAS AVE LOS ANGELES CA 90025 	34.045073	-118.459345	2076
Clear Lake High School	350 LANGE ST LAKEPORT CA 95453 	39.0592852	-122.9159972	2077
North Wood High School	2101 NORTH MAIN ST NAPPANEE IN 46550 			2078
Fort Scott Sr High	1005 SOUTH MAIN FORT SCOTT KS 66701 	37.8290714	-94.7061422	2079
Concord High School	170 WARREN ST CONCORD NH 03301 	43.200461	-71.550945	2080
Bayside High School	1901 DEGROODT RD SW PALM BAY FL 32908 	27.9510412	-80.6761972	2081
Centennial High	8601 HAGEMAN RD BAKERSFIELD CA 93312 	35.3986419	-119.0990532	2082
Patrick Henry High	31437 HILLMAN HWY GLADE SPRING VA 24340 	36.7752074	-81.8151613	2083
Memorial High School	5501 PARK AVE WEST NEW YORK NJ 07093 	40.783361	-74.012465	2084
Gilbert High School	103 MATHEWS DR GILBERT IA 50105 	42.1077547	-93.6358679	2085
Tawas Area High School	255 WEST M 55 TAWAS CITY MI 48763 	44.2792414	-83.5344412	2086
Norwich High School	49 MIDLAND DR NORWICH NY 13815 	42.5298342	-75.5147623	2087
Pelahatchie Attendance Center	213 BROOKS ST PELAHATCHIE MS 39145 	32.3155453	-89.7990903	2088
Coronado High School	1590 WEST FILLMORE ST COLORADO SPRINGS CO 80904 	38.872971	-104.85758	2089
Ephrata Senior High School	803 OAK BLVD EPHRATA PA 17522 	40.1800947	-76.1911565	2090
Moc-​Floyd Valley High School	615 8TH ST SE ORANGE CITY IA 51041 	42.9975313	-96.0502457	2091
Spalding High School	433 WILSON RD GRIFFIN GA 30224 	33.225879	-84.230968	2092
Clarksville High School	1703 CLARK RD CLARKSVILLE AR 72830 	35.4616825	-93.4844592	2093
Sussex Central Senior High School	26026 PATRIOTS WAY GEORGETOWN DE 19947 	38.627818	-75.326186	2094
Alta Loma High	8880 BASELINE RD ALTA LOMA CA 91701 	34.1222108	-117.6122746	2095
Maize Sr High	11600 WEST 45TH ST NORTH MAIZE KS 67101 	37.76946	-97.476461	2096
Hallsville High School	1 BOBCAT LN HALLSVILLE TX 75650 	32.4888887	-94.5724033	2097
Francis Howell North High	2549 HACKMANN RD ST CHARLES MO 63303 	38.762743	-90.559881	2098
The Celia Cruz Bronx High School of Music	2780 RESERVOIR AVE BRONX NY 10468 	40.8708801	-73.8977529	2099
Davison High School	1250 NORTH OAK RD DAVISON MI 48423 	43.0246543	-83.5035116	2100
Axtell High School	308 OTTAWA AXTELL TX 76624 	31.659452	-96.973193	2101
Cass Technical High School	2501 2ND AVE DETROIT MI 48201 	42.3372126	-83.0604902	2102
Auburndale High	10629 NORTH RD AUBURNDALE WI 54412 	44.632227	-90.006514	2103
Louisburg High	202 AQUATIC DR LOUISBURG KS 66053 	38.6195363	-94.6640031	2104
Thomas Jefferson High School	1243 20TH ST SW CEDAR RAPIDS IA 52404 	41.965818	-91.698704	2105
Siloam Springs High School	1500 WEST JEFFERSON SILOAM SPRINGS AR 72761 	36.180081	-94.5568119	2106
Unioto High School	14193 PLEASANT VALLEY RD CHILLICOTHE OH 45601 	39.3650974	-83.0141703	2107
Lake Weir High School	10351 SE MARICAMP RD OCALA FL 34472 	29.078562	-81.977758	2108
Greenport High School	720 FRONT ST GREENPORT NY 11944 			2109
Fred C. Beyer High School	1717 SYLVAN AVE MODESTO CA 95355 	37.6908546	-120.9664076	2110
Searcy High School	301 NORTH ELLA SEARCY AR 72143 	35.2508882	-91.7578171	2111
Renaissance High School For Musical Theater And Te	3000 EAST TREMONT AVE BRONX NY 10461 	40.839987	-73.837977	2112
Cookeville High School	2335 NORTH WASHINGTON AV COOKEVILLE TN 38501 	36.1921302	-85.4923203	2113
Hamburg High School	1119 SOUTH MAIN ST HAMBURG AR 71646 	33.208241	-91.7981123	2114
Hillsboro High	777 SCHOOL RD HILLSBORO WI 54634 	43.6540618	-90.3514587	2115
Louisiana School For Math Science & The	715 UNIVERSITY PARKWAY NATCHITOCHES LA 71457 	31.7528231	-93.0959399	2116
Greenville Junior/​Senior High	117 GRAND ST GREENVILLE CA 95947 	40.1395985	-120.9458371	2117
Star International Academy	24425 HASS ST DEARBORN HEIGHTS MI 48127 	42.332414	-83.279096	2118
Manistee High School	525 12TH ST MANISTEE MI 49660 	44.2341577	-86.3330476	2119
Roswell High	500 WEST HOBBS ST ROSWELL NM 88201 	33.3725025	-104.5278699	2120
Valley Senior High School	703 STEVENSON BLVD NEW KENSINGTON PA 15068 	40.5619059	-79.7553616	2121
Frederick Fraize High School	301 POPLAR ST CLOVERPORT KY 40111 	37.834529	-86.632654	2122
St Henry High School	391 EAST COLUMBUS ST SAINT HENRY OH 45883 	40.4158747	-84.6353054	2123
Deer High School	HWY 16 DEER AR 72628 	35.8347848	-93.300368	2124
East Dubuque High School	200 PARKLANE DR EAST DUBUQUE IL 61025 	42.4970641	-90.6259636	2125
Lomega High School	RT. 1  46 OMEGA OK 73764 	35.8700537	-98.1973432	2126
Lipan High School	211 NORTH KICKAPOO LIPAN TX 76462 	32.520788	-98.047391	2127
Southwest High	2001 OCOTILLO DR EL CENTRO CA 92243 	32.777355	-115.5795783	2128
Rialto High	595 SOUTH EUCALYPTUS AVE RIALTO CA 92376 	34.0909004	-117.3572202	2129
Canton High School	1110 WEST HWY 243 CANTON TX 75103 	32.5439032	-95.8863531	2130
Bellflower High	15301 SOUTH MCNAB AVE BELLFLOWER CA 90706 	33.892819	-118.114737	2131
Carnahan School of the Future	4041 SOUTH BROADWAY ST LOUIS MO 63118 	38.5809817	-90.2282731	2132
Farmersville High School	631 EAST WALNUT AVE FARMERSVILLE CA 93223 	36.3104961	-119.2003233	2133
Northern Garrett High School	86 PRIDE PARKWAY ACCIDENT MD 21520 	39.664732	-79.2974013	2134
Faribault Senior High	330 9TH AVE SW FARIBAULT MN 55021 	44.285343	-93.285017	2135
Pleasant Grove High School	9531 BOND RD ELK GROVE CA 95624 	38.427328	-121.3422049	2136
Gunter High School	1102 NORTH 8TH ST GUNTER TX 75058 	33.4566194	-96.7400229	2137
Fort Plain Junior-​Senior High School	1 WEST ST FORT PLAIN NY 13339 	42.9308029	-74.6295023	2138
Lawton Junior-​Senior High School	100 TARA WAY LAWTON IA 51030 	42.4790622	-96.1748002	2139
Glacier High School	375 WOLFPACK WAY KALISPELL MT 59901 	48.2386026	-114.3447418	2140
Hamilton High	57430 MITCHELL RD ANZA CA 92539 	33.5698326	-116.6598153	2141
Floresville High School	1813 TIGER LN FLORESVILLE TX 78114 	29.146815	-98.152405	2142
Springfield High School	11335 YOUNGSTOWN PITTSBURGH RD NEW MIDDLETOWN OH 44442 	40.955538	-80.546953	2143
Perry Central Jr-​Sr High School	18677 OLD SR 37 LEOPOLD IN 47551 	38.1113972	-86.602189	2144
Schley Middle High School	U.S. HWY 19 SOUTH ELLAVILLE GA 31806 	32.2428762	-84.3088558	2145
Forest Grove High School	1401 NICHOLS LN FOREST GROVE OR 97116 	45.5353763	-123.1207741	2146
Webster High	7564 ALDER ST WEST WEBSTER WI 54893 	45.874338	-92.3698101	2147
Olympia High School	7832 NORTH 100 EAST RD STANFORD IL 61774 	40.3956751	-89.2459961	2148
Pettisville High School	232 SUMMIT ST PETTISVILLE OH 43553 	41.5297685	-84.2267919	2149
Luverne Senior High	709 NORTH KNISS LUVERNE MN 56156 	43.660311	-96.2127341	2150
Nooksack Valley High School	3326 EAST BADGER RD EVERSON WA 98247 	48.964089	-122.307873	2151
Sahuaro High School	545 NORTH CAMINO SECO TUCSON AZ 85710 	32.226394	-110.809067	2152
Paramount High	14429 SOUTH DOWNEY AVE PARAMOUNT CA 90723 	33.9024257	-118.1515327	2153
Bad Axe High School	200 NORTH BARRIE RD BAD AXE MI 48413 	43.8108291	-83.021046	2154
Woodridge High School	4440 QUICK RD PENINSULA OH 44264 	41.192299	-81.5129709	2155
Sports & Med Science	275 ASYLUM ST HARTFORD CT 06103 	41.7674214	-72.678299	2156
Prescott High School	1050 NORTH RUTH ST PRESCOTT AZ 86301 	34.5609613	-112.4768126	2157
Sanderson High	5500 DIXON DR RALEIGH NC 27609 	35.861061	-78.646573	2158
Linden High	18527 EAST FRONT ST LINDEN CA 95236 	38.0212995	-121.0890428	2159
Eagle Valley High School	641 VALLEY RD GYPSUM CO 81637 	39.6441614	-106.9490855	2160
Sandra Day O'Connor High School	25250 NORTH 35TH AVE GLENDALE AZ 85310 	33.717254	-112.136518	2161
East Henderson High	110 OLD UPWARD RD EAST FLAT RO NC 28726 	35.297649	-82.423742	2162
Lancaster High School	1312 GRANVILLE PK LANCASTER OH 43130 	39.7320895	-82.5909252	2163
Wabasso Secondary	1333 MAY ST WABASSO MN 56293 	44.405072	-95.2554057	2164
Houlton High School	7 BIRD ST HOULTON ME 04730 	46.1282778	-67.8279413	2165
Oakridge High School	47997 WEST 1ST ST OAKRIDGE OR 97463 	43.7486356	-122.4688715	2166
Chicago Military Academy High School	3519 SOUTH GILES AVE CHICAGO IL 60653 	41.830361	-87.6191946	2167
Surry Central High	716 SOUTH MAIN ST DOBSON NC 27017 	36.381865	-80.714822	2168
Oakville Sr. High	5557 MILBURN RD ST LOUIS MO 63129 	38.472751	-90.322267	2169
Amarillo High School	4225 DANBURY AMARILLO TX 79109 	35.166223	-101.904421	2170
West Jefferson High School	1 ROUGHRIDER DR WEST JEFFERSON OH 43162 	39.932832	-83.275735	2171
Robert L. Patton High School	701 ENOLA RD MORGANTON NC 28655 	35.701655	-81.669386	2172
Francis Howell High	7001 HWY 94 SOUTH ST CHARLES MO 63304 	38.7012091	-90.7138251	2173
Foothill High	9733 DESCHUTES RD PALO CEDRO CA 96073 	40.569075	-122.232377	2174
Gaylord High School/​Voc. Bldg.	90 LIVINGSTON BLVD GAYLORD MI 49735 	45.0459523	-84.668883	2175
Caro High School	301 NORTH HOOPER ST CARO MI 48723 	43.4919335	-83.4070964	2176
William J. (Pete) Knight High	37423 70TH ST EAST PALMDALE CA 93552 	34.564208	-118.005459	2177
East Rowan High	175 ST LUKE'S CHURCH RD SALISBURY NC 28146 	35.594123	-80.423806	2178
Macarthur High School	4400 ALDINE MAILROUTE HOUSTON TX 77039 	29.9024485	-95.3287328	2179
Fruitland High School	501 IOWA AVE FRUITLAND ID 83619 	44.0059982	-116.9183076	2180
North Crawford High	47050 COUNTY RD X SOLDIERS GROVE WI 54655 	43.358132	-90.8060013	2181
Belle Plaine Jr/​Sr High School	610 13TH AVE SOUTH BELLE PLAINE IA 52208 	41.888927	-92.270923	2182
Brookville High	100 LAXTON RD LYNCHBURG VA 24502 	37.3465404	-79.2351706	2183
Brookville Junior Senior High School	96 JENKS ST BROOKVILLE PA 15825 	41.17355	-79.087269	2184
Jenkintown Middle/​High School	WEST AND HIGHLANDS AVES JENKINTOWN PA 19046 	40.0961224	-75.133664	2185
Davie County High	1200 SALISBURY RD MOCKSVILLE NC 27028 	35.872861	-80.551962	2186
Brown County High School	235 SOUTH SCHOOLHOUSE LN NASHVILLE IN 47448 	39.2048496	-86.2448899	2187
Johnson High School	3305 POPLAR SPRINGS RD GAINESVILLE GA 30507 	34.221093	-83.860798	2188
Apollo High School	8045 NORTH 47TH AVE GLENDALE AZ 85302 	33.555603	-112.158302	2189
N Garland High School	2109 WEST BUCKINGHAM RD GARLAND TX 75042 	32.93226	-96.659143	2190
Bradford Area High School	81 INTERSTATE PARKWAY BRADFORD PA 16701 	41.9591871	-78.6588708	2191
Concord Community High School	59117 MINUTEMAN WAY ELKHART IN 46517 	41.633711	-85.927206	2192
Garrett High School	801 EAST HOUSTON ST GARRETT IN 46738 	41.34799	-85.126301	2193
Delhi High	16881 WEST SCHENDEL AVE DELHI CA 95315 	37.4254572	-120.7904662	2194
Clinton Senior High School	200 WEST BOYLSTON ST CLINTON MA 01510 	42.410374	-71.6971533	2195
Mesquite High School	500 SOUTH MCQUEEN RD GILBERT AZ 85233 	33.3414943	-111.824412	2196
Navarro High School	6350 NORTH STATE HWY 123 SEGUIN TX 78155 	29.5359988	-97.9574745	2197
Rosholt High	346 WEST RANDOLPH ST ROSHOLT WI 54473 	44.6304	-89.3133	2198
Ashe County High	184 CAMPUS DR WEST JEFFERS NC 28694 	36.392264	-81.478117	2199
Mesick Consolidated Jr/​Sr High School	581 SOUTH CLARK ST MESICK MI 49668 	44.4012039	-85.7095173	2200
